address,adname,biz_ext,biz_type,childtype,cityname,distance,id,importance,location,name,parent,photos,pname,poiweight,shopid,shopinfo,tel,type,typecode
崇阳街道崇阳镇蜀州北路120号,崇州市,[],[],[],成都市,[],B0FFGI6WJ6,[],"103.67022,30.63544",中国农业银行(崇州市支行),[],[],四川省,[],[],2,95599,金融保险服务;银行;中国农业银行,160107
敖平街道凤楼中街121号,彭州市,[],[],[],成都市,[],B001C06XQ1,[],"103.988269,31.092247",中国农业银行(敖平分理处),[],[],四川省,[],[],2,028-83861016,金融保险服务;银行;中国农业银行,160107
天久北巷139号附9号,武侯区,[],[],[],成都市,[],B001C8O9L1,[],"104.075317,30.592738",中国农业银行(天府长城支行),[],[],四川省,[],[],2,028-84715907;028-61554386,金融保险服务;银行;中国农业银行,160107
劳动街2-4,新津区,[],[],[],成都市,[],B001C7VRJ5,[],"103.788794,30.414936",中国农业银行(新津太平分理处),[],[],四川省,[],[],2,028-82589831,金融保险服务;银行;中国农业银行,160107
金彭西路体育场西街2号,彭州市,[],[],[],成都市,[],B001C05ZJ9,[],"103.931918,30.988262",中国农业银行(彭州支行营业部),[],[],四川省,[],[],2,028-83872151;028-95599,金融保险服务;银行;中国农业银行,160107
成汉南路138号(天府新谷、仁和春天国际花园、誉峰、市一医院),武侯区,[],[],[],成都市,[],B0FFFEY2Y3,[],"104.054169,30.585723",中国农业银行(天府大道支行),[],[],四川省,[],[],2,028-69760778,金融保险服务;银行;中国农业银行,160107
紫瑞北街86-90号,武侯区,[],[],[],成都市,[],B001C80ODO,[],"104.044674,30.615245",中国农业银行(成都神仙树支行),[],[],四川省,[],[],2,028-85161359,金融保险服务;银行;中国农业银行,160107
籍田街道回江社区新华路一段82-90号,双流区,[],[],[],成都市,[],B001C7X59S,[],"104.025862,30.308681",中国农业银行(成都籍田分理处),[],[],四川省,[],[],2,028-85691205,金融保险服务;银行;中国农业银行,160107
高新区天府大道北段20号高新国际广场B座1层,武侯区,[],[],[],成都市,[],B001C8P6XZ,[],"104.066731,30.591616",中国农业银行(高新技术产业开发区支行),[],[],四川省,[],[],2,028-85319286,金融保险服务;银行;中国农业银行,160107
洞子口路333号附1-2号,金牛区,[],[],[],成都市,[],B001C8P767,[],"104.060921,30.721670",中国农业银行(成都洞子口支行),[],[],四川省,[],[],2,028-83113505,金融保险服务;银行;中国农业银行,160107
江源中路488-494号,崇州市,[],[],[],成都市,[],B001C8R81M,[],"103.691441,30.631859",中国农业银行(唐人街分理处),[],[],四川省,[],[],2,028-82221153,金融保险服务;银行;中国农业银行,160107
天府新区兴隆湖成都科学城天府菁蓉中心A区1-1033号,双流区,[],[],202,成都市,[],B0FFK0N0W6,[],"104.078466,30.402461",中国农业银行(自贸区支行),B0FFL1D46W,[],四川省,[],[],2,028-64974625,金融保险服务;银行;中国农业银行,160107
二环路南四段69号附15号,武侯区,[],[],[],成都市,[],B001C7Y8JC,[],"104.031593,30.632900",中国农业银行(成都永丰场支行),[],[],四川省,[],[],2,028-61812183,金融保险服务;银行;中国农业银行,160107
上阳街220号附4号,都江堰市,[],[],[],成都市,[],B001C8NTDY,[],"103.682684,31.032180",中国农业银行(蒲阳分理处),[],[],四川省,[],[],2,028-87287126,金融保险服务;银行;中国农业银行,160107
固驿镇卷动桥街46号,邛崃市,[],[],[],成都市,[],B001C05FSL,[],"103.582443,30.382973",中国农业银行(固驿分理处),[],[],四川省,[],[],2,028-88711093,金融保险服务;银行;中国农业银行,160107
武阳中路26号(新津荣达大厦旁),新津区,[],[],[],成都市,[],B001C081BT,[],"103.813033,30.411648",中国农业银行(新津区支行),[],[],四川省,[],[],2,028-82521431,金融保险服务;银行;中国农业银行,160107
南大街178号,郫都区,[],[],[],成都市,[],B001C0AGRT,[],"103.883715,30.807326",中国农业银行(成都西区支行),[],[],四川省,[],[],2,028-87929829,金融保险服务;银行;中国农业银行,160107
文化街219号,金堂县,[],[],[],成都市,[],B001C7YJRV,[],"104.557578,30.717627",中国农业银行(金堂淮口支行),[],[],四川省,[],[],2,028-63932626,金融保险服务;银行;中国农业银行,160107
南街81-89,新都区,[],[],[],成都市,[],B001C0AGTI,[],"104.026371,30.818310",中国农业银行(龙桥分理处),[],[],四川省,[],[],2,028-63932051,金融保险服务;银行;中国农业银行,160107
盛华南路169号,武侯区,[],[],[],成都市,[],B0FFGY0BUE,[],"104.054004,30.547247",中国农业银行(蜀都支行营业部),[],[],四川省,[],[],2,028-63930569,金融保险服务;银行;中国农业银行,160107
郫筒镇望丛西路295号(桃园柳岸),郫都区,[],[],[],成都市,[],B001C7ZWWY,[],"103.879557,30.815748",中国农业银行(郫都区桃园分理处),[],[],四川省,[],[],2,028-87928656,金融保险服务;银行;中国农业银行,160107
陕西街239号附1号,青羊区,[],[],[],成都市,[],B001C7WQZ6,[],"104.060296,30.654287",中国农业银行(成都祠堂街支行),[],[],四川省,[],[],2,028-86122327,金融保险服务;银行;中国农业银行,160107
都江堰天府大道639号,都江堰市,[],[],[],成都市,[],B001C93FYH,[],"103.646252,30.955480",中国农业银行(社保分理处),[],[],四川省,[],[],2,028-87240638;95599,金融保险服务;银行;中国农业银行,160107
安仁镇中心街12-20号,大邑县,[],[],[],成都市,[],B001C8PM0Z,[],"103.618915,30.511261",中国农业银行(大邑安仁支行),[],[],四川省,[],[],2,028-88315122,金融保险服务;银行;银行,160100
文君社区凤凰大道478号,邛崃市,[],[],[],成都市,[],B0FFGD6B9D,[],"103.460626,30.400336",中国农业银行(邛崃支行营业部),[],[],四川省,[],[],2,028-88792150;028-88749833,金融保险服务;银行;中国农业银行,160107
文井街384-392号,崇州市,[],[],[],成都市,[],B001C8R7YV,[],"103.661409,30.638875",中国农业银行(崇州崇阳分理处),[],[],四川省,[],[],2,028-82270134,金融保险服务;银行;银行,160100
剑南大道中段761-767号,武侯区,[],[],[],成都市,[],B0FFF9ULJT,[],"104.046684,30.556833",中国农业银行(新南支行),[],[],四川省,[],[],2,028-86040239;028-86040067,金融保险服务;银行;中国农业银行,160107
牛沙南路3号1层附14号,锦江区,[],[],202,成都市,[],B001C7WR07,[],"104.108154,30.621241",中国农业银行(成都静居寺支行),B001C7WF5V,[],四川省,[],[],2,028-84590472,金融保险服务;银行;中国农业银行,160107
三岔镇三岔街200号,简阳市,[],[],[],成都市,[],B034000QM0,[],"104.300992,30.297727",中国农业银行(成都空港新城支行),[],[],四川省,[],[],2,028-27828217,金融保险服务;银行;中国农业银行,160107
城厢镇大东街83号,青白江区,[],[],[],成都市,[],B001C05MDA,[],"104.322244,30.856285",中国农业银行(城厢支行),[],[],四川省,[],[],2,028-83632741,金融保险服务;银行;中国农业银行,160107
牟礼镇幸福街30号,邛崃市,[],[],[],成都市,[],B001C7UXU9,[],"103.668637,30.349190",中国农业银行(邛崃牟礼分理处),[],[],四川省,[],[],2,028-88721489,金融保险服务;银行;中国农业银行,160107
兴达路963号,温江区,[],[],[],成都市,[],B001C05TP0,[],"103.772448,30.669971",中国农业银行(温江永盛支行),[],[],四川省,[],[],2,028-82620240,金融保险服务;银行;中国农业银行,160107
东大街113-121号,温江区,[],[],[],成都市,[],B001C0AGUB,[],"103.841109,30.699100",中国农业银行(成都温江支行),[],[],四川省,[],[],2,028-82724630,金融保险服务;银行;中国农业银行,160107
瑞联西路99-101,青羊区,[],[],[],成都市,[],B0FFFODIZE,[],"103.960300,30.685342",中国农业银行(青羊工业园区支行),[],[],四川省,[],[],2,028-61502910,金融保险服务;银行;中国农业银行,160107
"太平园东三街2,4,6,8号",武侯区,[],[],[],成都市,[],B001C8O47S,[],"104.015389,30.631282",中国农业银行(成都双楠支行),[],[],四川省,[],[],2,028-85067621,金融保险服务;银行;中国农业银行,160107
电子路101附3-附8,新都区,[],[],[],成都市,[],B001C05BFK,[],"104.151302,30.816452",中国农业银行(新都电子路分理处),[],[],四川省,[],[],2,028-63932047,金融保险服务;银行;中国农业银行,160107
三江镇崇新路二段24号,崇州市,[],[],[],成都市,[],B0FFFADIU0,[],"103.778204,30.538229",中国农业银行(三江分理处),[],[],四川省,[],[],2,028-82242439,金融保险服务;银行;中国农业银行,160107
碧云路1号,武侯区,[],[],[],成都市,[],B001C0AGPO,[],"104.030669,30.641635",中国农业银行(碧云天支行),[],[],四川省,[],[],2,028-85094230;028-85094240,金融保险服务;银行;银行,160100
三星镇正街68号,简阳市,[],[],[],成都市,[],B034000QLW,[],"104.613401,30.554534",中国农业银行(三星分理处),[],[],四川省,[],[],2,028-27371221,金融保险服务;银行;中国农业银行,160107
杨祠街167-171号,崇州市,[],[],[],成都市,[],B001C7UIBV,[],"103.663800,30.625555",中国农业银行(杨祠街分理处),[],[],四川省,[],[],2,028-82217169,金融保险服务;银行;中国农业银行,160107
上街2-10,双流区,[],[],[],成都市,[],B001C0AGR6,[],"104.088741,30.559085",中国农业银行(中和第二分理处),[],[],四川省,[],[],2,028-85651853;028-85651672,金融保险服务;银行;中国农业银行,160107
IT大道蜀鑫路67-69-蜀鑫东路131号,青羊区,[],[],[],成都市,[],B001C953EM,[],"103.991447,30.682600",中国农业银行(成都蜀鑫支行),[],[],四川省,[],[],2,028-83189776;028-83192439,金融保险服务;银行;中国农业银行,160107
两河路西段73-79号,温江区,[],[],[],成都市,[],B001C8OBT3,[],"103.840088,30.687841",中国农业银行(友谊花园支行),[],[],四川省,[],[],2,028-82760971,金融保险服务;银行;中国农业银行,160107
高店路西段67号,郫都区,[],[],202,成都市,[],B0FFF009C3,[],"103.938963,30.774678",中国农业银行(红光分理处),B001C951AK,[],四川省,[],[],2,028-87987288;95599,金融保险服务;银行;中国农业银行,160107
铁溪路365号,大邑县,[],[],[],成都市,[],B001C7YJS9,[],"103.688841,30.523774",中国农业银行(董场分理处),[],[],四川省,[],[],2,028-88324960,金融保险服务;银行;银行,160100
世纪城路198号附1637号,武侯区,[],[],[],成都市,[],B001C80IZZ,[],"104.075093,30.552486",中国农业银行(成都世纪城支行),[],[],四川省,[],[],2,028-85333272;95599,金融保险服务;银行;中国农业银行,160107
金府路593号附8-12,金牛区,[],[],202,成都市,[],B001C8020K,[],"104.036135,30.711700",中国农业银行(金府支行),B0FFFQ6216,[],四川省,[],[],2,95599,金融保险服务;银行;中国农业银行,160107
和平路68-74号,龙泉驿区,[],[],[],成都市,[],B001C8MR5F,[],"104.177559,30.650229",中国农业银行(十陵分理处),[],[],四川省,[],[],2,028-84600224;028-84605815;028-95599,金融保险服务;银行;中国农业银行,160107
黄河中路二段388号航空港总部基地A12栋,双流区,[],[],202,成都市,[],B0FFGA767K,[],"103.999552,30.572341",中国农业银行(双流西航港分理处),B0FFFRCH7U,[],四川省,[],[],2,[],金融保险服务;银行;中国农业银行,160107
益州大道1999号银泰城悦坊1栋1层,武侯区,[],[],202,成都市,[],B0FFI7UUC5,[],"104.060762,30.541866",中国农业银行(成都银泰城支行),B001C95DSR,[],四川省,[],[],2,028-85973652,金融保险服务;银行;中国农业银行,160107
永兴西路与飞跃街交叉口东100米,郫都区,[],[],[],成都市,[],B0FFIIV1RQ,[],"103.826019,30.853449",中国农业银行24小时自助银行(飞跃街),[],[],四川省,[],[],2,[],金融保险服务;自动提款机;中国农业银行ATM,160304
海科路西段20号,温江区,[],[],[],成都市,[],B0FFG11C8S,[],"103.809948,30.671454",中国农业银行24小时自助银行(海科路西段),[],[],四川省,[],[],2,[],金融保险服务;自动提款机;中国农业银行ATM,160304
凯力威工业大道北段,简阳市,[],[],[],成都市,[],B0FFIIJSAS,[],"104.554923,30.363591",中国农业银行24小时自助银行(凯力威・锦绣阳光西南),[],[],四川省,[],[],2,[],金融保险服务;自动提款机;中国农业银行ATM,160304
解放路二段2号附6号,金牛区,[],[],3,成都市,[],B001C7WQZG,[],"104.079269,30.676902",中国农业银行24小时自助银行(解放路支行),B0FFF5HO97,[],四川省,[],[],2,[],金融保险服务;自动提款机;中国农业银行ATM,160304
三界西街与育才路交叉路口东南侧(餮艚值),彭州市,[],[],[],成都市,[],B0FFJ115NL,[],"104.105993,31.022550",中国农业银行24小时自助银行,[],[],四川省,[],[],2,[],金融保险服务;自动提款机;中国农业银行ATM,160304
新繁街道正南街7号,新都区,[],[],[],成都市,[],B0FFFQ205B,[],"104.018605,30.870766",中国农业银行24小时自助银行(新繁支行),[],[],四川省,[],[],2,[],金融保险服务;自动提款机;中国农业银行ATM,160304
高板街道中兴街195-201号,金堂县,[],[],[],成都市,[],B001C8ZNKP,[],"104.632381,30.687966",中国农业银行24小时自助银行(高板分理处),[],[],四川省,[],[],2,[],金融保险服务;自动提款机;中国农业银行ATM,160304
龙桥路太平园家具博览城D座1082号附近,双流区,[],[],[],成都市,[],B0FFHRV9WQ,[],"103.940497,30.608272",中国农业银行24小时自助银行(龙桥路),[],[],四川省,[],[],2,[],金融保险服务;自动提款机;中国农业银行ATM,160304
上街2-20,双流区,[],[],3,成都市,[],B001C8OR4P,[],"104.088774,30.559204",中国农业银行24小时自助银行(中和第二分理处),B001C0AGR6,[],四川省,[],[],2,[],金融保险服务;自动提款机;中国农业银行ATM,160304
东星大道252-254号,邛崃市,[],[],[],成都市,[],B0FFJB1Z4T,[],"103.471751,30.404459",中国农业银行24小时自助银行(邛崃双江分理处),[],[],四川省,[],[],2,[],金融保险服务;自动提款机;中国农业银行ATM,160304
成双大道北段68号附近,武侯区,[],[],3,成都市,[],B001C0AGRD,[],"104.011146,30.614980",中国农业银行24小时自助银行(成都太平寺支行),B001C0AGRC,[],四川省,[],[],2,[],金融保险服务;自动提款机;中国农业银行ATM,160304
郫筒镇南大街178号(农行大厦),郫都区,[],[],[],成都市,[],B0FFGMY1DZ,[],"103.888671,30.810186",中国农业银行ATM,[],[],四川省,[],[],2,[],金融保险服务;自动提款机;中国农业银行ATM,160304
天仙桥北路5号附1号,锦江区,[],[],[],成都市,[],B0FFGFNBM3,[],"104.086228,30.651754",中国农业银行24小时自助银行(成都东大街支行),[],[],四川省,[],[],2,[],金融保险服务;自动提款机;中国农业银行ATM,160304
三安路与方园路交叉口东150米,大邑县,[],[],[],成都市,[],B0FFH2IMDZ,[],"103.742875,30.532491",中国农业银行24小时自助银行(大邑县支行),[],[],四川省,[],[],2,[],金融保险服务;自动提款机;中国农业银行ATM,160304
成华大道龙潭路1号,成华区,[],[],3,成都市,[],B001C8R7JN,[],"104.162490,30.699926",中国农业银行24小时自助银行(龙潭支行),B001C05GW6,[],四川省,[],[],2,[],金融保险服务;自动提款机;中国农业银行ATM,160304
两河路西段73-79号,温江区,[],[],3,成都市,[],B001C8OAO8,[],"103.840209,30.687888",中国农业银行24小时自助银行(友谊花园支行),B001C8OBT3,[],四川省,[],[],2,[],金融保险服务;自动提款机;中国农业银行ATM,160304
武侯科技园武科东二路11号,武侯区,[],[],3,成都市,[],B001C0AGQE,[],"103.989564,30.630262",中国农业银行24小时自助银行(成都科技园支行),B001C0AGQD,[],四川省,[],[],2,[],金融保险服务;自动提款机;中国农业银行ATM,160304
弥牟镇民族路43号,青白江区,[],[],3,成都市,[],B001C8OOEC,[],"104.202890,30.877067",中国农业银行24小时自助银行(弥牟支行),B001C807VW,[],四川省,[],[],2,[],金融保险服务;自动提款机;中国农业银行ATM,160304
明珠路东50米,崇州市,[],[],[],成都市,[],B0FFFADI3V,[],"103.720931,30.680071",中国农业银行ATM(明珠路),[],[],四川省,[],[],2,[],金融保险服务;自动提款机;中国农业银行ATM,160304
兴乐北路,新都区,[],[],[],成都市,[],B0FFFGN0VZ,[],"104.199254,30.823567",中国农业银行24小时自助银行(成怡嘉苑西南),[],[],四川省,[],[],2,[],金融保险服务;自动提款机;中国农业银行ATM,160304
观景路520号,都江堰市,[],[],3,成都市,[],B001C7ZWGD,[],"103.633273,31.001881",中国农业银行24小时自助银行(都江堰城区支行),B001C7ZWGC,[],四川省,[],[],2,[],金融保险服务;自动提款机;中国农业银行ATM,160304
新驿南街37号附1号-附8号,龙泉驿区,[],[],3,成都市,[],B001C7UWMS,[],"104.271624,30.556980",中国农业银行24小时自助银行(成都经济技术开发区支行),B001C7UWO0,[],四川省,[],[],2,[],金融保险服务;自动提款机;中国农业银行ATM,160304
泉水路与蓉北商贸大道二段交汇处南角,金牛区,[],[],[],成都市,[],B001C7UCR1,[],"104.057870,30.722038",中国农业银行24小时自助银行(蓉北商贸大道二段),[],[],四川省,[],[],2,[],金融保险服务;自动提款机;中国农业银行ATM,160304
体育场路6号农行大厦,青羊区,[],[],202,成都市,[],B001C7WR0A,[],"104.068945,30.662848",中国农业银行24小时自助银行(蓉城支行),B001C09IEU,[],四川省,[],[],2,[],金融保险服务;自动提款机;中国农业银行ATM,160304
建设北路三段185号附4-6号,成华区,[],[],3,成都市,[],B001C7U8A4,[],"104.116911,30.678223",中国农业银行24小时自助银行(圣灯支行),B001C05K40,[],四川省,[],[],2,[],金融保险服务;自动提款机;中国农业银行ATM,160304
天府中路12-14号,彭州市,[],[],3,成都市,[],B001C0AGSL,[],"103.942855,30.977855",中国农业银行24小时自助银行(天府东路支行),B001C064MH,[],四川省,[],[],2,[],金融保险服务;自动提款机;中国农业银行ATM,160304
长城路二段399号,双流区,[],[],3,成都市,[],B001C8R9BZ,[],"103.990751,30.548097",中国农业银行24小时自助银行(双流文星支行),B0FFFFPU8V,[],四川省,[],[],2,[],金融保险服务;自动提款机;中国农业银行ATM,160304
石羊镇场口三羊雕像后,都江堰市,[],[],[],成都市,[],B001C8XMAJ,[],"103.644962,30.849090",中国农业银行24小时自助银行(石羊分理处),[],[],四川省,[],[],2,[],金融保险服务;自动提款机;中国农业银行ATM,160304
高攀东路74-78号,武侯区,[],[],3,成都市,[],B001C7Y9I4,[],"104.081206,30.608606",中国农业银行24小时自助银行(高攀路支行),B001C7Y8IR,[],四川省,[],[],2,[],金融保险服务;自动提款机;中国农业银行ATM,160304
文康路26号,青羊区,[],[],3,成都市,[],B001C0AGUJ,[],"103.928585,30.698954",中国农业银行24小时自助银行(新城花园支行),B001C0AGUI,[],四川省,[],[],2,[],金融保险服务;自动提款机;中国农业银行ATM,160304
如意大道79号,新都区,[],[],[],成都市,[],B0FFF2QLWL,[],"104.151894,30.827873",中国农业银行24小时自助银行(通站路分理处),[],[],四川省,[],[],2,[],金融保险服务;自动提款机;中国农业银行ATM,160304
柳台大道东段235-239,温江区,[],[],3,成都市,[],B001C8MXJO,[],"103.822305,30.687323",中国农业银行24小时自助银行(温江海科分理处),B001C8N0JP,[],四川省,[],[],2,[],金融保险服务;自动提款机;中国农业银行ATM,160304
赵镇迎宾大道一段141号,金堂县,[],[],3,成都市,[],B001C7ZWQ8,[],"104.409201,30.849731",中国农业银行24小时自助银行(金堂园区分理处),B001C7ZWPG,[],四川省,[],[],2,[],金融保险服务;自动提款机;中国农业银行ATM,160304
蜀西路73-75,金牛区,[],[],3,成都市,[],B001C8OCTM,[],"103.996333,30.709382",中国农业银行24小时自助银行(蜀西支行),B001C8R83K,[],四川省,[],[],2,[],金融保险服务;自动提款机;中国农业银行ATM,160304
怡湖西路89号附8号,青白江区,[],[],3,成都市,[],B001C7VRIU,[],"104.252356,30.881238",中国农业银行24小时自助银行(青白江支行营业部),B0FFGEW8QL,[],四川省,[],[],2,[],金融保险服务;自动提款机;中国农业银行ATM,160304
建设路61号摩尔华盛购物中心1层,龙泉驿区,[],[],202,成都市,[],B001C0AGTJ,[],"104.271968,30.560507",中国农业银行24小时自助银行(成都经济技术开发区支行),B001C7UWND,[],四川省,[],[],2,[],金融保险服务;自动提款机;中国农业银行ATM,160304
奎光路14号,都江堰市,[],[],3,成都市,[],B001C8010J,[],"103.619529,30.988117",中国农业银行24小时自助银行(塔子坝支行),B001C80779,[],四川省,[],[],2,[],金融保险服务;自动提款机;中国农业银行ATM,160304
金彭西路384号,彭州市,[],[],3,成都市,[],B001C8NV0O,[],"103.931960,30.988536",中国农业银行24小时自助银行(彭州支行营业部),B001C05ZJ9,[],四川省,[],[],2,[],金融保险服务;自动提款机;中国农业银行ATM,160304
滨西路23-24号,龙泉驿区,[],[],[],成都市,[],B0FFG24548,[],"104.231918,30.644828",中国农业银行24小时自助银行,[],[],四川省,[],[],2,[],金融保险服务;自动提款机;中国农业银行ATM,160304
江安河东路中段37-43号附近,都江堰市,[],[],[],成都市,[],B0FFJDF8IJ,[],"103.628197,30.974964",中国农业银行24小时自助银行(都江堰城东分理处),[],[],四川省,[],[],2,[],金融保险服务;自动提款机;中国农业银行ATM,160304
斑竹园镇五一街134-136号,新都区,[],[],3,成都市,[],B001C8MYPA,[],"104.064478,30.818705",中国农业银行24小时自助银行(斑竹园分理处),B001C8MC7T,[],四川省,[],[],2,[],金融保险服务;自动提款机;中国农业银行ATM,160304
牡丹北路66-70号,彭州市,[],[],3,成都市,[],B001C8MF4R,[],"103.953984,30.990879",中国农业银行24小时自助银行(彭州城郊分理处),B001C8MF4Q,[],四川省,[],[],2,[],金融保险服务;自动提款机;中国农业银行ATM,160304
天府路260-266号附近,郫都区,[],[],[],成都市,[],B0FFFCOJA4,[],"103.979821,30.760565",中国农业银行24小时自助银行(犀浦支行),[],[],四川省,[],[],2,[],金融保险服务;自动提款机;中国农业银行ATM,160304
崇阳大道501(白马金岸繁华地欢乐城),崇州市,[],[],[],成都市,[],B0FFHR4TUZ,[],"103.709477,30.632379",中国农业银行24小时自助银行(崇阳大道),[],[],四川省,[],[],2,[],金融保险服务;自动提款机;中国农业银行ATM,160304
电子路101附3-8,新都区,[],[],3,成都市,[],B001C05XCG,[],"104.151331,30.816419",中国农业银行24小时自助银行(新都电子路分理处),B001C05BFK,[],四川省,[],[],2,[],金融保险服务;自动提款机;中国农业银行ATM,160304
中正街108-114,金堂县,[],[],3,成都市,[],B001C7X577,[],"104.835929,30.519704",中国农业银行ATM(土桥分理处),B001C7X915,[],四川省,[],[],2,[],金融保险服务;自动提款机;中国农业银行ATM,160304
临邛镇东街595号,邛崃市,[],[],3,成都市,[],B001C06S9E,[],"103.471772,30.410280",中国农业银行24小时自助银行(邛崃车站分理处),B001C05OD8,[],四川省,[],[],2,[],金融保险服务;自动提款机;中国农业银行ATM,160304
蜚虹路与318国道交汇处西北100米,邛崃市,[],[],[],成都市,[],B0FFF3AEH0,[],"103.475901,30.416879",中国农业银行24小时自助银行(邛崃车站支行),[],[],四川省,[],[],2,[],金融保险服务;自动提款机;中国农业银行ATM,160304
司马大道482号附近,邛崃市,[],[],[],成都市,[],B0FFGIFX14,[],"103.460622,30.400309",中国农业银行24小时自助银行(邛崃支行营业部),[],[],四川省,[],[],2,[],金融保险服务;自动提款机;中国农业银行ATM,160304
朝阳南路432号,彭州市,[],[],[],成都市,[],B0FFFPLXKJ,[],"103.950847,30.976336",中国农业银行24小时自助银行(彭州客运中心自助银行),[],[],四川省,[],[],2,[],金融保险服务;自动提款机;中国农业银行ATM,160304
华逸路107号,青白江区,[],[],[],成都市,[],B0FFG7H3JV,[],"104.244768,30.887564",中国农业银行24小时自助银行(华逸路),[],[],四川省,[],[],2,[],金融保险服务;自动提款机;中国农业银行ATM,160304
二环路北三段21号之6号-7,金牛区,[],[],3,成都市,[],B001C8NNXQ,[],"104.087744,30.693369",中国农业银行24小时自助银行(成都高笋塘支行),B001C08176,[],四川省,[],[],2,[],金融保险服务;自动提款机;中国农业银行ATM,160304
幸福路88号,都江堰市,[],[],[],成都市,[],B0FFFFM9X4,[],"103.620925,30.996666",中国农业银行24小时自助银行(幸福路),[],[],四川省,[],[],2,[],金融保险服务;自动提款机;中国农业银行ATM,160304
蜀鑫路67号,青羊区,[],[],[],成都市,[],B001C953EN,[],"103.991368,30.682824",中国农业银行24小时自助银行(蜀鑫支行),[],[],四川省,[],[],2,[],金融保险服务;自动提款机;中国农业银行ATM,160304
大邑大道274号,大邑县,[],[],[],成都市,[],B0FFIIU0IQ,[],"103.525742,30.569594",中国农业银行24小时自助银行(晋原分理处),[],[],四川省,[],[],2,[],金融保险服务;自动提款机;中国农业银行ATM,160304
鸥鹏大道43号,龙泉驿区,[],[],[],成都市,[],B0FFFABGER,[],"104.269794,30.558568",中国农业银行24小时自助银行(成都经济技术开发区支行),[],[],四川省,[],[],2,[],金融保险服务;自动提款机;中国农业银行ATM,160304
武侯区高新区紫荆东路66号,武侯区,[],[],3,成都市,[],B001C7Y86P,[],"104.053196,30.614658",中国农业银行24小时自助银行(成都紫荆支行),B001C7UT7C,[],四川省,[],[],2,[],金融保险服务;自动提款机;中国农业银行ATM,160304
通桂路与通汇街交叉口西北100米,锦江区,[],[],[],成都市,[],B0FFIZLZ27,[],"104.116990,30.637305",中国农业银行24小时自助银行(通汇支行),[],[],四川省,[],[],2,[],金融保险服务;自动提款机;中国农业银行ATM,160304
学府路北段附近,温江区,[],[],[],成都市,[],B0FFFHJBAY,[],"103.810434,30.687259",中国农业银行ATM(成都中医药大学越鞠苑南),[],[],四川省,[],[],2,[],金融保险服务;自动提款机;中国农业银行ATM,160304
崇阳街道杨祠街169号,崇州市,[],[],3,成都市,[],B001C7UIBW,[],"103.663909,30.625553",中国农业银行24小时自助银行(杨祠街分理处),B001C7UIBV,[],四川省,[],[],2,[],金融保险服务;自动提款机;中国农业银行ATM,160304
东街160-164,大邑县,[],[],[],成都市,[],B001C7UHR3,[],"103.525939,30.586638",中国农业银行24小时自助银行(晋原分理处),[],[],四川省,[],[],2,[],金融保险服务;自动提款机;中国农业银行ATM,160304
天龙大道1381号,金牛区,[],[],[],成都市,[],B0FFI9MRCE,[],"104.099649,30.772003",中国农业银行24小时自助银行(天回支行),[],[],四川省,[],[],2,[],金融保险服务;自动提款机;中国农业银行ATM,160304
百利路与锦绣大道北段交叉口东北150米,温江区,[],[],[],成都市,[],B0FFG3509N,[],"103.804893,30.685021",中国农业银行24小时自助银行(基础医学院南),[],[],四川省,[],[],2,[],金融保险服务;自动提款机;中国农业银行ATM,160304
营康西路2号附1号,金牛区,[],[],3,成都市,[],B001C8MJA8,[],"104.035166,30.686553",中国农业银行24小时自助银行(成西支行),B001C8MJA7,[],四川省,[],[],2,[],金融保险服务;自动提款机;中国农业银行ATM,160304
槐树街79号,金牛区,[],[],3,成都市,[],B001C7WCQ6,[],"104.048638,30.672136",中国农业银行24小时自助银行(成都三洞桥支行),B001C7WCQ5,[],四川省,[],[],2,[],金融保险服务;自动提款机;中国农业银行ATM,160304
华阳镇华阳大道第V大道,双流区,[],[],3,成都市,[],B001C0AGR4,[],"104.056195,30.510314",中国农业银行24小时自助银行(双流华阳支行),B001C0AGR3,[],四川省,[],[],2,[],金融保险服务;自动提款机;中国农业银行ATM,160304
迎宾大道123号西锦城商业楼113-114号,金牛区,[],[],[],成都市,[],B001C94OZ5,[],"104.010181,30.710379",中国农业银行24小时自助银行(迎宾大道支行),[],[],四川省,[],[],2,[],金融保险服务;自动提款机;中国农业银行ATM,160304
成白路88附近,双流区,[],[],202,成都市,[],B001C8R91J,[],"104.017735,30.561681",中国农业银行24小时自助银行(成都兴华丰支行),B0FFF8NOBM,[],四川省,[],[],2,[],金融保险服务;自动提款机;中国农业银行ATM,160304
内蒙古大道55-61号,大邑县,[],[],3,成都市,[],B001C8R8N2,[],"103.519629,30.573352",中国农业银行24小时自助银行(大邑桃园新区支行),B001C8R8N1,[],四川省,[],[],2,[],金融保险服务;自动提款机;中国农业银行ATM,160304
马超东路31号附1-3,新都区,[],[],3,成都市,[],B001C8R6R5,[],"104.187288,30.807200",中国农业银行24小时自助银行(马超东路支行),B001C8R6R3,[],四川省,[],[],2,[],金融保险服务;自动提款机;中国农业银行ATM,160304
区川师大东校区内体育场,龙泉驿区,[],[],[],成都市,[],B001C8N29G,[],"104.163208,30.608524",中国农业银行24小时自助银行,[],[],四川省,[],[],2,[],金融保险服务;自动提款机;中国农业银行ATM,160304
大丰镇南街171号,新都区,[],[],3,成都市,[],B001C8MEMA,[],"104.053867,30.759743",中国农业银行24小时自助银行(新都大丰支行),B001C0AGRW,[],四川省,[],[],2,[],金融保险服务;自动提款机;中国农业银行ATM,160304
新中路122号,新都区,[],[],3,成都市,[],B0FFG0W3HC,[],"104.161383,30.825883",中国农业银行ATM(新都支行营业部),B001C7U4MU,[],四川省,[],[],2,[],金融保险服务;自动提款机;中国农业银行ATM,160304
崇义桥街91-95号,新都区,[],[],3,成都市,[],B001C7U49F,[],"104.053057,30.762625",中国农业银行24小时自助银行,B001C7U49E,[],四川省,[],[],2,[],金融保险服务;自动提款机;中国农业银行ATM,160304
政府街57-75号,简阳市,[],[],3,成都市,[],B03400MNZA,[],"104.550144,30.391041",中国农业银行24小时自助银行(政府街支行),B034000125,[],四川省,[],[],2,[],金融保险服务;自动提款机;中国农业银行ATM,160304
新民街188号,简阳市,[],[],3,成都市,[],B034000QM5,[],"104.548289,30.390207",中国农业银行24小时自助银行(简阳雄州支行),B0340000FF,[],四川省,[],[],2,[],金融保险服务;自动提款机;中国农业银行ATM,160304
静安路5号四川师范大学,锦江区,[],[],202,成都市,[],B001C8NPCV,[],"104.123780,30.609048",中国农业银行24小时自助银行(四川师范大学支行),B001C8NRSK,[],四川省,[],[],2,[],金融保险服务;自动提款机;中国农业银行ATM,160304
十里大道二段590-596号,金堂县,[],[],3,成都市,[],B001C8R8K3,[],"104.399691,30.864043",中国农业银行24小时自助银行(金堂中心分理处),B001C8R8K1,[],四川省,[],[],2,[],金融保险服务;自动提款机;中国农业银行ATM,160304
致顺路108-112号,成华区,[],[],3,成都市,[],B001C80F22,[],"104.108426,30.699095",中国农业银行ATM(致顺路),B001C80EL3,[],四川省,[],[],2,[],金融保险服务;自动提款机;中国农业银行ATM,160304
大东街152附1-附3,崇州市,[],[],3,成都市,[],B001C0AGSB,[],"103.674894,30.628685",中国农业银行24小时自助银行(大东街支行),B001C0AGSA,[],四川省,[],[],2,[],金融保险服务;自动提款机;中国农业银行ATM,160304
天仁路388号凯德天府,武侯区,[],[],202,成都市,[],B0FFFYR3Q8,[],"104.070435,30.602661",中国农业银行24小时自助银行(凯德天府支行),B001C8P59N,[],四川省,[],[],2,[],金融保险服务;自动提款机;中国农业银行ATM,160304
东坡北三路与清影路交叉口北50米,青羊区,[],[],3,成都市,[],B001C80EF2,[],"103.989244,30.665010",中国农业银行24小时自助银行(东坡支行),B001C80EF1,[],四川省,[],[],2,[],金融保险服务;自动提款机;中国农业银行ATM,160304
昭忠祠街100号附1-6,青羊区,[],[],3,成都市,[],B001C0AGS6,[],"104.087871,30.667515",中国农业银行ATM,B001C06JNE,[],四川省,[],[],2,[],金融保险服务;自动提款机;中国农业银行ATM,160304
黄忠路5号附4号,金牛区,[],[],3,成都市,[],B001C7UBW0,[],"104.014770,30.689666",中国农业银行24小时自助银行(黄忠支行),B001C7UBVZ,[],四川省,[],[],2,[],金融保险服务;自动提款机;中国农业银行ATM,160304
青台山路龙城1号广场1层,龙泉驿区,[],[],202,成都市,[],B0FFIJXAUZ,[],"104.198794,30.575414",中国农业银行24小时自助银行,B0FFHS21SN,[],四川省,[],[],2,[],金融保险服务;自动提款机;中国农业银行ATM,160304
聚龙路12-14,武侯区,[],[],3,成都市,[],B001C8O4MB,[],"104.006143,30.613164",中国农业银行24小时自助银行(聚龙路支行),B001C8O4T1,[],四川省,[],[],2,[],金融保险服务;自动提款机;中国农业银行ATM,160304
永丰路20号之附13附14,武侯区,[],[],3,成都市,[],B001C0AGS1,[],"104.049252,30.630307",中国农业银行24小时自助银行(成都新蓉支行),B001C05XNP,[],四川省,[],[],2,[],金融保险服务;自动提款机;中国农业银行ATM,160304
肖家河东一巷6号附5号,武侯区,[],[],[],成都市,[],B001C05X1W,[],"104.044913,30.632594",中国农业银行24小时自助银行(成都肖家河北街支行),[],[],四川省,[],[],2,[],金融保险服务;自动提款机;中国农业银行ATM,160304
太平园东三街2-8,武侯区,[],[],3,成都市,[],B001C8O44M,[],"104.015288,30.631142",中国农业银行24小时自助银行(双楠支行),B001C8O47S,[],四川省,[],[],2,[],金融保险服务;自动提款机;中国农业银行ATM,160304
天府大道北段20号高新国际广场b座,武侯区,[],[],[],成都市,[],B0FFGZUALG,[],"104.066794,30.591742",中国农业银行24小时自助银行(成都高新技术产业开发区支行),[],[],四川省,[],[],2,[],金融保险服务;自动提款机;中国农业银行ATM,160304
同心东路458号,温江区,[],[],[],成都市,[],B0FFIIJ7FR,[],"103.869946,30.688291",中国农业银行24小时自助银行(同兴东路),[],[],四川省,[],[],2,[],金融保险服务;自动提款机;中国农业银行ATM,160304
金科北路68附近,金牛区,[],[],[],成都市,[],B0FFIBFIV2,[],"104.004774,30.721036",中国农业银行24小时自助银行(成都茶店子支行),[],[],四川省,[],[],2,[],金融保险服务;自动提款机;中国农业银行ATM,160304
东大街113-121号,温江区,[],[],3,成都市,[],B001C0AGUD,[],"103.841182,30.699209",中国农业银行24小时自助银行(温江支行营业室),B001C081BL,[],四川省,[],[],2,[],金融保险服务;自动提款机;中国农业银行ATM,160304
沙湾路75号,金牛区,[],[],3,成都市,[],B001C7WQZN,[],"104.050503,30.693548",中国农业银行24小时自助银行(金牛支行营业部),B001C7WQZM,[],四川省,[],[],2,[],金融保险服务;自动提款机;中国农业银行ATM,160304
长寿路10号附21号,武侯区,[],[],3,成都市,[],B001C0AGPN,[],"104.071926,30.612189",中国农业银行24小时自助银行(长寿路支行),B001C0AGPM,[],四川省,[],[],2,[],金融保险服务;自动提款机;中国农业银行ATM,160304
肖三南巷与肖家村二巷交叉口东北50米,金牛区,[],[],[],成都市,[],B0FFG4I4OG,[],"104.074454,30.688385",中国农业银行24小时自助银行(成都荷花池支行),[],[],四川省,[],[],2,[],金融保险服务;自动提款机;中国农业银行ATM,160304
都江堰大道14号附19-20,都江堰市,[],[],3,成都市,[],B001C7VRJG,[],"103.627513,30.992582",中国农业银行24小时自助银行(岷山分理处),B001C7VRJF,[],四川省,[],[],2,[],金融保险服务;自动提款机;中国农业银行ATM,160304
五块石路12号1栋附1,金牛区,[],[],[],成都市,[],B0FFHU6EZ9,[],"104.067070,30.709154",中国农业银行24小时自助银行(五福支行),[],[],四川省,[],[],2,[],金融保险服务;自动提款机;中国农业银行ATM,160304
望东路81号,郫都区,[],[],[],成都市,[],B0FFG8J7R8,[],"103.895869,30.800187",中国农业银行24小时自助银行(望东路),[],[],四川省,[],[],2,[],金融保险服务;自动提款机;中国农业银行ATM,160304
世纪城路198号附1636,武侯区,[],[],3,成都市,[],B001C8MQ19,[],"104.074932,30.552458",中国农业银行24小时自助银行(成都世纪城支行),B001C80IZZ,[],四川省,[],[],2,[],金融保险服务;自动提款机;中国农业银行ATM,160304
苏坡桥中街9号,青羊区,[],[],3,成都市,[],B001C0AGU3,[],"103.984331,30.669189",中国农业银行24小时自助银行(苏坡桥支行),B001C0AGU2,[],四川省,[],[],2,[],金融保险服务;自动提款机;中国农业银行ATM,160304
清泉北街与清泉南街交叉口西南200米,温江区,[],[],[],成都市,[],B0FFIIJ7D8,[],"103.875995,30.677808",中国农业银行24小时自助银行(涌泉分理处),[],[],四川省,[],[],2,[],金融保险服务;自动提款机;中国农业银行ATM,160304
东滨路南段与印鳌路交叉口北50米,简阳市,[],[],[],成都市,[],B0FFJ99BZY,[],"104.543879,30.403776",中国农业银行24小时自助银行,[],[],四川省,[],[],2,[],金融保险服务;自动提款机;中国农业银行ATM,160304
通盈街106、120号,锦江区,[],[],[],成都市,[],B0FFGXAR4Z,[],"104.105133,30.630879",中国农业银行24小时自助银行(成都通盈路支行),[],[],四川省,[],[],2,[],金融保险服务;自动提款机;中国农业银行ATM,160304
太平街537号(李冰塑像后面),都江堰市,[],[],3,成都市,[],B001C05NJB,[],"103.632672,30.985474",中国农业银行24小时自助银行(观凤楼支行),B001C7TT82,[],四川省,[],[],2,[],金融保险服务;自动提款机;中国农业银行ATM,160304
武侯祠大街83号附1-2号,武侯区,[],[],3,成都市,[],B001C7WQZH,[],"104.053458,30.646360",中国农业银行24小时自助银行(锦南支行),B001C06IXG,[],四川省,[],[],2,[],金融保险服务;自动提款机;中国农业银行ATM,160304
桐梓林路中华园A区21号,武侯区,[],[],3,成都市,[],B001C7WHSI,[],"104.062853,30.616290",中国农业银行24小时自助银行服务,B001C05IVR,[],四川省,[],[],2,[],金融保险服务;自动提款机;中国农业银行ATM,160304
站北东街1号,成华区,[],[],3,成都市,[],B001C7WDSZ,[],"104.079272,30.700519",中国农业银行ATM(成都站北支行),B001C06N6E,[],四川省,[],[],2,[],金融保险服务;自动提款机;中国农业银行ATM,160304
青江东路24-26号,青白江区,[],[],3,成都市,[],B0FFGM0C4S,[],"104.266206,30.877132",中国农业银行24小时自助银行(大弯支行),B001C0AGTR,[],四川省,[],[],2,[],金融保险服务;自动提款机;中国农业银行ATM,160304
马鞍北路48号附2号,金牛区,[],[],3,成都市,[],B001C7WQZJ,[],"104.087672,30.678214",中国农业银行24小时自助银行(马鞍支行),B001C7WQZI,[],四川省,[],[],2,[],金融保险服务;自动提款机;中国农业银行ATM,160304
顺城大街316号附6号,青羊区,[],[],[],成都市,[],B0FFG11L3T,[],"104.071416,30.669318",中国农业银行24小时自助银行(蓉城支行),[],[],四川省,[],[],2,[],金融保险服务;自动提款机;中国农业银行ATM,160304
十里大道一段651-657号,金堂县,[],[],3,成都市,[],B001C8SGHX,[],"104.415729,30.858779",中国农业银行24小时自助银行(十里坝储蓄所),B001C8MCDQ,[],四川省,[],[],2,[],金融保险服务;自动提款机;中国农业银行ATM,160304
黄河中路二段东50米,双流区,[],[],[],成都市,[],B0FFGFULNA,[],"103.999441,30.572331",中国农业银行24小时自助银行(双流西航港分理处),[],[],四川省,[],[],2,[],金融保险服务;自动提款机;中国农业银行ATM,160304
五丁路与白马寺街交叉口东南50米,金牛区,[],[],[],成都市,[],B0FFG0ZBWB,[],"104.066098,30.683496",中国农业银行24小时自助银行(白马寺街),[],[],四川省,[],[],2,[],金融保险服务;自动提款机;中国农业银行ATM,160304
体院路2号(成都体育学院内),武侯区,[],[],[],成都市,[],B0FFFFM8WB,[],"104.045218,30.647517",中国农业银行24小时自助银行(励志路),[],[],四川省,[],[],2,[],金融保险服务;自动提款机;中国农业银行ATM,160304
宏济巷153、157、161号,锦江区,[],[],3,成都市,[],B001C7XDT1,[],"104.095466,30.643100",中国农业银行24小时自助银行(晶蓝半岛支行),B001C7XDT0,[],四川省,[],[],2,[],金融保险服务;自动提款机;中国农业银行ATM,160304
成飞大道经一路22号,青羊区,[],[],3,成都市,[],B001C8MV67,[],"103.965253,30.691279",中国农业银行24小时自助银行(黄田坝支行),B001C8MV66,[],四川省,[],[],2,[],金融保险服务;自动提款机;中国农业银行ATM,160304
金府路593号万贯金府银座8-12号,金牛区,[],[],202,成都市,[],B001C80J7W,[],"104.036088,30.711811",中国农业银行24小时自助银行(金府支行),B0FFFQ6216,[],四川省,[],[],2,[],金融保险服务;自动提款机;中国农业银行ATM,160304
益州大道中段1999-2栋附近,武侯区,[],[],[],成都市,[],B0FFJRTKIX,[],"104.060772,30.542092",中国农业银行24小时自助银行(天府四街),[],[],四川省,[],[],2,[],金融保险服务;自动提款机;中国农业银行ATM,160304
九里堤星汉路33号(46-48号底楼商铺),金牛区,[],[],3,成都市,[],B001C7WD52,[],"104.049926,30.703240",中国农业银行24小时自助银行(星汉路支行),B001C7WD53,[],四川省,[],[],2,[],金融保险服务;自动提款机;中国农业银行ATM,160304
一环路西一段144号附2号,青羊区,[],[],3,成都市,[],B001C7WQZ7,[],"104.040758,30.652502",中国农业银行24小时自助银行(百花支行),B001C056ED,[],四川省,[],[],2,[],金融保险服务;自动提款机;中国农业银行ATM,160304
太升北路54-58号,青羊区,[],[],3,成都市,[],B001C0AGRE,[],"104.082818,30.671943",中国农业银行24小时自助银行(成都太升支行),B001C05CI1,[],四川省,[],[],2,[],金融保险服务;自动提款机;中国农业银行ATM,160304
暑袜中街55-57号-附1,锦江区,[],[],3,成都市,[],B001C7WHUE,[],"104.074480,30.657226",中国农业银行24小时自助银行(暑袜中街支行),B001C06ODQ,[],四川省,[],[],2,[],金融保险服务;自动提款机;中国农业银行ATM,160304
武侯大道双楠段335号,武侯区,[],[],3,成都市,[],B001C7VRID,[],"104.012632,30.636400",中国农业银行24小时自助银行(双丰西路支行),B001C06W9W,[],四川省,[],[],2,[],金融保险服务;自动提款机;中国农业银行ATM,160304
科华街1号附8-10号,武侯区,[],[],3,成都市,[],B001C0AGSF,[],"104.079567,30.623715",中国农业银行24小时自助银行(成都川大花园支行),B001C0AGSE,[],四川省,[],[],2,[],金融保险服务;自动提款机;中国农业银行ATM,160304
岷江路与蛟龙步行街交叉口西50米,双流区,[],[],[],成都市,[],B001C959HW,[],"103.912510,30.607134",中国农业银行24小时自助银行(学府路),[],[],四川省,[],[],2,[],金融保险服务;自动提款机;中国农业银行ATM,160304
新光路8号、9号附36号,武侯区,[],[],3,成都市,[],B001C7UROG,[],"104.057946,30.611430",中国农业银行24小时自助银行(新光路支行),B001C05LDM,[],四川省,[],[],2,[],金融保险服务;自动提款机;中国农业银行ATM,160304
学府路北段附近,温江区,[],[],3,成都市,[],B001C7YNX9,[],"103.816505,30.681599",中国农业银行24小时自助银行(学苑分理处),B001C0AGUT,[],四川省,[],[],2,[],金融保险服务;自动提款机;中国农业银行ATM,160304
华润路36号之附31-附32,锦江区,[],[],3,成都市,[],B001C92CP9,[],"104.092846,30.611058",中国农业银行24小时自助银行(成都翡翠城支行),B001C92CP8,[],四川省,[],[],2,[],金融保险服务;自动提款机;中国农业银行ATM,160304
清溪西路40号附1号,青羊区,[],[],3,成都市,[],B001C7YPM5,[],"104.022229,30.678858",中国农业银行24小时自助银行(石人支行),B0FFFDJHWK,[],四川省,[],[],2,[],金融保险服务;自动提款机;中国农业银行ATM,160304
金阳路123-127号,青羊区,[],[],3,成都市,[],B001C7WR06,[],"104.004204,30.679790",中国农业银行24小时自助银行(金沙西园支行),B001C7WR05,[],四川省,[],[],2,[],金融保险服务;自动提款机;中国农业银行ATM,160304
青羊大道215号,青羊区,[],[],3,成都市,[],B001C7WBXK,[],"104.011179,30.676339",中国农业银行24小时自助银行(成都金沙支行),B001C7WBXJ,[],四川省,[],[],2,[],金融保险服务;自动提款机;中国农业银行ATM,160304
簇锦南路13-23号,武侯区,[],[],3,成都市,[],B001C7WEL7,[],"103.996083,30.600049",中国农业银行24小时自助银行(簇锦南路支行),B001C7WEL6,[],四川省,[],[],2,[],金融保险服务;自动提款机;中国农业银行ATM,160304
人民南路三段6号附9号,武侯区,[],[],3,成都市,[],B0FFF5U5FN,[],"104.065772,30.644126",中国农业银行24小时自助银行(小天竺支行),B001C0AGRU,[],四川省,[],[],2,[],金融保险服务;自动提款机;中国农业银行ATM,160304
龙腾中路20-30,武侯区,[],[],3,成都市,[],B001C80SIE,[],"104.014072,30.652449",中国农业银行24小时自助银行(龙腾中路),B001C80ROY,[],四川省,[],[],2,[],金融保险服务;自动提款机;中国农业银行ATM,160304
清江西路18-28号,青羊区,[],[],3,成都市,[],B001C7YOXY,[],"104.004411,30.674219",中国农业银行24小时自助银行(清江支行),B001C7YOY7,[],四川省,[],[],2,[],金融保险服务;自动提款机;中国农业银行ATM,160304
武侯祠东街2号附17号-19,武侯区,[],[],3,成都市,[],B0FFG61HD9,[],"104.047475,30.642576",中国农业银行24小时自助银行(武侯东街支行),B001C7WR0C,[],四川省,[],[],2,[],金融保险服务;自动提款机;中国农业银行ATM,160304
武侯祠大街365号附1-2号,武侯区,[],[],3,成都市,[],B001C7WR0D,[],"104.043248,30.642862",中国农业银行24小时自助银行(武侯支行),B001C7ULAX,[],四川省,[],[],2,[],金融保险服务;自动提款机;中国农业银行ATM,160304
一环路北三段顺沙巷1号,金牛区,[],[],3,成都市,[],B001C7WQZL,[],"104.080685,30.683511",中国农业银行24小时自助银行(人北支行),B001C7WQZK,[],四川省,[],[],2,[],金融保险服务;自动提款机;中国农业银行ATM,160304
瑞联路66号天合凯旋城7栋1层5号,青羊区,[],[],202,成都市,[],B001C7WE2R,[],"104.003197,30.666550",中国农业银行24小时自助银行(贝森南路支行),B0FFFPJ9KA,[],四川省,[],[],2,[],金融保险服务;自动提款机;中国农业银行ATM,160304
西华大学校内(电信楼),金牛区,[],[],3,成都市,[],B001C7U46T,[],"103.951654,30.776219",中国农业银行24小时自助银行(西华大学支行),B001C7U46S,[],四川省,[],[],2,[],金融保险服务;自动提款机;中国农业银行ATM,160304
洪山北路99号附17,成华区,[],[],[],成都市,[],B0FFG2YRDF,[],"104.094820,30.706543",中国农业银行24小时自助银行(仙湖分理处),[],[],四川省,[],[],2,[],金融保险服务;自动提款机;中国农业银行ATM,160304
晋阳路186号附1号,武侯区,[],[],3,成都市,[],B001C92KJG,[],"104.001023,30.651034",中国农业银行24小时自助银行(双流机投支行),B001C7WEJI,[],四川省,[],[],2,[],金融保险服务;自动提款机;中国农业银行ATM,160304
二环路南一段11号,武侯区,[],[],3,成都市,[],B001C7XDTA,[],"104.079922,30.620904",中国农业银行24小时自助银行(成都桂溪支行),B001C7XDT8,[],四川省,[],[],2,[],金融保险服务;自动提款机;中国农业银行ATM,160304
昭觉寺横路99号附3号,成华区,[],[],3,成都市,[],B001C7WDMT,[],"104.104858,30.701230",中国农业银行24小时自助银行(青龙支行),B001C7WDMS,[],四川省,[],[],2,[],金融保险服务;自动提款机;中国农业银行ATM,160304
晋吉北路169号,武侯区,[],[],3,成都市,[],B001C7WEFI,[],"104.000006,30.644227",中国农业银行24小时自助银行(晋阳分理处),B001C06BCP,[],四川省,[],[],2,[],金融保险服务;自动提款机;中国农业银行ATM,160304
万吉巷1号,金堂县,[],[],3,成都市,[],B001C7VRKC,[],"104.424192,30.854602",中国农业银行24小时自助银行(十里坝储蓄所),B001C7VRJD,[],四川省,[],[],2,[],金融保险服务;自动提款机;中国农业银行ATM,160304
庆丰街34号,温江区,[],[],3,成都市,[],B001C0684N,[],"103.832249,30.698539",中国农业银行24小时自助银行(金乌街分理处),B001C05QS9,[],四川省,[],[],2,[],金融保险服务;自动提款机;中国农业银行ATM,160304
中环路北段9-11号附近,都江堰市,[],[],[],成都市,[],B0FFIIJDSB,[],"103.624049,30.919756",中国农业银行24小时自助银行(中兴分理处),[],[],四川省,[],[],2,[],金融保险服务;自动提款机;中国农业银行ATM,160304
锦华路69号附2号,锦江区,[],[],3,成都市,[],B001C7WQZB,[],"104.099287,30.615872",中国农业银行24小时自助银行(东光支行),B001C0AGPW,[],四川省,[],[],2,[],金融保险服务;自动提款机;中国农业银行ATM,160304
一环路南二段1号附8-9号,武侯区,[],[],3,成都市,[],B001C7VRIF,[],"104.075198,30.633895",中国农业银行24小时自助银行(成都武城支行),B001C7VRIE,[],四川省,[],[],2,[],金融保险服务;自动提款机;中国农业银行ATM,160304
滨江东路136号,锦江区,[],[],3,成都市,[],B001C7UOQ8,[],"104.083037,30.643817",中国农业银行24小时自助银行(锦江支行),B001C068UG,[],四川省,[],[],2,[],金融保险服务;自动提款机;中国农业银行ATM,160304
劳动街2-4,新津区,[],[],3,成都市,[],B001C7VRJ6,[],"103.788735,30.414961",中国农业银行24小时自助银行(太平分理处),B001C7VRJ5,[],四川省,[],[],2,[],金融保险服务;自动提款机;中国农业银行ATM,160304
望平街2号附3号,成华区,[],[],3,成都市,[],B001C7WQZV,[],"104.090142,30.653312",中国农业银行24小时自助银行(望平街支行),B001C05QSX,[],四川省,[],[],2,[],金融保险服务;自动提款机;中国农业银行ATM,160304
青江北路80,青白江区,[],[],3,成都市,[],B001C7TSNJ,[],"104.257234,30.880923",中国农业银行24小时自助银行(青江北路),B001C8O49S,[],四川省,[],[],2,[],金融保险服务;自动提款机;中国农业银行ATM,160304
东大街,彭州市,[],[],[],成都市,[],B0FFJ5UFFD,[],"103.944635,30.983991",中国农业银行24小时自助银行(城南分理处),[],[],四川省,[],[],2,[],金融保险服务;自动提款机;中国农业银行ATM,160304
一环路南三段68-70号,武侯区,[],[],3,成都市,[],B001C7WQZD,[],"104.053722,30.633487",中国农业银行24小时自助银行(芳草街支行),B001C7WQZC,[],四川省,[],[],2,[],金融保险服务;自动提款机;中国农业银行ATM,160304
岳府街64号附1号,锦江区,[],[],3,成都市,[],B001C7UN2E,[],"104.079077,30.662986",中国农业银行24小时自助银行(锦阳支行),B001C060QB,[],四川省,[],[],2,[],金融保险服务;自动提款机;中国农业银行ATM,160304
总府路31号附2总府大厦1层,锦江区,[],[],3,成都市,[],B001C0AGR1,[],"104.076912,30.659019",中国农业银行24小时自助银行(成都总府支行),B001C7TKLO,[],四川省,[],[],2,[],金融保险服务;自动提款机;中国农业银行ATM,160304
双林路1号附13-16号,成华区,[],[],3,成都市,[],B001C7VRJ9,[],"104.114004,30.651415",中国农业银行24小时自助银行(万年场支行),B001C7VRJ8,[],四川省,[],[],2,[],金融保险服务;自动提款机;中国农业银行ATM,160304
二环路北三段北站东二路,金牛区,[],[],3,成都市,[],B001C06G0N,[],"104.079732,30.693885",中国农业银行ATM,B001C06VVG,[],四川省,[],[],2,[],金融保险服务;自动提款机;中国农业银行ATM,160304
郫都区下街22号,郫都区,[],[],[],成都市,[],B0FFFHB879,[],"103.968744,30.755924",中国农业银行24小时自助银行(下街),[],[],四川省,[],[],2,[],金融保险服务;自动提款机;中国农业银行ATM,160304
大业路16号大地・城市脉搏1层,锦江区,[],[],202,成都市,[],B001C7WGZQ,[],"104.070768,30.654203",中国农业银行24小时自助银行(蜀都支行),B001C7WJEE,[],四川省,[],[],2,[],金融保险服务;自动提款机;中国农业银行ATM,160304
新繁街道东街72号,新都区,[],[],3,成都市,[],B001C0AGUM,[],"104.019809,30.874587",中国农业银行24小时自助银行(新繁西街分理处),B001C0AGUL,[],四川省,[],[],2,[],金融保险服务;自动提款机;中国农业银行ATM,160304
丹坪街与彭温路交叉口南50米,彭州市,[],[],[],成都市,[],B0FFIIJLO4,[],"103.869843,30.971826",中国农业银行24小时自助银行(丽春镇自助银行),[],[],四川省,[],[],2,[],金融保险服务;自动提款机;中国农业银行ATM,160304
天府大道中段588号通威国际中心,武侯区,[],[],202,成都市,[],B0FFHAH190,[],"104.067895,30.550380",中国农业银行ATM(升华路),B001C8VXP7,[],四川省,[],[],2,[],金融保险服务;自动提款机;中国农业银行ATM,160304
西安南路63号附1号,金牛区,[],[],[],成都市,[],B0FFGXA90H,[],"104.046499,30.664913",中国农业银行24小时自助银行(西安路支行),[],[],四川省,[],[],2,[],金融保险服务;自动提款机;中国农业银行ATM,160304
高新区天府大道中段688号大源国际中心A3栋1层,武侯区,[],[],202,成都市,[],B0FFFODL68,[],"104.068315,30.548136",中国农业银行24小时自助银行(天府新区分行营业部),B001C8NQZF,[],四川省,[],[],2,[],金融保险服务;自动提款机;中国农业银行ATM,160304
人民南路三段16号10栋附近,武侯区,[],[],[],成都市,[],B0FFJ12ABK,[],"104.065790,30.639085",中国农业银行ATM,[],[],四川省,[],[],2,[],金融保险服务;自动提款机;中国农业银行ATM,160304
东升街道长冶路一段122号,双流区,[],[],[],成都市,[],B0G3OHAVOI,[],"103.924786,30.565760",中国农业银行(双流塔桥支行)(装修中),[],[],四川省,[],[],2,028-85856555;028-85826555,金融保险服务;银行;银行,160100
赵镇迎宾大道一段99号,金堂县,[],[],[],成都市,[],B001C7ZWPG,[],"104.409191,30.849713",中国农业银行(金堂园区分理处)(装修中),[],[],四川省,[],[],2,028-84159785,金融保险服务;银行;中国农业银行,160107
二环路西二段19号仁和春天广场A座1层,青羊区,[],[],202,成都市,[],B001C7YPZZ,[],"104.019772,30.662540",中国农业银行24小时自助银行(成都锦西支行)(装修中),B001C8TY45,[],四川省,[],[],2,[],金融保险服务;自动提款机;中国农业银行ATM,160304
华新下街192-194号,双流区,[],[],3,成都市,[],B001C7UWHP,[],"104.054736,30.515017",中国农业银行24小时自助银行(双流华阳分理处)(装修中),B001C056MM,[],四川省,[],[],2,[],金融保险服务;自动提款机;中国农业银行ATM,160304
紫瑞北街80-90,武侯区,[],[],3,成都市,[],B001C80SIC,[],"104.044661,30.615197",中国农业银行24小时自助银行(成都神仙树支行)(装修中),B001C80ODO,[],四川省,[],[],2,[],金融保险服务;自动提款机;中国农业银行ATM,160304
二仙桥东三路1成都理工大学,成华区,[],[],[],成都市,[],B001C8NOJY,[],"104.138263,30.672898",中国农业银行ATM(成功大道)(暂停营业),[],[],四川省,[],[],2,[],金融保险服务;自动提款机;中国农业银行ATM,160304
五津南路47号,新津区,[],[],[],成都市,[],B001C0AGUF,[],"103.812286,30.413015",中国农业银行24小时自助银行(新津区支行)(暂停营业),[],[],四川省,[],[],2,[],金融保险服务;自动提款机;中国农业银行ATM,160304
柳台大道555号西南财经大学柳林校区西南财经大学柳林校区智圆附近,温江区,[],[],[],成都市,[],B0FFFGV33R,[],"103.823783,30.681908",中国农业银行24小时自助银行(金强・大学城南)(暂停营业),[],[],四川省,[],[],2,[],金融保险服务;自动提款机;中国农业银行ATM,160304
新都大道8号附近,新都区,[],[],[],成都市,[],B0FFFGUJFY,[],"104.179755,30.822718",中国农业银行24小时自助银行(嘉陵路)(暂停营业),[],[],四川省,[],[],2,[],金融保险服务;自动提款机;中国农业银行ATM,160304
花牌坊北街2-10号,金牛区,[],[],3,成都市,[],B001C8MUKJ,[],"104.046525,30.680679",中国农业银行24小时自助银行(外西支行)(装修中),B001C8N1TG,[],四川省,[],[],2,[],金融保险服务;自动提款机;中国农业银行ATM,160304
合信路125号附近,郫都区,[],[],[],成都市,[],B0FFG356I0,[],"103.917943,30.752090",中国农业银行24小时自助银行(合信路)(装修中),[],[],四川省,[],[],2,[],金融保险服务;自动提款机;中国农业银行ATM,160304
少陵东路1号,武侯区,[],[],3,成都市,[],B001C7WFQO,[],"104.029824,30.648202",中国农业银行24小时自助银行(金地花园支行)(装修中),B001C0AGQ6,[],四川省,[],[],2,[],金融保险服务;自动提款机;中国农业银行ATM,160304
人民南路四段27号1栋4-5号,武侯区,[],[],3,成都市,[],B001C7XDSZ,[],"104.067708,30.618643",中国农业银行24小时自助银行(成都商鼎国际支行)(装修中),B001C7XDSX,[],四川省,[],[],2,[],金融保险服务;自动提款机;中国农业银行ATM,160304
通汇街98-108号,锦江区,[],[],[],成都市,[],B0FFHW7BWC,[],"104.116881,30.637355",中国农业银行(通汇支行),[],[],四川省,[],[],2,028-85429539,金融保险服务;银行;中国农业银行,160107
马鞍北路46号,金牛区,[],[],[],成都市,[],B001C7WQZI,[],"104.087626,30.678129",中国农业银行(成都马鞍支行),[],[],四川省,[],[],2,028-83353915;028-83330105,金融保险服务;银行;中国农业银行,160107
华泰路29号附5-6,成华区,[],[],[],成都市,[],B001C955CL,[],"104.167116,30.692724",中国农业银行(龙港支行),[],[],四川省,[],[],2,028-84113198,金融保险服务;银行;中国农业银行,160107
厚诚路8号,新都区,[],[],[],成都市,[],B0FFFV3UW6,[],"104.146430,30.780238",中国农业银行(新都三河支行),[],[],四川省,[],[],2,028-83909104;028-83907778,金融保险服务;银行;中国农业银行,160107
花桥街道长绍街85号,新津区,[],[],[],成都市,[],B001C7YL1O,[],"103.855638,30.444676",中国农业银行(花桥分理处),[],[],四川省,[],[],2,028-82460235,金融保险服务;银行;中国农业银行,160107
武侯大道双楠段335号,武侯区,[],[],[],成都市,[],B001C06W9W,[],"104.012753,30.636422",中国农业银行(双丰西路支行),[],[],四川省,[],[],2,028-87437001;028-87437005,金融保险服务;银行;中国农业银行,160107
通盈街106、120号,锦江区,[],[],[],成都市,[],B0FFGFMEEH,[],"104.105152,30.630871",中国农业银行(成都通盈路支行),[],[],四川省,[],[],2,028-86781480,金融保险服务;银行;中国农业银行,160107
晋阳路184号金雁大厦1层,武侯区,[],[],[],成都市,[],B001C7WEJI,[],"104.000863,30.650979",中国农业银行(机投支行),[],[],四川省,[],[],2,028-87425867,金融保险服务;银行;中国农业银行,160107
固驿镇卷动桥街46号,邛崃市,[],[],3,成都市,[],B001C8MTSO,[],"103.582441,30.382841",中国农业银行24小时自助银行(卷洞桥街),B001C05FSL,[],四川省,[],[],2,[],金融保险服务;自动提款机;中国农业银行ATM,160304
万科魅力之城和锦路208号,成华区,[],[],[],成都市,[],B0FFHNL65Z,[],"104.155094,30.627015",中国农业银行(成都迎晖支行),[],[],四川省,[],[],2,028-84333517;028-63931375,金融保险服务;银行;中国农业银行,160107
长城路二段399号,双流区,[],[],[],成都市,[],B0FFFFPU8V,[],"103.990790,30.548171",中国农业银行(双流文星支行),[],[],四川省,[],[],2,028-85860603,金融保险服务;银行;中国农业银行,160107
白衣上街118号优品道广场对面,双流区,[],[],[],成都市,[],B001C95AH9,[],"103.915305,30.596174",中国农业银行(棠湖支行),[],[],四川省,[],[],2,028-85825837,金融保险服务;银行;中国农业银行,160107
簇桥百锦路易初小区1幢1楼6-10号,武侯区,[],[],202,成都市,[],B0FFKDN83U,[],"103.991471,30.608410",中国农业银行(簇桥支行),B0FFFPY3CW,[],四川省,[],[],2,028-85010307;95599,金融保险服务;银行;中国农业银行,160107
东风路112、114号,郫都区,[],[],[],成都市,[],B0GUYX4LE4,[],"104.020959,30.764414",中国农业银行(郫都安靖支行),[],[],四川省,[],[],2,028-87965157,金融保险服务;银行;银行,160100
华府大道一段898号附近,双流区,[],[],[],成都市,[],B001C95DN4,[],"104.050353,30.526794",中国农业银行(成都华府支行),[],[],四川省,[],[],2,028-85642620,金融保险服务;银行;中国农业银行,160107
大东街152附1-附3,崇州市,[],[],[],成都市,[],B001C0AGSA,[],"103.674819,30.628768",中国农业银行(崇州大东街支行),[],[],四川省,[],[],2,028-82279480,金融保险服务;银行;中国农业银行,160107
花园镇环城路东南段202附20-24号,郫都区,[],[],[],成都市,[],B001C7YJS5,[],"103.749111,30.858369",中国农业银行(花园分理处),[],[],四川省,[],[],2,028-87965157,金融保险服务;银行;中国农业银行,160107
锦东路559-561号,锦江区,[],[],[],成都市,[],B001C0AGQJ,[],"104.105975,30.639841",中国农业银行(成都牛市口支行),[],[],四川省,[],[],2,028-84517342,金融保险服务;银行;中国农业银行,160107
柳台大道东段235-239,温江区,[],[],202,成都市,[],B001C8N0JP,[],"103.822505,30.687175",中国农业银行(温江海科分理处),B001C809SS,[],四川省,[],[],2,028-61706451,金融保险服务;银行;中国农业银行,160107
金花街1号附28-附34号,武侯区,[],[],[],成都市,[],B001C8N42B,[],"103.969346,30.604799",中国农业银行(成都金花支行),[],[],四川省,[],[],2,028-85003450,金融保险服务;银行;中国农业银行,160107
贝森路323号附13号,青羊区,[],[],[],成都市,[],B001C8O5P1,[],"103.991219,30.670559",中国农业银行(成都贝森路分理处),[],[],四川省,[],[],2,028-81709972;028-81709598,金融保险服务;银行;中国农业银行,160107
双庆路99号,成华区,[],[],[],成都市,[],B0FFGQ84DO,[],"104.115589,30.652675",中国农业银行(成都双庆支行),[],[],四川省,[],[],2,028-84293066,金融保险服务;银行;中国农业银行,160107
昭觉寺横路99号附3号,成华区,[],[],[],成都市,[],B001C7WDMS,[],"104.104838,30.701220",中国农业银行(成都青龙支行),[],[],四川省,[],[],2,028-83518180,金融保险服务;银行;中国农业银行,160107
金福北路17-23号,青羊区,[],[],[],成都市,[],B001C805L5,[],"103.984973,30.680262",中国农业银行(成都金福支行),[],[],四川省,[],[],2,[],金融保险服务;银行;中国农业银行,160107
东风东街34号,新都区,[],[],[],成都市,[],B001C7VRIZ,[],"104.272502,30.726223",中国农业银行(石板滩支行),[],[],四川省,[],[],2,028-83987064,金融保险服务;银行;中国农业银行,160107
牡丹北路66-70号,彭州市,[],[],[],成都市,[],B001C8MF4Q,[],"103.953931,30.990894",中国农业银行(城郊分理处),[],[],四川省,[],[],2,028-83871568,金融保险服务;银行;中国农业银行,160107
庆丰街34-36号,温江区,[],[],[],成都市,[],B001C05QS9,[],"103.832198,30.698531",中国农业银行(金乌街分理处),[],[],四川省,[],[],2,028-82724635,金融保险服务;银行;中国农业银行,160107
简城镇建设中路353-361号,简阳市,[],[],[],成都市,[],B034000083,[],"104.542983,30.383461",中国农业银行(简阳市支行),[],[],四川省,[],[],2,028-27019182,金融保险服务;银行;中国农业银行,160107
建设北路三段185号附4-6号,成华区,[],[],[],成都市,[],B001C05K40,[],"104.116938,30.678255",中国农业银行(成都圣灯支行),[],[],四川省,[],[],2,028-83265076,金融保险服务;银行;中国农业银行,160107
建设南街15号附1号,成华区,[],[],[],成都市,[],B001C7YOWB,[],"104.106250,30.669415",中国农业银行(成都厂北路支行),[],[],四川省,[],[],2,028-84320472,金融保险服务;银行;中国农业银行,160107
唐昌镇西外街上城花园2号楼26-29号,郫都区,[],[],202,成都市,[],B001C93CWR,[],"103.818784,30.926058",中国农业银行(唐昌分理处),B0FFKZX0MM,[],四川省,[],[],2,028-87869994,金融保险服务;银行;中国农业银行,160107
成华大道龙潭路1号(北湖龙郡),成华区,[],[],[],成都市,[],B001C05GW6,[],"104.162514,30.699925",中国农业银行(成都龙潭支行),[],[],四川省,[],[],2,028-84202242,金融保险服务;银行;中国农业银行,160107
文康路26号,青羊区,[],[],[],成都市,[],B001C0AGUI,[],"103.928685,30.698980",中国农业银行(成都新城花园支行),[],[],四川省,[],[],2,028-87078606,金融保险服务;银行;中国农业银行,160107
蜀西路73号,金牛区,[],[],[],成都市,[],B001C8R83K,[],"103.996397,30.709283",中国农业银行(成都蜀西支行),[],[],四川省,[],[],2,028-87313954,金融保险服务;银行;中国农业银行|金融保险服务;自动提款机;中国农业银行ATM,160107|160304
棠湖西路一段13号吉丰百货1层,双流区,[],[],[],成都市,[],B001C7Y4DG,[],"103.920153,30.572166",中国农业银行(双流支行营业部),[],[],四川省,[],[],2,028-85816813,金融保险服务;银行;中国农业银行,160107
崇义桥南街152号,新都区,[],[],[],成都市,[],B001C0AGRW,[],"104.053918,30.75958",中国农业银行(新都大丰支行),[],[],四川省,[],[],2,028-63932034,金融保险服务;银行;中国农业银行,160107
桂溪街道高新区锦城大道539号,武侯区,[],[],[],成都市,[],B0FFFS69ZB,[],"104.062668,30.575178",中国农业银行(成都金融城支行),[],[],四川省,[],[],2,028-85173596,金融保险服务;银行;银行,160100
北泉路1068号艺锦湾,龙泉驿区,[],[],[],成都市,[],B0FFJ9B6VX,[],"104.237331,30.571983",中国农业银行(龙泉驿工业区支行),[],[],四川省,[],[],2,028-84861401;028-63931646,金融保险服务;银行;中国农业银行,160107
鹤兴路352号附近,崇州市,[],[],[],成都市,[],B0FFGB10WV,[],"103.748471,30.660794",中国农业银行(羊马分理处),[],[],四川省,[],[],2,028-82252145,金融保险服务;银行;中国农业银行,160107
金科北路58号,金牛区,[],[],[],成都市,[],B0FFIP2XOV,[],"104.004749,30.721037",中国农业银行(成都茶店子支行),[],[],四川省,[],[],2,028-87522357;028-87520563,金融保险服务;银行;中国农业银行,160107
青羊大道10号附5-7号,青羊区,[],[],[],成都市,[],B001C7TKL0,[],"104.008587,30.658232",中国农业银行(成都花园支行),[],[],四川省,[],[],2,028-87385021;028-87326150;95599,金融保险服务;银行;中国农业银行,160107
翔凤路689-691号,都江堰市,[],[],[],成都市,[],B001C8OM04,[],"103.641825,30.973008",中国农业银行(翔凤支行),[],[],四川省,[],[],2,028-87216640;028-87276640,金融保险服务;银行;中国农业银行,160107
柳城街道光华大道三段1403号,温江区,[],[],[],成都市,[],B0FFFVUEMU,[],"103.864592,30.681907",中国农业银行(光华大道支行),[],[],四川省,[],[],2,028-82726375,金融保险服务;银行;中国农业银行,160107
石桥街道中和桥街18-24号,简阳市,[],[],[],成都市,[],B034000QLV,[],"104.520391,30.422903",中国农业银行(石桥分理处),[],[],四川省,[],[],2,028-27281016,金融保险服务;银行;中国农业银行,160107
东坡北三路505-507号,青羊区,[],[],[],成都市,[],B001C80EF1,[],"103.989254,30.665039",中国农业银行(成都东坡支行),[],[],四川省,[],[],2,028-81716655,金融保险服务;银行;中国农业银行,160107
杉板桥南一路139号,成华区,[],[],[],成都市,[],B0FFINOZJY,[],"104.117723,30.660833",中国农业银行(成都杉板桥分理处),[],[],四川省,[],[],2,028-84298352,金融保险服务;银行;中国农业银行,160107
北大街99-101号,郫都区,[],[],[],成都市,[],B001C0AGRP,[],"103.888654,30.810188",中国农业银行(西区城关支行),[],[],四川省,[],[],2,028-87862802,金融保险服务;银行;中国农业银行,160107
花牌坊北街8号,金牛区,[],[],[],成都市,[],B001C8N1TG,[],"104.046529,30.680654",中国农业银行(外西支行),[],[],四川省,[],[],2,028-87651947,金融保险服务;银行;中国农业银行,160107
华润路36号附31、32号,锦江区,[],[],[],成都市,[],B001C92CP8,[],"104.092811,30.611041",中国农业银行(成都翡翠城支行),[],[],四川省,[],[],2,028-61641885,金融保险服务;银行;中国农业银行,160107
兴淮大道190-196号,金堂县,[],[],[],成都市,[],B0FFFADCIK,[],"104.546668,30.715589",中国农业银行(金堂淮口支行),[],[],四川省,[],[],2,028-63932629,金融保险服务;银行;中国农业银行,160107
成飞大道经一路22号,青羊区,[],[],[],成都市,[],B001C8MV66,[],"103.965204,30.691290",中国农业银行(成都黄田坝支行),[],[],四川省,[],[],2,028-87418696,金融保险服务;银行;中国农业银行,160107
星辰路30,金牛区,[],[],[],成都市,[],B001C0AGS2,[],"104.045860,30.704760",中国农业银行(星辰支行),[],[],四川省,[],[],2,028-63931184,金融保险服务;银行;中国农业银行,160107
马超东路557号附1-3,新都区,[],[],[],成都市,[],B001C8R6R3,[],"104.187649,30.807117",中国农业银行(马超东路支行),[],[],四川省,[],[],2,028-83972074,金融保险服务;银行;中国农业银行,160107
致顺路108-112号,成华区,[],[],[],成都市,[],B001C80EL3,[],"104.108518,30.699094",中国农业银行(青龙小区分理处),[],[],四川省,[],[],2,028-83506026;95599,金融保险服务;银行;中国农业银行,160107
上南街66号,新都区,[],[],[],成都市,[],B0FFJ9DYOX,[],"104.162039,30.825408",中国农业银行(新都支行营业部),[],[],四川省,[],[],2,028-63932027;028-83971880,金融保险服务;银行;中国农业银行,160107
华新下街192-194,双流区,[],[],[],成都市,[],B001C056MM,[],"104.054741,30.515064",中国农业银行(成都华新支行),[],[],四川省,[],[],2,028-85621536,金融保险服务;银行;中国农业银行,160107
青台山路龙城1号广场1层,龙泉驿区,[],[],202,成都市,[],B0FFHGYCLD,[],"104.198745,30.575331",中国农业银行(龙泉驿大面支行),B0FFHS21SN,[],四川省,[],[],2,028-84815551;028-63931665,金融保险服务;银行;中国农业银行,160107
犀浦街道犀浦下街360-366号,郫都区,[],[],[],成都市,[],B001C808UA,[],"103.973439,30.752114",中国农业银行(犀浦一分理处),[],[],四川省,[],[],2,028-87851025,金融保险服务;银行;中国农业银行,160107
武侯祠大街265号附1-2号,武侯区,[],[],[],成都市,[],B0FFJZRFCC,[],"104.043238,30.642836",中国农业银行(成都武侯支行),[],[],四川省,[],[],2,028-85099204;028-85099144,金融保险服务;银行;中国农业银行,160107
菁华路136号,青白江区,[],[],[],成都市,[],B001C8O3GK,[],"104.269940,30.885524",中国农业银行(凤凰湖分理处),[],[],四川省,[],[],2,028-83613310,金融保险服务;银行;中国农业银行,160107
平泉街道后新街160-166号,简阳市,[],[],[],成都市,[],B034000YPR,[],"104.641266,30.341936",中国农业银行(平泉分理处),[],[],四川省,[],[],2,028-27626031,金融保险服务;银行;中国农业银行,160107
锦华路69号附2号,锦江区,[],[],202,成都市,[],B001C0AGPW,[],"104.099244,30.615733",中国农业银行(成都东光支行),B0FFFPGPAE,[],四川省,[],[],2,028-84415274,金融保险服务;银行;中国农业银行,160107
聚龙路12-14,武侯区,[],[],[],成都市,[],B001C8O4T1,[],"104.006231,30.613094",中国农业银行(成都聚龙路支行),[],[],四川省,[],[],2,028-62336583,金融保险服务;银行;中国农业银行,160107
迎宾大道123号西锦城商业楼113-114号,金牛区,[],[],[],成都市,[],B001C8XR9V,[],"104.010390,30.710423",中国农业银行(迎宾大道支行),[],[],四川省,[],[],2,028-62567198,金融保险服务;银行;中国农业银行,160107
简城镇河东新区六号花园东升路3015号,简阳市,[],[],[],成都市,[],B0FFFSACTF,[],"104.545468,30.407131",中国农业银行(简阳东升路支行),[],[],四川省,[],[],2,028-27224142,金融保险服务;银行;中国农业银行,160107
羊安镇新民街236号,邛崃市,[],[],[],成都市,[],B0FFMB6A6B,[],"103.699726,30.401257",中国农业银行(邛崃羊安分理处),[],[],四川省,[],[],2,028-88751064,金融保险服务;银行;中国农业银行,160107
天庆街14-26号,简阳市,[],[],[],成都市,[],B0FFKRJ65M,[],"104.506233,30.493962",中国农业银行(成都简州新城支行),[],[],四川省,[],[],2,028-27722846,金融保险服务;银行;中国农业银行,160107
滨河路1号,都江堰市,[],[],[],成都市,[],B0FFKJCLRM,[],"103.624121,30.919880",中国农业银行(中兴分理处),[],[],四川省,[],[],2,95599,金融保险服务;银行;中国农业银行,160107
天回镇西部战区总医院门诊楼B1层,金牛区,[],[],[],成都市,[],B001C8VB5E,[],"104.115091,30.745827",中国农业银行(大湾分理处),[],[],四川省,[],[],2,028-83571660,金融保险服务;银行;中国农业银行,160107
崇义桥街91-95号,新都区,[],[],[],成都市,[],B001C7U49E,[],"104.053045,30.762598",中国农业银行(大丰南街分理处),[],[],四川省,[],[],2,028-83911423,金融保险服务;银行;中国农业银行,160107
蜚虹路349号,邛崃市,[],[],[],成都市,[],B0FFF3AEGZ,[],"103.475926,30.416895",中国农业银行(邛崃车站支行),[],[],四川省,[],[],2,028-88794722,金融保险服务;银行;银行,160100
建材路66号博瑞优品尚东5号楼1层5号-12号,成华区,[],[],[],成都市,[],B001C80FIV,[],"104.140145,30.642378",中国农业银行(杨柳店支行),[],[],四川省,[],[],2,028-84716507,金融保险服务;银行;中国农业银行,160107
桂溪街道高新区天府三街新希望国际大厦B座,武侯区,[],[],202,成都市,[],B0FFHA22YX,[],"104.066972,30.546061",中国农业银行(新希望国际支行),B0FFF006BK,[],四川省,[],[],2,028-85125043;028-85156145,金融保险服务;银行;中国农业银行,160107
双林路1号附13-16号精英大厦1层,成华区,[],[],202,成都市,[],B001C7VRJ8,[],"104.114084,30.651360",中国农业银行(成都万年场支行),B001C8XFUX,[],四川省,[],[],2,028-84370193;028-84370191;028-84370190,金融保险服务;银行;中国农业银行,160107
餮粽蛩拇ü际农产品交易中心办公楼1层,彭州市,[],[],[],成都市,[],B0FFFPNM8V,[],"104.121330,30.942344",中国农业银行(彭州农产品市场分理处),[],[],四川省,[],[],2,028-83495686,金融保险服务;银行;中国农业银行,160107
朝阳路176-178号,崇州市,[],[],[],成都市,[],B001C80DN5,[],"103.560548,30.813644",中国农业银行(崇州街子分理处),[],[],四川省,[],[],2,028-82289335,金融保险服务;银行;中国农业银行,160107
培华西路7号附16号,成华区,[],[],[],成都市,[],B001C7TKKX,[],"104.101208,30.665872",中国农业银行(成都东郊支行),[],[],四川省,[],[],2,028-84319750,金融保险服务;银行;中国农业银行,160107
上北街5-11号,青白江区,[],[],[],成都市,[],B001C05ZYE,[],"104.320201,30.855173",中国农业银行(城厢北街分理处),[],[],四川省,[],[],2,028-83635330;028-83632741,金融保险服务;银行;中国农业银行,160107
平安路一段147附1,青白江区,[],[],[],成都市,[],B001C7YJUD,[],"104.393459,30.746766",中国农业银行(平安路支行),[],[],四川省,[],[],2,028-83655338,金融保险服务;银行;中国农业银行,160107
武科东二路11号附2号,武侯区,[],[],[],成都市,[],B001C0AGQD,[],"103.989498,30.630241",中国农业银行(成都科技园支行),[],[],四川省,[],[],2,028-85362356;028-85363707,金融保险服务;银行;中国农业银行,160107
万花一路191号,青羊区,[],[],[],成都市,[],B0FFIRX7VE,[],"103.973126,30.676840",中国农业银行(青羊万达支行),[],[],四川省,[],[],2,028-64231305,金融保险服务;银行;中国农业银行,160107
华熙路1号3号,双流区,[],[],[],成都市,[],B001C0AGR3,[],"104.056301,30.510455",中国农业银行(华阳支行),[],[],四川省,[],[],2,028-85621636,金融保险服务;银行;中国农业银行,160107
十里大道二段590-596号,金堂县,[],[],[],成都市,[],B001C8R8K1,[],"104.399800,30.864137",中国农业银行(金堂中心分理处),[],[],四川省,[],[],2,028-84971788;028-84983311,金融保险服务;银行;中国农业银行,160107
八角井街290号,龙泉驿区,[],[],[],成都市,[],B001C804KY,[],"104.326410,30.639842",中国农业银行(洛带分理处),[],[],四川省,[],[],2,028-84893682,金融保险服务;银行;中国农业银行,160107
簇锦南街19号,武侯区,[],[],[],成都市,[],B001C7WEL6,[],"103.995949,30.600232",中国农业银行(簇锦南路支行),[],[],四川省,[],[],2,028-85013723,金融保险服务;银行;中国农业银行,160107
竹篙镇上正街5号,金堂县,[],[],[],成都市,[],B001C7UUO6,[],"104.732828,30.627440",中国农业银行(竹篙分理处),[],[],四川省,[],[],2,028-84966137,金融保险服务;银行;中国农业银行,160107
棠湖北路一段1-7号,双流区,[],[],3,成都市,[],B001C8N1M7,[],"103.920399,30.572221",中国农业银行24小时自助银行(双流支行营业部),B001C7Y4DG,[],四川省,[],[],2,[],金融保险服务;自动提款机;中国农业银行ATM,160304
蒙三北路691附近,彭州市,[],[],[],成都市,[],B0FFFXQT5R,[],"104.118305,30.950406",中国农业银行(蒙阳分理处),[],[],四川省,[],[],2,028-83829161,金融保险服务;银行;中国农业银行,160107
高攀东路74-78号,武侯区,[],[],[],成都市,[],B001C7Y8IR,[],"104.081140,30.608656",中国农业银行(成都高攀路支行),[],[],四川省,[],[],2,028-85276235,金融保险服务;银行;中国农业银行,160107
二环路西三段32号,金牛区,[],[],[],成都市,[],B001C8MJA7,[],"104.035177,30.686602",中国农业银行(成西支行),[],[],四川省,[],[],2,028-61998937;028-87538330,金融保险服务;银行;中国农业银行,160107
苏坡中路7号,青羊区,[],[],[],成都市,[],B001C0AGU2,[],"103.984328,30.669242",中国农业银行(苏坡桥支行),[],[],四川省,[],[],2,028-87460089,金融保险服务;银行;中国农业银行,160107
二环路北三段21号之6号-7,金牛区,[],[],[],成都市,[],B001C08176,[],"104.087782,30.693355",中国农业银行(成都高笋塘支行),[],[],四川省,[],[],2,028-83323502;028-83363025,金融保险服务;银行;中国农业银行,160107
朝阳路176-178号,崇州市,[],[],3,成都市,[],B001C80DN6,[],"103.560676,30.813516",中国农业银行24小时自助银行(街子分理处),B001C80DN5,[],四川省,[],[],2,[],金融保险服务;自动提款机;中国农业银行ATM,160304
奎光路14-24号,都江堰市,[],[],[],成都市,[],B001C80779,[],"103.619464,30.988282",中国农业银行(塔子坝支行),[],[],四川省,[],[],2,028-87282937;95599,金融保险服务;银行;中国农业银行,160107
温州商城4号,都江堰市,[],[],[],成都市,[],B001C7U1TW,[],"103.644902,30.849082",中国农业银行(都江堰石羊分理处),[],[],四川省,[],[],2,028-87280115,金融保险服务;银行;中国农业银行,160107
高板街道中兴街91-99号,金堂县,[],[],[],成都市,[],B001C06IJO,[],"104.632266,30.687974",中国农业银行(高板分理处),[],[],四川省,[],[],2,028-84913235,金融保险服务;银行;中国农业银行,160107
天龙大道1333号北斗七星城,金牛区,[],[],[],成都市,[],B0FFIVKVZ0,[],"104.099586,30.772001",中国农业银行(天回支行),[],[],四川省,[],[],2,028-83572560;028-83572611;95599,金融保险服务;银行;中国农业银行,160107
安唐路110号,郫都区,[],[],[],成都市,[],B0FFH2DV7C,[],"103.803148,30.870468",中国农业银行(安德支行),[],[],四川省,[],[],2,028-87868271;95599,金融保险服务;银行;中国农业银行,160107
大古井街38号,简阳市,[],[],[],成都市,[],B034000R6K,[],"104.552522,30.388615",中国农业银行(简阳城南分理处),[],[],四川省,[],[],2,028-27222963,金融保险服务;银行;中国农业银行,160107
双湖路北段19、21、23、25、27、29、31、33、35号,简阳市,[],[],[],成都市,[],B0FFI9OMHK,[],"104.363451,30.431831",中国农业银行(贾家分理处),[],[],四川省,[],[],2,028-27922208,金融保险服务;银行;中国农业银行,160107
洪山北路99号附15-17号,成华区,[],[],[],成都市,[],B0FFG2YRF6,[],"104.094820,30.706543",中国农业银行(成都仙湖支行),[],[],四川省,[],[],2,028-83240341,金融保险服务;银行;中国农业银行,160107
文井街384-392号,崇州市,[],[],[],成都市,[],B0FFF0071N,[],"103.661404,30.638889",中国农业银行24小时自助银行(崇阳分理处),[],[],四川省,[],[],2,[],金融保险服务;自动提款机;中国农业银行ATM,160304
物流大道富森・美家居汽配城MALL19-02,新都区,[],[],[],成都市,[],B0FFFWNVB9,[],"104.142387,30.793925",中国农业银行(新都城南分理处),[],[],四川省,[],[],2,028-83974409,金融保险服务;银行;中国农业银行,160107
西安路63号附2号,金牛区,[],[],[],成都市,[],B001C8O5Y7,[],"104.046509,30.664925",中国农业银行(西安路支行),[],[],四川省,[],[],2,028-87739406,金融保险服务;银行;中国农业银行,160107
蛟龙大道101-103号,双流区,[],[],[],成都市,[],B0H6PAN2K3,[],"103.910444,30.606034",中国农业银行(双流蛟龙港支行),[],[],四川省,[],[],2,028-85802248,金融保险服务;银行;中国农业银行,160107
成华西街293号,金牛区,[],[],[],成都市,[],B0G36YK544,[],"104.071349,30.682846",中国农业银行(成都锦北支行),[],[],四川省,[],[],2,028-63930439;95599,金融保险服务;银行;中国农业银行,160107
四川省成都市简阳市-草池街道裕民街354号,简阳市,[],[],[],成都市,[],B0FFMGB5G3,[],"104.403579,30.325709",中国农业银行(草池分理处),[],[],四川省,[],[],2,028-27871334,金融保险服务;银行;中国农业银行,160107
九天路196-199号,彭州市,[],[],[],成都市,[],B0FFLHIYUX,[],"104.037087,30.996374",中国农业银行(九尺分理处),[],[],四川省,[],[],2,028-83800271;95599,金融保险服务;银行;中国农业银行,160107
天彭镇东大街星火巷56、60、64、68号,彭州市,[],[],[],成都市,[],B001C7YP0M,[],"103.944673,30.984031",中国农业银行(彭州城南分理处),[],[],四川省,[],[],2,028-83873681,金融保险服务;银行;中国农业银行,160107
金航街112号,金堂县,[],[],[],成都市,[],B0FFHGE11O,[],"104.415331,30.858551",中国农业银行(金堂县支行),[],[],四川省,[],[],2,028-84930710,金融保险服务;银行;中国农业银行,160107
云龙镇云西街170-186号,简阳市,[],[],[],成都市,[],B034000BHW,[],"104.807742,30.419042",中国农业银行(云龙营业所),[],[],四川省,[],[],2,028-27761056,金融保险服务;银行;中国农业银行,160107
敖兴街49号,彭州市,[],[],[],成都市,[],B001C8OD9M,[],"103.988164,31.092313",中国农业银行24小时自助银行(敖平分理处),[],[],四川省,[],[],2,[],金融保险服务;自动提款机;中国农业银行ATM,160304
光华北三路98号17栋附120、121、204号,青羊区,[],[],[],成都市,[],B0FFI0DFPS,[],"103.963548,30.670543",中国农业银行(光华逸家支行),[],[],四川省,[],[],2,028-83330235,金融保险服务;银行;中国农业银行,160107
紫荆东路66号,武侯区,[],[],[],成都市,[],B001C7UT7C,[],"104.053156,30.614682",中国农业银行(紫荆支行),[],[],四川省,[],[],2,028-69280366;028-85179698,金融保险服务;银行;中国农业银行,160107
武侯祠大街83号,武侯区,[],[],[],成都市,[],B001C06IXG,[],"104.053424,30.646327",中国农业银行(成都锦南支行),[],[],四川省,[],[],2,028-85561908;028-85590430,金融保险服务;银行;中国农业银行,160107
永丰路20号之13-附14,武侯区,[],[],[],成都市,[],B001C05XNP,[],"104.049260,30.630304",中国农业银行(新蓉支行),[],[],四川省,[],[],2,028-85124477,金融保险服务;银行;中国农业银行,160107
龙腾中路26号,武侯区,[],[],[],成都市,[],B001C80ROY,[],"104.014335,30.652472",中国农业银行(成都龙腾支行),[],[],四川省,[],[],2,028-61355012,金融保险服务;银行;中国农业银行,160107
二环路西二段19号仁和春天广场A座1层,青羊区,[],[],202,成都市,[],B001C7YQ0R,[],"104.019736,30.662597",中国农业银行(锦西支行),B001C8TY45,[],四川省,[],[],2,028-61500872;028-61500825,金融保险服务;银行;中国农业银行,160107
二环路南一段11号,武侯区,[],[],3,成都市,[],B001C7XDT8,[],"104.079928,30.620978",中国农业银行(成都桂溪支行),B001C7VFCU,[],四川省,[],[],2,028-85213494,金融保险服务;银行;中国农业银行,160107
滨江东路136号国际商务大厦B座1层,锦江区,[],[],202,成都市,[],B001C068UG,[],"104.082820,30.643729",中国农业银行(锦江支行),B001C8UA65,[],四川省,[],[],2,028-86651117;028-86659489,金融保险服务;银行;中国农业银行,160107
新民镇新河街48号,新都区,[],[],[],成都市,[],B001C7U22Z,[],"104.098396,30.893327",中国农业银行(新民分理处),[],[],四川省,[],[],2,028-83075213,金融保险服务;银行;中国农业银行,160107
赵镇顺安街83、85号,金堂县,[],[],[],成都市,[],B001C80777,[],"104.416465,30.857889",中国农业发展银行(金堂县支行),[],[],四川省,[],[],2,[],金融保险服务;银行;中国农业银行,160107
五津西路128号,新津区,[],[],[],成都市,[],B001C05I5B,[],"103.807619,30.414762",中国农业银行(新津顺江分理处),[],[],四川省,[],[],2,028-82522283,金融保险服务;银行;中国农业银行,160107
洛带镇子华中街1号,龙泉驿区,[],[],3,成都市,[],B001C8N24B,[],"104.326374,30.639855",中国农业银行24小时自助银行(洛带支行),B001C804KY,[],四川省,[],[],2,[],金融保险服务;自动提款机;中国农业银行ATM,160304
大塘镇南街28号附1号,蒲江县,[],[],[],成都市,[],B001C8MT6L,[],"103.374511,30.288062",中国农业银行(大塘分理处),[],[],四川省,[],[],2,028-88633159,金融保险服务;银行;中国农业银行,160107
科华街1号附9号,武侯区,[],[],[],成都市,[],B001C0AGSE,[],"104.079541,30.623488",中国农业银行(成都川大花园支行),[],[],四川省,[],[],2,028-85463799;028-85408788,金融保险服务;银行;中国农业银行,160107
桐梓林路4号附11-14号,武侯区,[],[],[],成都市,[],B001C80O8O,[],"104.060778,30.610900",中国农业银行(成都欧城分理处),[],[],四川省,[],[],2,028-85158252,金融保险服务;银行;中国农业银行,160107
长寿路10号附21号,武侯区,[],[],[],成都市,[],B001C0AGPM,[],"104.071927,30.612166",中国农业银行(长寿路支行),[],[],四川省,[],[],2,028-61675307,金融保险服务;银行;中国农业银行,160107
建设路与彭白路交叉口南100米,彭州市,[],[],[],成都市,[],B0FFIMP8I5,[],"103.851630,31.073447",中国农业银行(九陇分理处),[],[],四川省,[],[],2,028-83836046,金融保险服务;银行;中国农业银行,160107
禾丰镇裕民街198-200号,简阳市,[],[],[],成都市,[],B034000BHQ,[],"104.714459,30.416986",中国农业银行(禾丰营业所),[],[],四川省,[],[],2,028-27661131,金融保险服务;银行;中国农业银行,160107
王泗镇营经大道212-222号,大邑县,[],[],[],成都市,[],B001C7ZZJ3,[],"103.476037,30.518395",中国农业银行(王泗分理处),[],[],四川省,[],[],2,028-88344197,金融保险服务;银行;中国农业银行,160107
政府街57-75号,简阳市,[],[],[],成都市,[],B034000125,[],"104.550324,30.391148",中国农业银行(政府街支行),[],[],四川省,[],[],2,028-27222479,金融保险服务;银行;中国农业银行,160107
成都市锦江区天仙桥北路5号,锦江区,[],[],[],成都市,[],B0GUYC1U6K,[],"104.086125,30.651673",中国农业银行(成都东大街支行),[],[],四川省,[],[],2,028-86663249;028-86650256;95599,金融保险服务;银行;中国农业银行,160107
成都国际商贸城中药材市场6-1-12-1,金牛区,[],[],[],成都市,[],B0GRU18666,[],"104.088476,30.791537",中国农业银行(成都国际商贸城支行),[],[],四川省,[],[],2,028-62825786,金融保险服务;银行;中国农业银行,160107
[],都江堰市,[],[],[],成都市,[],B0GDDX097Y,[],"103.659648,31.010909",中国农业银行,[],[],四川省,[],[],2,[],金融保险服务;银行;中国农业银行,160107
锦里东路8号宏达大厦9楼,青羊区,[],[],[],成都市,[],B0G3VSCUW6,[],"104.060572,30.648384",中国农业银行,[],[],四川省,[],[],2,[],金融保险服务;银行;中国农业银行,160107
杉板桥路601号,成华区,[],[],[],成都市,[],B0G1NR4P4Y,[],"104.132052,30.670511",中国农业银行(成华支行),[],[],四川省,[],[],2,028-83313020,金融保险服务;银行;中国农业银行,160107
长安大道大道723号附15号,邛崃市,[],[],[],成都市,[],B0G1393YE5,[],"103.476751,30.400233",中国农业银行(邛崃双江分理处),[],[],四川省,[],[],2,028-88749833,金融保险服务;银行;中国农业银行,160107
崇州市元通镇通锦下街2号,崇州市,[],[],[],成都市,[],B0FFMCWZH5,[],"103.624240,30.734160",中国农业银行(元通分理处),[],[],四川省,[],[],2,028-82263106,金融保险服务;银行;中国农业银行,160107
新都大道429号,新都区,[],[],[],成都市,[],B0FFMCQCQ0,[],"104.191349,30.818424",中国农业银行(新都香城分理处),[],[],四川省,[],[],2,028-63932029,金融保险服务;银行;中国农业银行,160107
兴园三路66号,新津区,[],[],[],成都市,[],B0FFMCG4R7,[],"103.815652,30.431753",中国农业银行(新津兴园支行),[],[],四川省,[],[],2,[],金融保险服务;银行;中国农业银行,160107
上沙河铺街619号,锦江区,[],[],[],成都市,[],B0FFKLVHOQ,[],"104.122108,30.623884",中国农业银行(成都沙河堡支行),[],[],四川省,[],[],2,028-84790419,金融保险服务;银行;中国农业银行,160107
双楠大道下段2144,双流区,[],[],[],成都市,[],B0FFJXSNZW,[],"103.886561,30.572176",中国农业银行(双流彭镇分理处),[],[],四川省,[],[],2,[],金融保险服务;银行;中国农业银行,160107
一品天下大街997号,金牛区,[],[],[],成都市,[],B0FFGMM16S,[],"104.040112,30.702118",中国农业银行(成都长庆分理处),[],[],四川省,[],[],2,028-83398728,金融保险服务;银行;中国农业银行,160107
天府大道北段20号,武侯区,[],[],[],成都市,[],B0FFGFKIP2,[],"104.066750,30.591676",中国农业银行(成都高新技术产业开发区支行),[],[],四川省,[],[],2,028-85143681,金融保险服务;银行;中国农业银行,160107
金龙山庄南路与08780县道交叉口西南50米,简阳市,[],[],[],成都市,[],B0FFHDM58U,[],"104.421233,30.473351",中国农业银行24小时自助银行,[],[],四川省,[],[],2,[],金融保险服务;自动提款机;中国农业银行ATM,160304
石板凳街道虎山街119-123号,简阳市,[],[],[],成都市,[],B0340006CV,[],"104.493331,30.315701",中国农业银行(石板分理处),[],[],四川省,[],[],2,028-27426011,金融保险服务;银行;中国农业银行,160107
八阵大道666号华川银地国际建材城1区12栋1-4号,青白江区,[],[],202,成都市,[],B0FFGSDEKS,[],"104.203819,30.866712",中国农业银行(青白江弥牟分理处),B0FFK8EMR1,[],四川省,[],[],2,028-83612015,金融保险服务;银行;中国农业银行,160107
双林中横路16-24号,成华区,[],[],[],成都市,[],B001C06KU6,[],"104.109920,30.651504",中国农业银行(新华小区支行),[],[],四川省,[],[],2,028-84333517,金融保险服务;银行;中国农业银行,160107
春熙路北段12号附3-4号,锦江区,[],[],[],成都市,[],B001C0AGSG,[],"104.077444,30.655972",中国农业银行(成都春熙路支行),[],[],四川省,[],[],2,028-86721222;028-86721666,金融保险服务;银行;中国农业银行,160107
致顺路108号,成华区,[],[],[],成都市,[],B0FFI64C21,[],"104.108373,30.699095",成都市高速公路ETC安装点(农行青龙小区支行),[],[],四川省,[],[],2,[],金融保险服务;银行;中国农业银行|生活服务;生活服务场所;生活服务场所,160107|070000
昭觉寺横路99号附3号,成华区,[],[],[],成都市,[],B0FFHQ593X,[],"104.105055,30.701220",成都市高速公路ETC安装点(农行青龙支行),[],[],四川省,[],[],2,028-83518180;028-83511833,金融保险服务;银行;中国农业银行|生活服务;生活服务场所;生活服务场所,160107|070000
石牛堰街33号三楼306室三官堂街1号,锦江区,[],[],3,成都市,[],B001C8P7QU,[],"104.093429,30.625351",中国农业银行24小时自助银行(橡树林支行),B001C8QAGP,[],四川省,[],[],2,[],金融保险服务;自动提款机;中国农业银行ATM,160304
镇金镇金桥新街59-65号,简阳市,[],[],[],成都市,[],B03400MNU6,[],"104.368650,30.192367",中国农业银行(镇金分理处),[],[],四川省,[],[],2,028-27526888,金融保险服务;银行;中国农业银行,160107
泰北街80号,新都区,[],[],[],成都市,[],B001C0688K,[],"104.234418,30.785013",中国农业银行(太兴分理处),[],[],四川省,[],[],2,028-83923092,金融保险服务;银行;中国农业银行,160107
暑袜中街55、57号,锦江区,[],[],[],成都市,[],B001C06ODQ,[],"104.074489,30.657202",中国农业银行(成都暑袜街支行),[],[],四川省,[],[],2,028-86711837;028-86654257,金融保险服务;银行;中国农业银行,160107
望平街2号附3号,成华区,[],[],3,成都市,[],B001C05QSX,[],"104.090205,30.653463",中国农业银行(成都望平支行),B001C0A07R,[],四川省,[],[],2,028-84443967;028-84431410,金融保险服务;银行;中国农业银行,160107
成汉南路138,武侯区,[],[],[],成都市,[],B0FFFEY2YG,[],"104.054089,30.585671",中国农业银行24小时自助银行(天府大道支行),[],[],四川省,[],[],2,[],金融保险服务;自动提款机;中国农业银行ATM,160304
鹤山镇桫椤路上段2号,蒲江县,[],[],[],成都市,[],B001C8SOEV,[],"103.509327,30.194834",中国农业银行(蒲江支行营业部),[],[],四川省,[],[],2,028-88524955,金融保险服务;银行;中国农业银行,160107
幸福镇观景路520号,都江堰市,[],[],[],成都市,[],B001C7ZWGC,[],"103.633272,31.001910",中国农业银行(城区支行),[],[],四川省,[],[],2,028-87123474;028-87131078,金融保险服务;银行;中国农业银行,160107
锦里东路8号宏达大厦一楼,青羊区,[],[],[],成都市,[],B001C7WQZO,[],"104.060749,30.648468",中国农业银行(锦城支行),[],[],四川省,[],[],2,028-86136012;028-86116163,金融保险服务;银行;中国农业银行,160107
春熙路北段总府路号附3-4号,锦江区,[],[],[],成都市,[],B0GRTRFPH3,[],"104.077444,30.655972",中国农业银行24小时自助银行(春熙路支行),[],[],四川省,[],[],2,[],金融保险服务;自动提款机;中国农业银行ATM,160304
机场路成都双流国际机场3F层,双流区,[],[],201,成都市,[],B0FFGPM75R,[],"103.954631,30.567524",中国农业银行ATM(成都双流国际机场),B001C06GIA,[],四川省,[],[],2,[],金融保险服务;自动提款机;中国农业银行ATM,160304
总府路31号附2-4号,锦江区,[],[],[],成都市,[],B001C7TKLO,[],"104.076941,30.658972",中国农业银行(总府支行),[],[],四川省,[],[],2,028-86787731;028-86765100;95599,金融保险服务;银行;中国农业银行,160107
新华大道双林路119号,成华区,[],[],[],成都市,[],B001C06FMV,[],"104.100271,30.657823",中国农业银行(锦东支行),[],[],四川省,[],[],2,028-84321501;028-84293066,金融保险服务;银行;中国农业银行,160107
瑞联路66号天合凯旋城7栋1层5号,青羊区,[],[],202,成都市,[],B001C7WE2Q,[],"104.003378,30.666664",中国农业银行(贝森南路支行),B0FFFPJ9KA,[],四川省,[],[],2,028-81713299,金融保险服务;银行;银行,160100
晋原街道大邑大道458号43栋1单元1楼10-11号,大邑县,[],[],[],成都市,[],B0FFHCX44Z,[],"103.525742,30.569592",中国农业银行(晋原分理处),[],[],四川省,[],[],2,028-88292501;95599,金融保险服务;银行;中国农业银行,160107
培华西路7号1栋附12-15,成华区,[],[],3,成都市,[],B001C0AGPY,[],"104.101196,30.665832",中国农业银行24小时自助银行(成都东郊支行),B001C7TKKX,[],四川省,[],[],2,[],金融保险服务;自动提款机;中国农业银行ATM,160304
武侯祠东街2号,武侯区,[],[],[],成都市,[],B001C7WR0C,[],"104.047658,30.642504",中国农业银行(武侯东街支行),[],[],四川省,[],[],2,028-85572265;028-63930481,金融保险服务;银行;中国农业银行,160107
成都市武侯区少陵东街1号,武侯区,[],[],[],成都市,[],B001C0AGQ6,[],"104.029761,30.648164",中国农业银行(金地花园支行),[],[],四川省,[],[],2,028-87055259,金融保险服务;银行;中国农业银行,160107
内蒙古大道55-61号,大邑县,[],[],[],成都市,[],B001C8R8N1,[],"103.519589,30.573273",中国农业银行(大邑桃园新区支行),[],[],四川省,[],[],2,028-88222885,金融保险服务;银行;中国农业银行,160107
锦屏大道61号附近,大邑县,[],[],[],成都市,[],B0FFFE8L0N,[],"103.547669,30.600041",中国农业银行ATM(锦屏大道),[],[],四川省,[],[],2,[],金融保险服务;自动提款机;中国农业银行ATM,160304
中正街108-114号,金堂县,[],[],[],成都市,[],B001C7X915,[],"104.835855,30.519698",中国农业银行(土桥分理处),[],[],四川省,[],[],2,028-63932636,金融保险服务;银行;中国农业银行,160107
回龙西路160-166,彭州市,[],[],[],成都市,[],B0FFFPA87E,[],"103.960164,30.996510",中国农业银行(大南街支行),[],[],四川省,[],[],2,028-83705174,金融保险服务;银行;中国农业银行,160107
贾家街道健康路26号,简阳市,[],[],[],成都市,[],B03400N5N6,[],"104.357521,30.436243",中国农业银行24小时自助银行,[],[],四川省,[],[],2,[],金融保险服务;自动提款机;中国农业银行ATM,160304
奎光塔街道凉水井路908号,都江堰市,[],[],[],成都市,[],B0FFGLZTOT,[],"103.628008,30.975044",中国农业银行(城东分理处),[],[],四川省,[],[],2,028-87123474,金融保险服务;银行;中国农业银行,160107
成白路社区成都华丰食品城(期)501栋3、4、5、6、10、11号,双流区,[],[],202,成都市,[],B001C8R8ZQ,[],"104.017630,30.561584",中国农业银行(兴华丰支行),B0FFF8NOBM,[],四川省,[],[],2,028-85860957,金融保险服务;银行;中国农业银行,160107
晋原街道东濠沟南段125号,大邑县,[],[],[],成都市,[],B0FFGEGWYP,[],"103.525050,30.583475",中国农业银行(大邑县支行),[],[],四川省,[],[],2,028-88298742,金融保险服务;银行;中国农业银行,160107
西河东路南50米,彭州市,[],[],[],成都市,[],B0FFFAD801,[],"103.948485,30.947879",中国农业银行24小时自助银行(西河东路),[],[],四川省,[],[],2,[],金融保险服务;自动提款机;中国农业银行ATM,160304
光华北三路98号光华中心B座1层,青羊区,[],[],202,成都市,[],B0FFGFTP72,[],"103.963569,30.670589",中国农业银行24小时自助银行(光华逸家分理处),B0FFFZBYDC,[],四川省,[],[],2,[],金融保险服务;自动提款机;中国农业银行ATM,160304
太升北路58号江信大厦1层,青羊区,[],[],202,成都市,[],B001C05CI1,[],"104.082801,30.672032",中国农业银行(太升支行),B001C06XY4,[],四川省,[],[],2,028-86911330,金融保险服务;银行;中国农业银行,160107
青江东路20号,青白江区,[],[],[],成都市,[],B001C0AGTR,[],"104.266222,30.877115",中国农业银行(青白江大弯支行),[],[],四川省,[],[],2,028-83302277;028-83301391,金融保险服务;银行;中国农业银行,160107
十二桥路37号2栋附1-4,金牛区,[],[],[],成都市,[],B001C05JAK,[],"104.042281,30.665589",中国农业银行(西郊支行),[],[],四川省,[],[],2,028-87766772;028-87713535,金融保险服务;银行;中国农业银行,160107
白衣上街118号优品道广场对面,双流区,[],[],[],成都市,[],B001C95AH8,[],"103.915323,30.596230",中国农业银行24小时自助银行(棠湖支行),[],[],四川省,[],[],2,[],金融保险服务;自动提款机;中国农业银行ATM,160304
赵镇文化街131-133号,金堂县,[],[],[],成都市,[],B0FFFFNWHK,[],"104.436226,30.853803",中国农业银行(金堂文化街分理处),[],[],四川省,[],[],2,028-84982382,金融保险服务;银行;中国农业银行,160107
骑龙街下段42-52,邛崃市,[],[],[],成都市,[],B001C7VRIS,[],"103.338027,30.346367",中国农业银行(邛崃平乐分理处),[],[],四川省,[],[],2,028-88781064,金融保险服务;银行;中国农业银行,160107
沙湾路75号附6号,金牛区,[],[],[],成都市,[],B001C7WQZM,[],"104.050594,30.693565",中国农业银行(金牛支行),[],[],四川省,[],[],2,028-87659841;028-87655657,金融保险服务;银行;中国农业银行,160107
寿安镇政府街11号,蒲江县,[],[],[],成都市,[],B001C7VRJ0,[],"103.624840,30.265925",中国农业银行(寿安分理处),[],[],四川省,[],[],2,028-88678509,金融保险服务;银行;中国农业银行,160107
新繁街道正南街7号,新都区,[],[],[],成都市,[],B0FFFXS4Y7,[],"104.018601,30.870726",中国农业银行(新都新繁支行),[],[],四川省,[],[],2,028-83080672,金融保险服务;银行;中国农业银行,160107
金履三路239-253号,武侯区,[],[],[],成都市,[],B0FFIVC674,[],"103.982252,30.606773",中国农业银行(成都簇桥支行),[],[],四川省,[],[],2,028-85010307,金融保险服务;银行;中国农业银行,160107
铁溪路365号,大邑县,[],[],3,成都市,[],B001C8N2RJ,[],"103.689018,30.523705",中国农业银行24小时自助银行(大邑董场分理处),B001C7YJS9,[],四川省,[],[],2,[],金融保险服务;自动提款机;中国农业银行ATM,160304
清溪西路40号附1号,青羊区,[],[],202,成都市,[],B0FFFDJHWK,[],"104.022210,30.678826",中国农业银行(成都石人支行),B001C8OSFC,[],四川省,[],[],2,028-87313684,金融保险服务;银行;中国农业银行,160107
青羊大道215号,青羊区,[],[],[],成都市,[],B001C7WBXJ,[],"104.011313,30.676534",中国农业银行(成都金沙支行),[],[],四川省,[],[],2,028-63930472;028-87338200,金融保险服务;银行;中国农业银行,160107
蜀州北路118,崇州市,[],[],[],成都市,[],B001C05F0J,[],"103.670045,30.635010",中国农业银行(崇州支行营业部),[],[],四川省,[],[],2,028-82278100,金融保险服务;银行;中国农业银行,160107
兆景路504号1层,武侯区,[],[],[],成都市,[],B0FFFE7JMO,[],"103.988323,30.621435",中国农业银行(武科支行),[],[],四川省,[],[],2,028-87055113,金融保险服务;银行;中国农业银行,160107
一环路北三段顺沙巷1号,金牛区,[],[],[],成都市,[],B0FFFVYWPO,[],"104.080566,30.683582",中国农业银行(人北支行),[],[],四川省,[],[],2,028-83352035;028-83328154,金融保险服务;银行;中国农业银行,160107
站北东街3-5号,成华区,[],[],[],成都市,[],B001C06N6E,[],"104.079249,30.700507",中国农业银行(成都站北支行),[],[],四川省,[],[],2,028-83150744;028-83139347,金融保险服务;银行;银行,160100
金仙桥路17号附12-15金桥大厦,金牛区,[],[],202,成都市,[],B001C7WCUE,[],"104.055278,30.678696",中国农业银行24小时自助银行(金桥支行),B001C7WLH4,[],四川省,[],[],2,[],金融保险服务;自动提款机;中国农业银行ATM,160304
中和镇朝阳路324-332号,双流区,[],[],[],成都市,[],B001C8OLMD,[],"104.097318,30.561563",中国农业银行(双流中和支行),[],[],四川省,[],[],2,028-81502148,金融保险服务;银行;中国农业银行,160107
新驿南街35号,龙泉驿区,[],[],[],成都市,[],B001C7UWO0,[],"104.271624,30.556980",中国农业银行(成都经济技术开发区支行),[],[],四川省,[],[],2,028-84852520;028-84847043,金融保险服务;银行;中国农业银行,160107
光华大道三段涌泉清泉南街168号,温江区,[],[],[],成都市,[],B0FFHNJ3JY,[],"103.876162,30.677777",中国农业银行(温江涌泉分理处),[],[],四川省,[],[],2,028-82724631,金融保险服务;银行;中国农业银行,160107
犀浦街道天府路260号,郫都区,[],[],[],成都市,[],B0FFFCOJ9Z,[],"103.980013,30.760604",中国农业银行(犀浦支行),[],[],四川省,[],[],2,028-87847071,金融保险服务;银行;中国农业银行,160107
龙舟路59号附2号,锦江区,[],[],[],成都市,[],B001C06PPA,[],"104.098144,30.627011",中国农业银行(成都望江支行),[],[],四川省,[],[],2,028-84522897,金融保险服务;银行;中国农业银行,160107
江汉路228号,青羊区,[],[],[],成都市,[],B001C7WQZY,[],"104.062280,30.675007",中国农业银行(新华支行),[],[],四川省,[],[],2,028-86697006,金融保险服务;银行;中国农业银行,160107
大弯镇怡湖西路89号,青白江区,[],[],[],成都市,[],B0FFGEW8QL,[],"104.252338,30.881242",中国农业银行(青白江支行营业部),[],[],四川省,[],[],2,028-83303582;028-83302248,金融保险服务;银行;中国农业银行,160107
金阳路123-127号,青羊区,[],[],[],成都市,[],B001C7WR05,[],"104.004016,30.679896",中国农业银行(金沙西园支行),[],[],四川省,[],[],2,028-81710362;028-81710361,金融保险服务;银行;中国农业银行,160107
灌口街道灌口镇建设路191号农业银行,都江堰市,[],[],[],成都市,[],B0FFIN64VS,[],"103.627445,30.992637",中国农业银行(都江堰岷山分理处),[],[],四川省,[],[],2,028-89706266,金融保险服务;银行;中国农业银行,160107
三界西街,彭州市,[],[],[],成都市,[],B0HGPZTBUB,[],"104.105840,31.022449",中国农业银行(什新路),[],[],四川省,[],[],2,[],金融保险服务;银行;中国农业银行,160107
[],都江堰市,[],[],[],成都市,[],B0HGPZT3GB,[],"103.656266,30.985624",中国农业银行,[],[],四川省,[],[],2,[],金融保险服务;银行;中国农业银行,160107
成都天府国际机场天启街,简阳市,[],[],[],成都市,[],B0HAJH6QBJ,[],"104.449645,30.327847",中国农业银行,[],[],四川省,[],[],2,[],金融保险服务;银行;中国农业银行,160107
天和西三街39号大鼎世纪广场F1,武侯区,[],[],[],成都市,[],B0HA25RX68,[],"104.069250,30.601902",中国农业银行(成都凯德天府支行),[],[],四川省,[],[],2,028-84191154;95599,金融保险服务;银行;中国农业银行,160107
丽蓉大道与祥云路交叉路口往西约100米,彭州市,[],[],[],成都市,[],B0GU1LYHW2,[],"103.869864,30.971829",中国农业银行,[],[],四川省,[],[],2,[],金融保险服务;银行;中国农业银行,160107
凤祥大道584-586,青白江区,[],[],[],成都市,[],B0GKAD0SOQ,[],"104.265116,30.894193",中国农业银行(青白江阳光花园分理处),[],[],四川省,[],[],2,[],金融保险服务;银行;中国农业银行,160107
射洪坝街道雄州大道北段305-313号,简阳市,[],[],[],成都市,[],B0G3HU5CH3,[],"104.532494,30.425257",中国农业银行(简阳雄州支行),[],[],四川省,[],[],2,028-60397205,金融保险服务;银行;中国农业银行,160107
青城山镇长寿街71-81号(单号),都江堰市,[],[],[],成都市,[],B0G25HVRMR,[],"103.593965,30.877948",中国农业银行(青城山分理处),[],[],四川省,[],[],2,[],金融保险服务;银行;中国农业银行,160107
成都市蒲江县鹤山街道广平路53号,蒲江县,[],[],[],成都市,[],B0FFMEOUZD,[],"103.513732,30.188811",中国农业银行(蒲江桫椤支行),[],[],四川省,[],[],2,028-88522217,金融保险服务;银行;中国农业银行,160107
高新区吉瑞一路200号,武侯区,[],[],[],成都市,[],B0FFLG7C2M,[],"104.059158,30.558558",中国农业银行(成都航天城支行),[],[],四川省,[],[],2,028-86272441,金融保险服务;银行;中国农业银行,160107
万年南街,彭州市,[],[],[],成都市,[],B0FFLCOKO6,[],"103.959749,31.132109",中国农业银行(万年南街),[],[],四川省,[],[],2,[],金融保险服务;银行;中国农业银行,160107
晋原街道营北街254号,大邑县,[],[],[],成都市,[],B0FFKYZTDR,[],"103.479129,30.520044",中国农业银行,[],[],四川省,[],[],2,[],金融保险服务;银行;中国农业银行,160107
建设中路,简阳市,[],[],[],成都市,[],B0FFKANUY2,[],"104.551130,30.393900",中国农业银行,[],[],四川省,[],[],2,[],金融保险服务;银行;中国农业银行,160107
新繁正东街74号,新都区,[],[],[],成都市,[],B001C7U22I,[],"104.019732,30.874551",中国农业银行(新繁西街分理处),[],[],四川省,[],[],2,028-83080495,金融保险服务;银行;中国农业银行,160107
贾家镇石三公路,简阳市,[],[],[],成都市,[],B0FFJSMFH2,[],"104.357494,30.436330",中国农业银行,[],[],四川省,[],[],2,[],金融保险服务;银行;银行,160100
一环路南三段68-70号,武侯区,[],[],[],成都市,[],B001C7WQZC,[],"104.053745,30.633450",中国农业银行(成都芳草街支行),[],[],四川省,[],[],2,028-85192811;028-85193414,金融保险服务;银行;中国农业银行,160107
一环路南二段1号附8-9号,武侯区,[],[],[],成都市,[],B001C7VRIE,[],"104.075115,30.633873",中国农业银行(武城支行),[],[],四川省,[],[],2,028-85442076,金融保险服务;银行;中国农业银行,160107
黄忠路5号附4号,金牛区,[],[],[],成都市,[],B001C7UBVZ,[],"104.014760,30.689654",中国农业银行(黄忠路分理处),[],[],四川省,[],[],2,028-87575739,金融保险服务;银行;中国农业银行,160107
蜀汉路206号,金牛区,[],[],[],成都市,[],B001C7WBVG,[],"104.024868,30.686604",中国农业银行(蜀汉路分理处),[],[],四川省,[],[],2,028-87524738,金融保险服务;银行;中国农业银行,160107
金花街1号附28-附34号,武侯区,[],[],3,成都市,[],B001C8MIL4,[],"103.969428,30.604811",中国农业银行24小时自助银行(成都金花支行),B001C8N42B,[],四川省,[],[],2,[],金融保险服务;自动提款机;中国农业银行ATM,160304
弥牟镇民族路43号,青白江区,[],[],[],成都市,[],B001C807VW,[],"104.202625,30.877166",中国农业银行(弥牟支行),[],[],四川省,[],[],2,028-83672227;028-83672690,金融保险服务;银行;中国农业银行,160107
迎宾大道217号,大邑县,[],[],[],成都市,[],B001C7YJSB,[],"103.450180,30.617857",中国农业银行(大邑灌口分理处),[],[],四川省,[],[],2,028-88376256,金融保险服务;银行;中国农业银行,160107
人民南路三段6号附9号,武侯区,[],[],[],成都市,[],B001C0AGRU,[],"104.065795,30.644096",中国农业银行(小天竺支行),[],[],四川省,[],[],2,028-85564144,金融保险服务;银行;中国农业银行,160107
长绍街85号,新津区,[],[],3,成都市,[],B001C8MRQB,[],"103.855621,30.444621",中国农业银行24小时自助银行(花桥分理处),B001C7YL1O,[],四川省,[],[],2,[],金融保险服务;自动提款机;中国农业银行ATM,160304
肖家村二巷23号,金牛区,[],[],[],成都市,[],B0FFG4DPWV,[],"104.074445,30.688393",中国农业银行(成都荷花池支行),[],[],四川省,[],[],2,028-83331780;95599,金融保险服务;银行;中国农业银行,160107
宏济巷153-161号,锦江区,[],[],[],成都市,[],B001C7XDT0,[],"104.095448,30.642957",中国农业银行(成都晶蓝半岛支行),[],[],四川省,[],[],2,028-84595271,金融保险服务;银行;中国农业银行,160107
五块石路12号,金牛区,[],[],[],成都市,[],B0FFHN09NR,[],"104.066958,30.709098",中国农业银行(成都五福支行),[],[],四川省,[],[],2,028-83117364;028-83117128,金融保险服务;银行;中国农业银行,160107
滨江路1号附11-14,温江区,[],[],[],成都市,[],B001C8VJRT,[],"103.777279,30.749233",中国农业银行(温江和盛分理处),[],[],四川省,[],[],2,028-82771033,金融保险服务;银行;中国农业银行,160107
通济镇景山路6栋4号1层,彭州市,[],[],[],成都市,[],B001C80KMT,[],"103.829817,31.160154",中国农业银行(通济分理处),[],[],四川省,[],[],2,028-83845365,金融保险服务;银行;中国农业银行,160107
鹤山镇朝阳大道198号,蒲江县,[],[],[],成都市,[],B001C8077A,[],"103.519528,30.195601",中国农业银行(蒲江朝阳支行),[],[],四川省,[],[],2,028-88551032,金融保险服务;银行;中国农业银行,160107
隆丰街道兴府街47-49号,彭州市,[],[],[],成都市,[],B001C05ORF,[],"103.867736,31.045860",中国农业银行(隆丰分理处),[],[],四川省,[],[],2,028-83810231;95599,金融保险服务;银行;中国农业银行,160107
三洞桥街槐树街79号,金牛区,[],[],[],成都市,[],B001C7WCQ5,[],"104.048363,30.672270",中国农业银行(三洞桥支行),[],[],四川省,[],[],2,028-87748808;95599,金融保险服务;银行;中国农业银行,160107
清江西路18-28号,青羊区,[],[],[],成都市,[],B001C7YOY7,[],"104.004442,30.674177",中国农业银行(成都清江支行),[],[],四川省,[],[],2,028-61508051,金融保险服务;银行;中国农业银行,160107
一环路西一段144号附1号,青羊区,[],[],[],成都市,[],B001C056ED,[],"104.040782,30.652442",中国农业银行(百花支行),[],[],四川省,[],[],2,028-87034699,金融保险服务;银行;中国农业银行,160107
成双大道北段66号,武侯区,[],[],[],成都市,[],B001C0AGRC,[],"104.010968,30.614814",中国农业银行(太平寺支行),[],[],四川省,[],[],2,028-85011347,金融保险服务;银行;中国农业银行,160107
互惠大道35-37号锦红城,新都区,[],[],[],成都市,[],B0FFGENKLK,[],"104.057152,30.769384",中国农业银行(大丰南街分理处),[],[],四川省,[],[],2,028-63932036,金融保险服务;银行;银行,160100
星汉路33号附5-7,金牛区,[],[],[],成都市,[],B001C7WD53,[],"104.049932,30.703187",中国农业银行(星汉路支行),[],[],四川省,[],[],2,028-87620881,金融保险服务;银行;中国农业银行,160107
云龙镇云西街170-186号,简阳市,[],[],[],成都市,[],B0FFF3UDYS,[],"104.807745,30.418950",中国农业银行24小时自助银行(云龙分理处),[],[],四川省,[],[],2,[],金融保险服务;自动提款机;中国农业银行ATM,160304
安仁镇中心街,大邑县,[],[],302,成都市,[],B001C8PLUY,[],"103.618894,30.511263",中国农业银行24小时自助银行(安仁支行),B0FFF09PVK,[],四川省,[],[],2,[],金融保险服务;自动提款机;中国农业银行ATM,160304
高新区天府大道中段688号大源国际中心A3栋1层,武侯区,[],[],202,成都市,[],B0FFFODL67,[],"104.068313,30.548142",中国农业银行(天府新区分行),B001C8NQZF,[],四川省,[],[],2,028-87672359,金融保险服务;银行;中国农业银行,160107
正东街72号,新都区,[],[],[],成都市,[],B001C0AGUL,[],"104.019588,30.874518",中国农业银行(新都新繁支行),[],[],四川省,[],[],2,028-63932038,金融保险服务;银行;中国农业银行,160107
十里大道一段655号,金堂县,[],[],[],成都市,[],B001C8RWON,[],"104.415414,30.858754",中国农业银行(金堂县支行营业部),[],[],四川省,[],[],2,[],金融保险服务;银行;中国农业银行,160107
上阳街220号附1号,都江堰市,[],[],3,成都市,[],B001C8NSIW,[],"103.682634,31.032254",中国农业银行24小时自助银行(蒲阳分理处),B001C8NTDY,[],四川省,[],[],2,[],金融保险服务;自动提款机;中国农业银行ATM,160304
淮口街道建设街31号,金堂县,[],[],3,成都市,[],B001C8N342,[],"104.557584,30.717539",中国农业银行24小时自助银行(淮口支行),B001C7YJRV,[],四川省,[],[],2,[],金融保险服务;自动提款机;中国农业银行ATM,160304
五一街134号,新都区,[],[],[],成都市,[],B0FFFFP1GF,[],"104.064469,30.818696",中国农业银行(斑竹园分理处),[],[],四川省,[],[],2,028-63932049,金融保险服务;银行;中国农业银行,160107
陕西街239号附1号,青羊区,[],[],3,成都市,[],B001C7ULDH,[],"104.060325,30.654206",中国农业银行24小时自助银行(成都祠堂街支行),B001C7WQZ6,[],四川省,[],[],2,[],金融保险服务;自动提款机;中国农业银行ATM,160304
朝阳路324-328号,双流区,[],[],3,成都市,[],B001C8ONPP,[],"104.097348,30.561555",中国农业银行24小时自助银行(中和支行),B001C8OLMD,[],四川省,[],[],2,[],金融保险服务;自动提款机;中国农业银行ATM,160304
互惠大道与互惠大道二巷交叉口西北50米,新都区,[],[],[],成都市,[],B0FFGIEZJC,[],"104.057145,30.769360",中国农业银行24小时自助银行(南街分理处),[],[],四川省,[],[],2,[],金融保险服务;自动提款机;中国农业银行ATM,160304
西较场口111号,邛崃市,[],[],[],成都市,[],B0FFLP5754,[],"103.456239,30.412477",中国农业银行24小时自助银行,[],[],四川省,[],[],2,[],金融保险服务;自动提款机;中国农业银行ATM,160304
解放路二段2号附6号,金牛区,[],[],[],成都市,[],B0FFF5HO97,[],"104.079325,30.676965",中国农业银行(解放路支行),[],[],四川省,[],[],2,028-83221981;95599,金融保险服务;银行;中国农业银行,160107
中兴南街与羊安路交叉口东南100米,崇州市,[],[],[],成都市,[],B0FFFW21MD,[],"103.748414,30.660690",中国农业银行24小时自助银行(羊马分理处),[],[],四川省,[],[],2,[],金融保险服务;自动提款机;中国农业银行ATM,160304
餮艚值辣苯10号,彭州市,[],[],3,成都市,[],B001C7U1OO,[],"104.116192,30.959336",中国农业银行24小时自助银行(蒙阳自助银行),B001C7U1ON,[],四川省,[],[],2,[],金融保险服务;自动提款机;中国农业银行ATM,160304
锦里东路8号宏达大厦,青羊区,[],[],3,成都市,[],B001C7WQZX,[],"104.060872,30.648409",中国农业银行24小时自助银行(成都锦城支行营业部),B001C0AGRU,[],四川省,[],[],2,[],金融保险服务;自动提款机;中国农业银行ATM,160304
正西街128-134号,双流区,[],[],3,成都市,[],B001C0AGT1,[],"104.052532,30.506200",中国农业银行24小时自助银行(华阳正西街分理处),B001C0AGT0,[],四川省,[],[],2,[],金融保险服务;自动提款机;中国农业银行ATM,160304
桐梓林北路6号附8号,武侯区,[],[],[],成都市,[],B001C05IVR,[],"104.062941,30.616292",中国农业银行(桐梓林支行),[],[],四川省,[],[],2,028-85134315;028-85133497,金融保险服务;银行;中国农业银行,160107
永定街58号,郫都区,[],[],[],成都市,[],B0FFFZS06I,[],"103.915797,30.867851",中国农业银行ATM,[],[],四川省,[],[],2,[],金融保险服务;自动提款机;中国农业银行ATM,160304
[],大邑县,[],[],[],成都市,[],B0FFHRNSPW,[],"103.524951,30.583789",中国农业银行大邑县支行停车场(出入口),[],[],四川省,[],[],2,[],金融保险服务;银行;中国农业银行,160107
大业路16号大地・城市脉搏1层,锦江区,[],[],202,成都市,[],B001C7Y7UA,[],"104.070748,30.654225",中国农业银行(成都盐市口支行),B001C7WJEE,[],四川省,[],[],2,[],金融保险服务;银行;中国农业银行,160107
体育场路6号农行大厦,青羊区,[],[],202,成都市,[],B0FFGKCX0T,[],"104.068955,30.663037",中国农业银行(成都分行),B001C09IEU,[],四川省,[],[],2,95599,金融保险服务;银行;中国农业银行,160107
银河北街与长庆东一路交叉口东北100米,金牛区,[],[],[],成都市,[],B0FFH0UOC3,[],"104.040161,30.702149",中国农业银行24小时自助银行(成都长庆分理处),[],[],四川省,[],[],2,[],金融保险服务;自动提款机;中国农业银行ATM,160304
新民街210号,邛崃市,[],[],[],成都市,[],B001C8VK0S,[],"103.699948,30.401345",中国农业银行24小时自助银行,[],[],四川省,[],[],2,[],金融保险服务;自动提款机;中国农业银行ATM,160304
顺城大街316号附6号,青羊区,[],[],[],成都市,[],B0FFG4H50I,[],"104.071018,30.669503",中国农业银行(青羊支行),[],[],四川省,[],[],2,028-68738032,金融保险服务;银行;中国农业银行,160107
二环路北二段4号,金牛区,[],[],[],成都市,[],B0FFGICFR2,[],"104.071784,30.694332",中国农业银行(成都火车北站支行),[],[],四川省,[],[],2,028-87681176,金融保险服务;银行;中国农业银行,160107
简城镇建设中路351号,简阳市,[],[],3,成都市,[],B0340015AN,[],"104.542977,30.383430",中国农业银行24小时自助银行(简阳市支行),B034000083,[],四川省,[],[],2,[],金融保险服务;自动提款机;中国农业银行ATM,160304
一品天下大街281号,金牛区,[],[],[],成都市,[],B001C7YP8M,[],"104.026288,30.693951",中国农业银行(成都一品天下支行),[],[],四川省,[],[],2,028-87563920,金融保险服务;银行;中国农业银行,160107
南郡路43号附1,彭州市,[],[],[],成都市,[],B001C8MCXO,[],"103.851629,31.073421",中国农业银行24小时自助银行(丹景山自助银行),[],[],四川省,[],[],2,[],金融保险服务;自动提款机;中国农业银行ATM|金融保险服务;银行;中国农业银行,160304|160107
江源中路488-494号,崇州市,[],[],3,成都市,[],B001C8OP2H,[],"103.691372,30.632030",中国农业银行24小时自助银行(崇州唐人街分理处),B001C8R81M,[],四川省,[],[],2,[],金融保险服务;自动提款机;中国农业银行ATM,160304
怀远镇文井中路139号,崇州市,[],[],[],成都市,[],B001C8MCGH,[],"103.525798,30.742824",中国农业银行(怀远分理处),[],[],四川省,[],[],2,028-82282125,金融保险服务;银行;中国农业银行,160107
清江中路35号附41-42号,青羊区,[],[],[],成都市,[],B001C06G4S,[],"104.014115,30.671175",中国农业银行(西南财大分理处),[],[],四川省,[],[],2,028-87352434,金融保险服务;银行;中国农业银行,160107
东升街道长冶路一段122号,双流区,[],[],3,成都市,[],B0G3OH8YMH,[],"103.924788,30.565795",中国农业银行24小时自助银行(塔桥支行),B001C0AGU4,[],四川省,[],[],2,[],金融保险服务;自动提款机;中国农业银行ATM,160304
[],武侯区,[],[],[],成都市,[],B0FFLP5V0R,[],"104.062937,30.575097",中国农业银行24小时自助银行(金融城支行),[],[],四川省,[],[],2,[],金融保险服务;自动提款机;中国农业银行ATM,160304
西桥路与西江路交叉口东北100米,崇州市,[],[],[],成都市,[],B0FFGB5Y92,[],"103.648140,30.628013",中国农业银行24小时自助银行,[],[],四川省,[],[],2,[],金融保险服务;自动提款机;中国农业银行ATM,160304
厚诚路8号,新都区,[],[],[],成都市,[],B0FFFV5JOF,[],"104.146616,30.780360",中国农业银行24小时自助银行(三河支行),[],[],四川省,[],[],2,[],金融保险服务;自动提款机;中国农业银行ATM,160304
桫椤路上段2号,蒲江县,[],[],3,成都市,[],B001C8MU34,[],"103.509275,30.194662",中国农业银行24小时自助银行(蒲江支行营业部),B0FFFFMBIB,[],四川省,[],[],2,[],金融保险服务;自动提款机;中国农业银行ATM,160304
簇桥百锦路165号,武侯区,[],[],202,成都市,[],B001C7YQ1H,[],"103.991711,30.608526",中国农业银行24小时自助银行(成都簇桥支行),B0FFFPY3CW,[],四川省,[],[],2,[],金融保险服务;自动提款机;中国农业银行ATM,160304
蓉北商贸大道一段22号附1号,金牛区,[],[],3,成都市,[],B001C0AGRK,[],"104.066318,30.704740",中国农业银行24小时自助银行(成都五福支行),B001C06TLI,[],四川省,[],[],2,[],金融保险服务;自动提款机;中国农业银行ATM,160304
金仙桥路17号附12-15号,金牛区,[],[],202,成都市,[],B0FFHGO2TL,[],"104.055386,30.678721",中国农业银行(金仙桥支行),B001C7WLH4,[],四川省,[],[],2,[],金融保险服务;银行;中国农业银行,160107
桫椤路上段2号,蒲江县,[],[],[],成都市,[],B0FFFFMBIB,[],"103.509408,30.194811",中国农业银行浦江支行营业部个贷营销中心,[],[],四川省,[],[],2,028-88524553,金融保险服务;银行;中国农业银行,160107
武阳中路26号(荣达大厦),新津区,[],[],3,成都市,[],B001C7VRJA,[],"103.813046,30.411528",中国农业银行24小时自助银行(新津区支行),B001C7TKNK,[],四川省,[],[],2,[],金融保险服务;自动提款机;中国农业银行ATM,160304
唐昌镇西外街上城花园2号楼26-29号,郫都区,[],[],202,成都市,[],B001C8MZZR,[],"103.818856,30.926065",中国农业银行24小时自助银行(唐昌分理处),B0FFKZX0MM,[],四川省,[],[],2,[],金融保险服务;自动提款机;中国农业银行ATM,160304
盛华南路169号,武侯区,[],[],[],成都市,[],B0FFGY0BTX,[],"104.054005,30.547257",中国农业银行24小时自助银行(成都蜀都支行),[],[],四川省,[],[],2,[],金融保险服务;自动提款机;中国农业银行ATM,160304
双桥路99号,成华区,[],[],3,成都市,[],B001C7Y9CE,[],"104.115594,30.652693",中国农业银行24小时自助银行(成都双庆支行),B001C7Y9C9,[],四川省,[],[],2,[],金融保险服务;自动提款机;中国农业银行ATM,160304
兴达路957-959号,温江区,[],[],3,成都市,[],B001C8N1U8,[],"103.772396,30.669966",中国农业银行24小时自助银行(永盛支行),B001C05TP0,[],四川省,[],[],2,[],金融保险服务;自动提款机;中国农业银行ATM,160304
棉花街275号附近,邛崃市,[],[],[],成都市,[],B0FFH973P0,[],"103.464742,30.417893",中国农业银行24小时自助银行(棉花街),[],[],四川省,[],[],2,[],金融保险服务;自动提款机;中国农业银行ATM|金融保险服务;自动提款机;中国建设银行ATM,160304|160303
蒙三北路701-717号附近,彭州市,[],[],[],成都市,[],B0FFFUAMYV,[],"104.118305,30.950406",中国农业银行24小时自助银行(蒙阳支行),[],[],四川省,[],[],2,[],金融保险服务;自动提款机;中国农业银行ATM,160304
邛陶路129号,邛崃市,[],[],[],成都市,[],B001C8VK5R,[],"103.453268,30.408078",中国农业银行24小时自助银行(邛陶路),[],[],四川省,[],[],2,[],金融保险服务;自动提款机;中国农业银行ATM,160304
岳府街64号附1号,锦江区,[],[],[],成都市,[],B001C060QB,[],"104.079248,30.662945",中国农业银行(锦阳支行),[],[],四川省,[],[],2,028-86758633,金融保险服务;银行;银行,160100
大南街84号附1号,温江区,[],[],3,成都市,[],B001C0AGU9,[],"103.836464,30.696606",中国农业银行24小时自助银行(温江城南自助银行),B001C081BK,[],四川省,[],[],2,[],金融保险服务;自动提款机;中国农业银行ATM,160304
蓉都大道天回路270号,金牛区,[],[],[],成都市,[],B0FFFGYKJQ,[],"104.118721,30.744226",中国农业银行ATM,[],[],四川省,[],[],2,[],金融保险服务;自动提款机;中国农业银行ATM,160304
新河街48号,新都区,[],[],[],成都市,[],B001C8VK5W,[],"104.098403,30.893304",中国农业银行24小时自助银行(新民分理处),[],[],四川省,[],[],2,[],金融保险服务;自动提款机;中国农业银行ATM,160304
泰北街80号,新都区,[],[],[],成都市,[],B001C8VJOG,[],"104.234353,30.785047",中国农业银行24小时自助银行(太兴分理处),[],[],四川省,[],[],2,[],金融保险服务;自动提款机;中国农业银行ATM,160304
蒲塘路与西成路交叉口西北100米,蒲江县,[],[],[],成都市,[],B0FFIITRUX,[],"103.416375,30.242315",中国农业银行(大兴自助营业厅),[],[],四川省,[],[],2,[],金融保险服务;银行;中国农业银行,160107
城厢镇大东街83号,青白江区,[],[],3,成都市,[],B001C8MDJW,[],"104.322214,30.856348",中国农业银行24小时自助银行(城厢支行),B001C05MDA,[],四川省,[],[],2,[],金融保险服务;自动提款机;中国农业银行ATM,160304
金彭东路122号置信・逸都城F1层,彭州市,[],[],201,成都市,[],B0FFJV16R0,[],"103.958913,30.987646",中国农业银行24小时自助银行(置信・逸都城),B001C8NUBS,[],四川省,[],[],2,[],金融保险服务;自动提款机;中国农业银行ATM,160304
安唐路110号附近,郫都区,[],[],[],成都市,[],B0FFH979KB,[],"103.803147,30.870456",中国农业银行24小时自助银行(安德支行),[],[],四川省,[],[],2,[],金融保险服务;自动提款机;中国农业银行ATM,160304
三星镇正街68号,简阳市,[],[],[],成都市,[],B0FFFFQCVJ,[],"104.613856,30.555012",中国农业银行24小时自助银行(三星营业所),[],[],四川省,[],[],2,[],金融保险服务;自动提款机;中国农业银行ATM,160304
弥牟镇中街2号1栋附9号,青白江区,[],[],3,成都市,[],B001C80L58,[],"104.202423,30.881485",中国农业银行24小时自助银行(中横街),B001C8OCWE,[],四川省,[],[],2,[],金融保险服务;自动提款机;中国农业银行ATM,160304
城厢镇上北街5-11号,青白江区,[],[],3,成都市,[],B001C80TFR,[],"104.320155,30.855361",中国农业银行24小时自助银行(城厢北街分理处),B001C05ZYE,[],四川省,[],[],2,[],金融保险服务;自动提款机;中国农业银行ATM,160304
正西街125号,新都区,[],[],[],成都市,[],B0FFG644QA,[],"104.015507,30.873277",中国农业银行24小时自助银行(新繁西街分理处),[],[],四川省,[],[],2,[],金融保险服务;自动提款机;中国农业银行ATM|金融保险服务;银行;银行,160304|160100
福乐家超市隔壁,双流区,[],[],[],成都市,[],B0FFHX200Y,[],"103.905312,30.555440",中国农业银行24小时自助银行(涧槽南街),[],[],四川省,[],[],2,[],金融保险服务;自动提款机;中国农业银行ATM,160304
餮艚值朗残侣烦啥脊际农产品交易中心,彭州市,[],[],[],成都市,[],B0FFHQY72N,[],"104.121260,30.942433",中国农业银行ATM,[],[],四川省,[],[],2,[],金融保险服务;自动提款机;中国农业银行ATM,160304
望丛西路285号,郫都区,[],[],3,成都市,[],B0FFIPNNL4,[],"103.879528,30.815626",中国农业银行24小时自助银行(桃园分理处),B001C7ZWWY,[],四川省,[],[],2,[],金融保险服务;自动提款机;中国农业银行ATM,160304
平泉街道后新街160-166号,简阳市,[],[],[],成都市,[],B0FFG0Q3MF,[],"104.641375,30.342084",中国农业银行24小时自助银行(平泉分理处),[],[],四川省,[],[],2,[],金融保险服务;自动提款机;中国农业银行ATM,160304
迎宾大道217号,大邑县,[],[],3,成都市,[],B001C8MMB0,[],"103.449998,30.617816",中国农业银行24小时自助银行(大邑灌口分理处),B001C7YJSB,[],四川省,[],[],2,[],金融保险服务;自动提款机;中国农业银行ATM,160304
竹篙镇上正街5号,金堂县,[],[],3,成都市,[],B001C7UUP5,[],"104.732787,30.627460",中国农业银行24小时自助银行(竹篙分理处),B001C7UUO6,[],四川省,[],[],2,[],金融保险服务;自动提款机;中国农业银行ATM,160304
石牛堰街25号,锦江区,[],[],[],成都市,[],B001C8QAGP,[],"104.093433,30.625352",中国农业银行(成都橡树林支行),[],[],四川省,[],[],2,028-86712143,金融保险服务;银行;中国农业银行,160107
蒲塘路5号附近,蒲江县,[],[],[],成都市,[],B0FFGF9JMZ,[],"103.416510,30.242370",中国农业银行24小时自助银行(大兴镇自助银行),[],[],四川省,[],[],2,[],金融保险服务;自动提款机;中国农业银行ATM,160304
太平街569-585号,都江堰市,[],[],[],成都市,[],B001C7TT82,[],"103.632587,30.985474",中国农业银行(观凤楼支行),[],[],四川省,[],[],2,028-87283276,金融保险服务;银行;中国农业银行,160107
草池街道裕民街268号,简阳市,[],[],[],成都市,[],B0FFIWCYN0,[],"104.403575,30.325760",中国农业银行ATM,[],[],四川省,[],[],2,[],金融保险服务;自动提款机;中国农业银行ATM,160304
回龙西路160-166,彭州市,[],[],[],成都市,[],B0FFFPA87G,[],"103.960134,30.996509",中国农业银行24小时自助银行(大南街支行),[],[],四川省,[],[],2,[],金融保险服务;自动提款机;中国农业银行ATM,160304
物流大道富森・美家居汽配城MALL19-01,新都区,[],[],[],成都市,[],B0FFFEA4YJ,[],"104.142386,30.793913",中国农业银行24小时自助银行(新都城南分理处),[],[],四川省,[],[],2,[],金融保险服务;自动提款机;中国农业银行ATM,160304
西较场口111号,邛崃市,[],[],[],成都市,[],B0FFFVFB02,[],"103.456230,30.412473",中国农业银行24小时自助银行(西较场口),[],[],四川省,[],[],2,[],金融保险服务;自动提款机;中国农业银行ATM,160304
东风东街38-40号,新都区,[],[],3,成都市,[],B001C8N65X,[],"104.272702,30.726273",中国农业银行24小时自助银行(石板滩支行),B001C7VRIZ,[],四川省,[],[],2,[],金融保险服务;自动提款机;中国农业银行ATM,160304
二环路南四段69号附15号,武侯区,[],[],3,成都市,[],B001C7Y8JD,[],"104.031775,30.632946",中国农业银行24小时自助银行(成都永丰场支行),B001C7Y8JC,[],四川省,[],[],2,[],金融保险服务;自动提款机;中国农业银行ATM,160304
高店路西段65-69号,郫都区,[],[],[],成都市,[],B001C90IZV,[],"103.938924,30.774637",中国农业银行24小时自助银行(红光分理处),[],[],四川省,[],[],2,[],金融保险服务;自动提款机;中国农业银行ATM,160304
尚阳大道76号,都江堰市,[],[],[],成都市,[],B0FFGLXMF5,[],"103.659691,31.010892",中国农业银行ATM,[],[],四川省,[],[],2,[],金融保险服务;自动提款机;中国农业银行ATM,160304
天久北巷139号附7-9,武侯区,[],[],3,成都市,[],B001C8O9K5,[],"104.075297,30.592899",中国农业银行24小时自助银行(天府长城支行),B001C8O9L1,[],四川省,[],[],2,[],金融保险服务;自动提款机;中国农业银行ATM,160304
建设南街15号附1号,成华区,[],[],3,成都市,[],B001C7YOLF,[],"104.106246,30.669449",中国农业银行24小时自助银行(厂北路支行),B001C7YOWB,[],四川省,[],[],2,[],金融保险服务;自动提款机;中国农业银行ATM,160304
大塘镇南街28号附1号,蒲江县,[],[],3,成都市,[],B001C7UY5A,[],"103.374435,30.288099",中国农业银行24小时自助银行(大塘分理处),B001C8MT6L,[],四川省,[],[],2,[],金融保险服务;自动提款机;中国农业银行ATM,160304
简城镇河东新区简阳中学门口,简阳市,[],[],[],成都市,[],B03400165Y,[],"104.550574,30.401943",中国农业银行24小时自助银行(雄州大道南段),[],[],四川省,[],[],2,[],金融保险服务;自动提款机;中国农业银行ATM,160304
鹤山镇朝阳大道198号,蒲江县,[],[],3,成都市,[],B001C8R981,[],"103.519388,30.195644",中国农业银行24小时自助银行(朝阳支行),B001C8077A,[],四川省,[],[],2,[],金融保险服务;自动提款机;中国农业银行ATM,160304
政府街3号,蒲江县,[],[],3,成都市,[],B001C7VRJ1,[],"103.624866,30.266021",中国农业银行24小时自助银行(寿安分理处),B001C7VRJ0,[],四川省,[],[],2,[],金融保险服务;自动提款机;中国农业银行ATM,160304
新都镇桂湖中路6-12号,新都区,[],[],[],成都市,[],B0FFFFPSAI,[],"104.161952,30.823286",中国农业银行24小时自助银行(城南分理处),[],[],四川省,[],[],2,[],金融保险服务;自动提款机;中国农业银行ATM,160304
石桥街道中和桥街24号,简阳市,[],[],[],成都市,[],B0FFF5YC3J,[],"104.520262,30.422916",中国农业银行ATM(中和桥街),[],[],四川省,[],[],2,[],金融保险服务;自动提款机;中国农业银行ATM,160304
天和西三街39号大鼎世纪广场F1,武侯区,[],[],[],成都市,[],B0HA3P24I2,[],"104.069193,30.601861",中国农业银行24小时自助银行(成都凯德天府支行),[],[],四川省,[],[],2,[],金融保险服务;自动提款机;中国农业银行ATM,160304
蜀都大道总府路与福兴街交叉路口北侧(王府井百货),锦江区,[],[],202,成都市,[],B0H6XUXG7Z,[],"104.079583,30.657933",中国农业银行24小时自助银行(王府井支行),B001C8N4NW,[],四川省,[],[],2,[],金融保险服务;自动提款机;中国农业银行ATM,160304
崇义桥南街158号,新都区,[],[],[],成都市,[],B0GRH5WF33,[],"104.053940,30.759644",中国农业银行24小时自助银行(大丰支行),[],[],四川省,[],[],2,[],金融保险服务;自动提款机;中国农业银行ATM,160304
[],简阳市,[],[],[],成都市,[],B0G3HU7BQH,[],"104.532481,30.425468",中国农业银行24小时自助银行,[],[],四川省,[],[],2,[],金融保险服务;自动提款机;中国农业银行ATM,160304
兴园三路,新津区,[],[],[],成都市,[],B0G39HOKEB,[],"103.815581,30.431691",中国农业银行24小时自助银行(新津兴园支行),[],[],四川省,[],[],2,[],金融保险服务;自动提款机;中国农业银行ATM,160304
青城山镇长寿街71-81号(单号),都江堰市,[],[],[],成都市,[],B0G2O7GL9A,[],"103.594151,30.877932",中国农业银行24小时自助银行(青城山分理处),[],[],四川省,[],[],2,[],金融保险服务;自动提款机;中国农业银行ATM,160304
广平路51号,蒲江县,[],[],[],成都市,[],B0G2M10JSL,[],"103.513749,30.188806",中国农业银行24小时自助银行(桫椤支行),[],[],四川省,[],[],2,[],金融保险服务;自动提款机;中国农业银行ATM,160304
吉庆一路,武侯区,[],[],[],成都市,[],B0G2CZ8O7E,[],"104.059032,30.558576",中国农业银行24小时自助银行,[],[],四川省,[],[],2,[],金融保险服务;自动提款机;中国农业银行ATM,160304
杉板桥路601号,成华区,[],[],[],成都市,[],B0G26OOQLZ,[],"104.132327,30.670701",中国农业银行24小时自助银行(成华支行),[],[],四川省,[],[],2,[],金融保险服务;自动提款机;中国农业银行ATM,160304
长安大道723号附15号,邛崃市,[],[],[],成都市,[],B0G23XGVFE,[],"103.476720,30.400292",中国农业银行24小时自助银行,[],[],四川省,[],[],2,[],金融保险服务;自动提款机;中国农业银行ATM,160304
新都大道435号,新都区,[],[],[],成都市,[],B0G21S8KVA,[],"104.191449,30.818415",中国农业银行24小时自助银行(香城分理处),[],[],四川省,[],[],2,[],金融保险服务;自动提款机;中国农业银行ATM,160304
[],郫都区,[],[],[],成都市,[],B0FFLERJQX,[],"103.952819,30.832498",中国农业银行ATM,[],[],四川省,[],[],2,[],金融保险服务;自动提款机;中国农业银行ATM,160304
四川师范大学(成龙校区),龙泉驿区,[],[],[],成都市,[],B0FFLBV7W5,[],"104.198609,30.566845",中国农业银行ATM(乐群路),[],[],四川省,[],[],2,[],金融保险服务;自动提款机;中国农业银行ATM,160304
双楠大道下段2148,双流区,[],[],[],成都市,[],B0FFLAFG5O,[],"103.886555,30.572194",中国农业银行24小时自助银行(彭镇分理处),[],[],四川省,[],[],2,[],金融保险服务;自动提款机;中国农业银行ATM,160304
兴农路,彭州市,[],[],[],成都市,[],B0FFL78QOS,[],"104.115736,30.945728",中国农业银行24小时自助银行,[],[],四川省,[],[],2,[],金融保险服务;自动提款机;中国农业银行ATM,160304
[],蒲江县,[],[],[],成都市,[],B0FFL3E3BM,[],"103.638067,30.270086",中国农业银行24小时自助银行,[],[],四川省,[],[],2,[],金融保险服务;自动提款机;中国农业银行ATM,160304
广场西路2号附2,蒲江县,[],[],[],成都市,[],B0FFKXL4XZ,[],"103.512145,30.191553",中国农业银行24小时自助银行(广场西路),[],[],四川省,[],[],2,[],金融保险服务;自动提款机;中国农业银行ATM,160304
中心东路13-14号附近,简阳市,[],[],[],成都市,[],B0FFKWX208,[],"104.363605,30.432035",中国农业银行24小时自助银行,[],[],四川省,[],[],2,[],金融保险服务;自动提款机;中国农业银行ATM,160304
北泉路与玉龙街交叉口西50米,龙泉驿区,[],[],[],成都市,[],B0FFKWGA2K,[],"104.237301,30.572044",中国农业银行24小时自助银行(龙泉驿工业区支行),[],[],四川省,[],[],2,[],金融保险服务;自动提款机;中国农业银行ATM,160304
日月大道一段978号万达广场青羊金街1层,青羊区,[],[],202,成都市,[],B0FFKW5DVP,[],"103.973180,30.676796",中国农业银行24小时自助银行(万达支行),B0FFFZPMAL,[],四川省,[],[],2,[],金融保险服务;自动提款机;中国农业银行ATM,160304
上沙河铺街与东大街交叉口南50米,锦江区,[],[],[],成都市,[],B0FFKVZT4P,[],"104.122081,30.623863",中国农业银行24小时自助银行(沙河堡支行),[],[],四川省,[],[],2,[],金融保险服务;自动提款机;中国农业银行ATM,160304
东秀一路与杉板桥南一路交叉口东南50米,成华区,[],[],[],成都市,[],B0FFKVZJ05,[],"104.117741,30.660928",中国农业银行24小时自助银行(杉板桥分理处),[],[],四川省,[],[],2,[],金融保险服务;自动提款机;中国农业银行ATM,160304
[],成华区,[],[],[],成都市,[],B0FFKSDFVH,[],"104.155104,30.627031",中国农业银行24小时自助银行,[],[],四川省,[],[],2,[],金融保险服务;自动提款机;中国农业银行ATM,160304
成都工业学院长虹会堂后1层,郫都区,[],[],[],成都市,[],B0FFILF448,[],"103.886984,30.789097",中国农业银行24小时自助银行(不对外),[],[],四川省,[],[],2,[],金融保险服务;自动提款机;中国农业银行ATM,160304
天府大道639号附1号,都江堰市,[],[],[],成都市,[],B0FFF0KBNN,[],"103.646165,30.955369",中国农业银行ATM(社保分理处),[],[],四川省,[],[],2,[],金融保险服务;自动提款机;中国农业银行ATM,160304
剑南大道中段761、767号,武侯区,[],[],[],成都市,[],B0FFF9ULJU,[],"104.046694,30.556806",中国农业银行24小时自助银行(新南支行),[],[],四川省,[],[],2,[],金融保险服务;自动提款机;中国农业银行ATM,160304
南大街160号,郫都区,[],[],3,成都市,[],B001C0AGPI,[],"103.883716,30.807398",中国农业银行24小时自助银行(成都西区支行营业部),B001C0AGRT,[],四川省,[],[],2,[],金融保险服务;自动提款机;中国农业银行ATM,160304
芙蓉路118附近,温江区,[],[],[],成都市,[],B001C8P70X,[],"103.917223,30.703130",中国农业银行24小时自助银行(芙蓉路),[],[],四川省,[],[],2,[],金融保险服务;自动提款机;中国农业银行ATM,160304
S106(桥楼街),蒲江县,[],[],[],成都市,[],B0FFFWL426,[],"103.509984,30.298762",中国农业银行24小时自助银行,[],[],四川省,[],[],2,[],金融保险服务;自动提款机;中国农业银行ATM,160304
川橡路249号附近,简阳市,[],[],[],成都市,[],B0FFFS71NC,[],"104.504080,30.500969",中国农业银行24小时自助银行,[],[],四川省,[],[],2,[],金融保险服务;自动提款机;中国农业银行ATM,160304
华府大道一段926号附近,双流区,[],[],[],成都市,[],B0FFFOD9UJ,[],"104.050292,30.526766",中国农业银行24小时自助银行(成都华府支行),[],[],四川省,[],[],2,[],金融保险服务;自动提款机;中国农业银行ATM,160304
东升路与金融街交叉口东50米,简阳市,[],[],[],成都市,[],B0FFHKEGHI,[],"104.545285,30.407228",中国农业银行24小时自助银行(东升路支行),[],[],四川省,[],[],2,[],金融保险服务;自动提款机;中国农业银行ATM,160304
双林中横路16-24号,成华区,[],[],3,成都市,[],B001C0AGRY,[],"104.109926,30.651519",中国农业银行24小时自助银行(新华小区自助银行),B001C06KU6,[],四川省,[],[],2,[],金融保险服务;自动提款机;中国农业银行ATM,160304
菁华路128号,青白江区,[],[],3,成都市,[],B001C8R73C,[],"104.269940,30.885524",中国农业银行24小时自助银行(青白江凤凰湖分理处),B001C8O3GK,[],四川省,[],[],2,[],金融保险服务;自动提款机;中国农业银行ATM,160304
兆景路504号,武侯区,[],[],[],成都市,[],B0FFFE0EFH,[],"103.988369,30.621477",中国农业银行24小时自助银行(武科支行),[],[],四川省,[],[],2,[],金融保险服务;自动提款机;中国农业银行ATM,160304
元通镇通锦下街12号,崇州市,[],[],[],成都市,[],B0FFGBI3HZ,[],"103.624224,30.734227",中国农业银行24小时自助银行(崇州元通分理处),[],[],四川省,[],[],2,[],金融保险服务;自动提款机;中国农业银行ATM,160304
二环路北三段北站东二路,金牛区,[],[],202,成都市,[],B001C06VVG,[],"104.079753,30.693879",中国农业银行(成都北站东路支行),B001C03D32,[],四川省,[],[],2,028-83314891;028-83398410,金融保险服务;银行;中国农业银行,160107
天府三街69号新希望国际,武侯区,[],[],202,成都市,[],B001C95DTC,[],"104.066521,30.546049",中国农业银行24小时自助银行(成都新希望国际支行),B0FFHOL8UW,[],四川省,[],[],2,[],金融保险服务;自动提款机;中国农业银行ATM,160304
迎宾大道与渠山路交叉路口东侧(鹤翔山庄),都江堰市,[],[],[],成都市,[],B001C8ODGY,[],"103.589768,30.895837",中国农业银行24小时自助银行(成都分行),[],[],四川省,[],[],2,[],金融保险服务;自动提款机;中国农业银行ATM,160304
市场路228号,彭州市,[],[],3,成都市,[],B001C80KMU,[],"103.829808,31.160135",中国农业银行24小时自助银行(通济分理处),B001C80KMT,[],四川省,[],[],2,[],金融保险服务;自动提款机;中国农业银行ATM,160304
简城镇红建路175-179号,简阳市,[],[],[],成都市,[],B0FFF5YAI0,[],"104.551128,30.393938",中国农业银行24小时自助银行,[],[],四川省,[],[],2,[],金融保险服务;自动提款机;中国农业银行ATM,160304
新创路6成都中医药大学高新校区,郫都区,[],[],[],成都市,[],B0FFF2OVDD,[],"103.953630,30.740904",中国农业银行ATM(新创路),[],[],四川省,[],[],2,[],金融保险服务;自动提款机;中国农业银行ATM,160304
三岔街道三岔街200号,简阳市,[],[],[],成都市,[],B0FFF3UEMV,[],"104.300827,30.297728",中国农业银行24小时自助银行,[],[],四川省,[],[],2,[],金融保险服务;自动提款机;中国农业银行ATM,160304
蜀蓉路2号,金牛区,[],[],3,成都市,[],B001C7WBVF,[],"104.024985,30.686683",中国农业银行24小时自助银行(蜀汉路支行),B001C7WBVG,[],四川省,[],[],2,[],金融保险服务;自动提款机;中国农业银行ATM,160304
文井中路139号,崇州市,[],[],3,成都市,[],B001C8OF2E,[],"103.525796,30.742780",中国农业银行24小时自助银行(崇州怀远分理处),B001C8MCGH,[],四川省,[],[],2,[],金融保险服务;自动提款机;中国农业银行ATM,160304
新华大道双林路119号,成华区,[],[],3,成都市,[],B001C0AGQA,[],"104.100256,30.657750",中国农业银行24小时自助银行(成都锦东支行),B001C06FMV,[],四川省,[],[],2,[],金融保险服务;自动提款机;中国农业银行ATM,160304
红旗大道南段328号,郫都区,[],[],[],成都市,[],B001C8VF3Y,[],"103.854108,30.773524",中国农业银行24小时自助银行(德源支行),[],[],四川省,[],[],2,[],金融保险服务;自动提款机;中国农业银行ATM,160304
犀浦街道犀浦下街360-366号,郫都区,[],[],3,成都市,[],B001C808UB,[],"103.973453,30.752081",中国农业银行24小时自助银行(犀浦一所分理处),B001C808UA,[],四川省,[],[],2,[],金融保险服务;自动提款机;中国农业银行ATM,160304
金福北路17-23号,青羊区,[],[],3,成都市,[],B001C8MUSR,[],"103.984960,30.680263",中国农业银行ATM(成都金福支行),B001C805L5,[],四川省,[],[],2,[],金融保险服务;自动提款机;中国农业银行ATM,160304
五津西路128号,新津区,[],[],3,成都市,[],B001C7UX56,[],"103.807658,30.414750",中国农业银行24小时自助银行(顺江分理处),B001C05I5B,[],四川省,[],[],2,[],金融保险服务;自动提款机;中国农业银行ATM,160304
洞子口路333号附1-2号,金牛区,[],[],3,成都市,[],B001C8P6ME,[],"104.060966,30.721731",中国农业银行24小时自助银行(洞子口支行),B001C8P767,[],四川省,[],[],2,[],金融保险服务;自动提款机;中国农业银行ATM,160304
鹤山镇政府街40号,蒲江县,[],[],[],成都市,[],B0FFF40Q3J,[],"103.506184,30.196510",中国农业银行24小时自助银行(政府街),[],[],四川省,[],[],2,[],金融保险服务;自动提款机;中国农业银行ATM,160304
南街81-89,新都区,[],[],3,成都市,[],B001C8OAG0,[],"104.026471,30.818320",中国农业银行24小时自助银行(龙桥分理处),B001C0AGTI,[],四川省,[],[],2,[],金融保险服务;自动提款机;中国农业银行ATM,160304
翔凤路689-691号,都江堰市,[],[],3,成都市,[],B001C8OLQF,[],"103.641876,30.972962",中国农业银行24小时自助银行(翔凤分理处),B001C8OM04,[],四川省,[],[],2,[],金融保险服务;自动提款机;中国农业银行ATM,160304
官仓路与惠安大道交叉口东南200米,彭州市,[],[],[],成都市,[],B0FFJF30QZ,[],"103.959787,31.132091",中国农业银行24小时自助银行(葛仙山镇自助银行),[],[],四川省,[],[],2,[],金融保险服务;自动提款机;中国农业银行ATM,160304
和平路68-74号,龙泉驿区,[],[],3,成都市,[],B001C8MZQJ,[],"104.177566,30.650310",中国农业银行24小时自助银行(十陵支行),B001C8MR5F,[],四川省,[],[],2,[],金融保险服务;自动提款机;中国农业银行ATM,160304
金地路103号附近,龙泉驿区,[],[],[],成都市,[],B0FFGMXHOY,[],"104.193313,30.583932",中国农业银行24小时自助银行(金地路),[],[],四川省,[],[],2,[],金融保险服务;自动提款机;中国农业银行ATM,160304
兴淮大道190-196号,金堂县,[],[],[],成都市,[],B0FFFADCIM,[],"104.546720,30.715566",中国农业银行24小时自助银行(金堂兴淮分理处),[],[],四川省,[],[],2,[],金融保险服务;自动提款机;中国农业银行ATM,160304
高新区芳草街47号附1号,武侯区,[],[],[],成都市,[],B0FFG1I0EN,[],"104.052292,30.627188",中国农业银行24小时自助银行(芳草街),[],[],四川省,[],[],2,[],金融保险服务;自动提款机;中国农业银行ATM,160304
青羊大道10号附5-7号,青羊区,[],[],3,成都市,[],B001C7WQZF,[],"104.008643,30.658232",中国农业银行24小时自助银行(成都花园支行),B001C7TKL0,[],四川省,[],[],2,[],金融保险服务;自动提款机;中国农业银行ATM,160304
光华大道三段1623号附近,温江区,[],[],[],成都市,[],B0FFG9YNLJ,[],"103.864265,30.682049",中国农业银行24小时自助银行(光华大道三段),[],[],四川省,[],[],2,[],金融保险服务;自动提款机;中国农业银行ATM,160304
牛沙南路3号1层附14号,锦江区,[],[],202,成都市,[],B001C7WR08,[],"104.108178,30.621261",中国农业银行24小时自助银行(静居寺支行),B001C7WF5V,[],四川省,[],[],2,[],金融保险服务;自动提款机;中国农业银行ATM,160304
仁和街与新犀路交叉口,郫都区,[],[],[],成都市,[],B0FFGDRP40,[],"103.980892,30.816628",中国农业银行24小时自助银行(仁和街),[],[],四川省,[],[],2,[],金融保险服务;自动提款机;中国农业银行ATM,160304
滨江路一段55号附近,金堂县,[],[],[],成都市,[],B0FFG7992O,[],"104.428444,30.849486",中国农业银行24小时自助银行(滨江路一段),[],[],四川省,[],[],2,[],金融保险服务;自动提款机;中国农业银行ATM,160304
平安路一段147号,青白江区,[],[],3,成都市,[],B001C8MJZM,[],"104.393454,30.746742",中国农业银行24小时自助银行(平安路分理处),B001C7YJUD,[],四川省,[],[],2,[],金融保险服务;自动提款机;中国农业银行ATM,160304
王泗镇营经大道212-222号,大邑县,[],[],3,成都市,[],B001C7ZZJ4,[],"103.475997,30.518320",中国农业银行24小时自助银行(王泗分理处),B001C7ZZJ3,[],四川省,[],[],2,[],金融保险服务;自动提款机;中国农业银行ATM,160304
养马街道天华街67号西南方向5米,简阳市,[],[],[],成都市,[],B0FFHS59K2,[],"104.506250,30.494050",中国农业银行24小时自助银行,[],[],四川省,[],[],2,[],金融保险服务;自动提款机;中国农业银行ATM,160304
白衣下街与迎春路四段交叉口东50米,双流区,[],[],[],成都市,[],B0FFGFV4AT,[],"103.915162,30.579675",中国农业银行24小时自助银行(迎春路四段),[],[],四川省,[],[],2,[],金融保险服务;自动提款机;中国农业银行ATM,160304
解放路一段83号附6-8号,金牛区,[],[],3,成都市,[],B001C0AGSX,[],"104.088279,30.689722",中国农业银行24小时自助银行(成都高笋塘分理处),B001C0AGSW,[],四川省,[],[],2,[],金融保险服务;自动提款机;中国农业银行ATM,160304
