address,adname,biz_ext,biz_type,childtype,cityname,distance,id,importance,location,name,parent,photos,pname,poiweight,shopid,shopinfo,tel,type,typecode
光电大道1号中国科学院成都光电技术研究所院内,双流区,[],[],[],成都市,[],B001C8VKZP,[],"104.006893,30.533123",中国银行(双流光电所支行),[],[],四川省,[],[],2,028-85865070;95566,金融保险服务;银行;中国银行,160104
五津东路153号附2,新津区,[],[],[],成都市,[],B0FFF006HH,[],"103.817258,30.414743",中国银行(瑞通路支行),[],[],四川省,[],[],2,028-82523640;95566,金融保险服务;银行;中国银行,160104
博海路83号(海伦国际广场旁),新都区,[],[],[],成都市,[],B0FFI5HKP8,[],"104.158256,30.813303",中国银行(新都博海路支行),[],[],四川省,[],[],2,028-83968350;95566,金融保险服务;银行;中国银行,160104
公兴镇黄龙大道二段333号,双流区,[],[],[],成都市,[],B001C8OKZX,[],"103.996167,30.492773",中国银行(双流公兴支行),[],[],四川省,[],[],2,028-85681736;95566,金融保险服务;银行;中国银行,160104
人民南路四段9号中国科学院成都分院院内43栋,武侯区,[],[],[],成都市,[],B0FFF9VJ45,[],"104.071913,30.629702",中国银行(成都中科支行),[],[],四川省,[],[],2,028-85239061;95566;028-85229461,金融保险服务;银行;中国银行,160104
五津西路105号,新津区,[],[],[],成都市,[],B001C01036,[],"103.807525,30.415691",中国银行(新津支行),[],[],四川省,[],[],2,028-82523193;95566,金融保险服务;银行;中国银行,160104
华阳街道华府大道2号,双流区,[],[],[],成都市,[],B001C8RGFM,[],"104.068617,30.527591",中国银行(华府支行),[],[],四川省,[],[],2,028-62580213,金融保险服务;银行;中国银行,160104
东升镇棠湖东路一段15号,双流区,[],[],[],成都市,[],B001C013B6,[],"103.921909,30.571724",中国银行(双流分行),[],[],四川省,[],[],2,028-85823856;028-85824281;95566,金融保险服务;银行;中国银行,160104
小天北街18号小天丽苑1层,武侯区,[],[],[],成都市,[],B001C7WHKN,[],"104.058156,30.635826",中国银行(小天北街支行),[],[],四川省,[],[],2,028-85568873;028-85568872;95566,金融保险服务;银行;中国银行,160104
万春路184-194号,温江区,[],[],[],成都市,[],B001C92GLY,[],"103.839081,30.704869",中国银行(万春路支行),[],[],四川省,[],[],2,028-61707933;95566,金融保险服务;银行;中国银行,160104
前锋街2号1层,成华区,[],[],[],成都市,[],B001C7TLGE,[],"104.091742,30.678940",中国银行(成都府青路支行),[],[],四川省,[],[],2,028-83369068;028-83369058;95566,金融保险服务;银行;中国银行,160104
蜀跃路2号附9-11号,金牛区,[],[],[],成都市,[],B001C0AHHN,[],"104.006096,30.705611",中国银行(成都蜀跃路支行),[],[],四川省,[],[],2,028-87596011;028-87594328;95566,金融保险服务;银行;中国银行,160104
一环路南三段45号,武侯区,[],[],[],成都市,[],B001C060N7,[],"104.056615,30.633585",中国银行(武侯支行营业部),[],[],四川省,[],[],2,028-85565107;028-85541955;95566,金融保险服务;银行;中国银行,160104
西航港街道办事处五朵莲花社区邻里中心1期2栋,双流区,[],[],202,成都市,[],B001C8MQWL,[],"103.972502,30.535705",中国银行(双流工业新城支行),B0FFF8TBZ8,[],四川省,[],[],2,028-61405608;95566,金融保险服务;银行;中国银行,160104
华阳街道正东上街87-99号,双流区,[],[],[],成都市,[],B001C8MPAR,[],"104.057507,30.504383",中国银行(华阳支行),[],[],四川省,[],[],2,028-85647899;028-95566,金融保险服务;银行;中国银行,160104
晋原街道大东街52-56号,大邑县,[],[],[],成都市,[],B001C7UHWD,[],"103.522962,30.586068",中国银行(大邑县支行),[],[],四川省,[],[],2,028-88293350,金融保险服务;银行;中国银行,160104
川大路二段301-303,双流区,[],[],[],成都市,[],B001C8MQXI,[],"104.001564,30.552636",中国银行(双流四川大学支行),[],[],四川省,[],[],2,028-85990533;95566,金融保险服务;银行;中国银行,160104
庆丰街146-148号,温江区,[],[],[],成都市,[],B001C7U5J6,[],"103.830044,30.698325",中国银行(庆丰街支行),[],[],四川省,[],[],2,028-82726327;95566,金融保险服务;银行;中国银行,160104
高升桥南街8号附32-35号,武侯区,[],[],[],成都市,[],B001C0AHGH,[],"104.038816,30.637194",中国银行(成都罗浮支行),[],[],四川省,[],[],2,028-85089487;95566,金融保险服务;银行;中国银行,160104
金彭西路368-380号,彭州市,[],[],[],成都市,[],B0FFFPA4GQ,[],"103.932582,30.988234",中国银行(延秀街支行),[],[],四川省,[],[],2,028-83872501;95566,金融保险服务;银行;中国银行,160104
丽都路3号附4号,武侯区,[],[],[],成都市,[],B001C0AHGD,[],"104.032942,30.624565",中国银行(成都丽都支行),[],[],四川省,[],[],2,95566,金融保险服务;银行;中国银行,160104
锦城大道1024-1030号,武侯区,[],[],[],成都市,[],B0FFG9WPOQ,[],"104.051919,30.575575",中国银行(成都锦城大道支行),[],[],四川省,[],[],2,028-81706573;028-85141501,金融保险服务;银行;中国银行,160104
汇泉南路1号,锦江区,[],[],[],成都市,[],B0FFFAAW4F,[],"104.103372,30.624916",中国银行(锦江支行),[],[],四川省,[],[],2,[],金融保险服务;银行;中国银行,160104
群星路92-94号,金牛区,[],[],[],成都市,[],B001C0AHHT,[],"104.051787,30.701997",中国银行(西南交大分理处),[],[],四川省,[],[],2,028-87634332;028-87634331,金融保险服务;银行;中国银行,160104
瑞升望江橡树林一期184号橡树林路链家网店,锦江区,[],[],[],成都市,[],B0FFJ7E2SL,[],"104.093157,30.621558",中国银行(成都橡树林支行),[],[],四川省,[],[],2,028-85054740;95566,金融保险服务;银行;中国银行,160104
圣谕亭巷319号,新都区,[],[],[],成都市,[],B001C0298F,[],"104.164429,30.823595",中国银行(新都支行),[],[],四川省,[],[],2,028-83972336;95566,金融保险服务;银行;中国银行,160104
晋康北路229-237号,崇州市,[],[],[],成都市,[],B001C8N672,[],"103.684383,30.638891",中国银行(九龙路支行),[],[],四川省,[],[],2,028-82276562;95566,金融保险服务;银行;中国银行,160104
区高新区中和大道一段11号,双流区,[],[],[],成都市,[],B001C80OH0,[],"104.077231,30.548095",中国银行(成都中和支行),[],[],四川省,[],[],2,028-61900589;95566,金融保险服务;银行;中国银行,160104
东升街32-40号,简阳市,[],[],[],成都市,[],B0FFFZYMPI,[],"104.544989,30.406959",中国银行(简阳东升路支行),[],[],四川省,[],[],2,028-27359228;95566,金融保险服务;银行;中国银行,160104
青华路42号附1-3号,青羊区,[],[],[],成都市,[],B001C7WG2S,[],"104.023474,30.662477",中国银行(成都青华路支行),[],[],四川省,[],[],2,028-87371175;028-87372613;95566,金融保险服务;银行;中国银行,160104
天府二街1033号建发鹭洲里10-1-3B至,武侯区,[],[],202,成都市,[],B0FFJM49II,[],"104.040481,30.550479",中国银行(成都鹭洲里支行),B0FFH9HOAC,[],四川省,[],[],2,95566,金融保险服务;银行;中国银行,160104
佳灵路3号1栋1层,武侯区,[],[],[],成都市,[],B001C8O71X,[],"104.030037,30.634501",中国银行(成都红牌楼支行),[],[],四川省,[],[],2,028-85012705;95566,金融保险服务;银行;中国银行,160104
龙泉镇龙都南路111号,龙泉驿区,[],[],[],成都市,[],B001C7UWYW,[],"104.262279,30.566730",中国银行(龙泉驿支行),[],[],四川省,[],[],2,028-84853024;028-84858101;028-95566,金融保险服务;银行;中国银行,160104
致和街道长江路1012号,彭州市,[],[],[],成都市,[],B001C8OKC4,[],"103.950671,30.975585",中国银行(长江路支行),[],[],四川省,[],[],2,028-88505773;95566,金融保险服务;银行;中国银行,160104
建设南路83号,成华区,[],[],[],成都市,[],B001C8OQHR,[],"104.121065,30.669510",中国银行(音乐公园支行),[],[],四川省,[],[],2,028-84397276;95566,金融保险服务;银行;中国银行,160104
天久街19-21号,武侯区,[],[],[],成都市,[],B001C8MR1K,[],"104.071858,30.592970",中国银行(成都海关大厦支行),[],[],四川省,[],[],2,028-61557006;028-61557012;95566,金融保险服务;银行;中国银行,160104
双流机场内六号路,双流区,[],[],[],成都市,[],B001C8MQYL,[],"103.963472,30.568180",中国银行(双流机场支行),[],[],四川省,[],[],2,028-85206531,金融保险服务;银行;中国银行,160104
东升镇安福街15号,双流区,[],[],[],成都市,[],B0FFGM7CCR,[],"103.925203,30.574062",中国银行(双流安福街支行),[],[],四川省,[],[],2,028-85823844,金融保险服务;银行;中国银行,160104
东明街112-114号,双流区,[],[],[],成都市,[],B001C0AHIT,[],"103.927722,30.575402",中国银行(双流安福街支行),[],[],四川省,[],[],2,028-85823844;028-95566,金融保险服务;银行;中国银行,160104
蜀汉路211-213号,金牛区,[],[],[],成都市,[],B001C7WR3B,[],"104.026248,30.684988",中国银行(成都蜀汉路支行),[],[],四川省,[],[],2,95566,金融保险服务;银行;中国银行,160104
武科西四路128号西部智谷C区7栋1层3号,武侯区,[],[],202,成都市,[],B0FFIANH8I,[],"103.973945,30.630856",中国银行(智谷支行),B0FFK8AZC1,[],四川省,[],[],2,028-61101719;95566,金融保险服务;银行;中国银行,160104
合信路西南公寓2号院501,郫都区,[],[],[],成都市,[],B001C8R7G0,[],"103.913776,30.753373",中国银行(成都电子路支行),[],[],四川省,[],[],2,028-86102739;95566,金融保险服务;银行;中国银行,160104
崇阳镇永康西路397号399号401号一楼,崇州市,[],[],[],成都市,[],B0FFFLZWVN,[],"103.669919,30.621827",中国银行(永康西路支行),[],[],四川省,[],[],2,028-82276668;028-82276608;95566,金融保险服务;银行;中国银行,160104
大丰花都大道789号10幢西侧1层,新都区,[],[],[],成都市,[],B001C7YJ0M,[],"104.060100,30.760409",中国银行(大丰支行),[],[],四川省,[],[],2,028-61621221;95566,金融保险服务;银行;中国银行,160104
蜀清路236-240,青羊区,[],[],[],成都市,[],B001C8UB4C,[],"103.985997,30.678274",中国银行(蜀清路支行),[],[],四川省,[],[],2,028-61863084;028-61863445,金融保险服务;银行;中国银行,160104
北三环路一段221号华侨城创想中心A座,金牛区,[],[],202,成都市,[],B0FFHH25SO,[],"104.029696,30.713221",中国银行(华侨城支行),B0FFL2ICT3,[],四川省,[],[],2,028-68381260;95566,金融保险服务;银行;中国银行,160104
长江路三段68、70、72号(前锋・空港国际1层),双流区,[],[],[],成都市,[],B0FFI90ZHB,[],"103.990921,30.575543",中国银行(双流西航港支行),[],[],四川省,[],[],2,028-85969202;95566,金融保险服务;银行;中国银行,160104
清江中路4号附11号,青羊区,[],[],[],成都市,[],B001C7WR3G,[],"104.017940,30.671214",中国银行(双顺路支行),[],[],四川省,[],[],2,028-87383781;028-95566,金融保险服务;银行;中国银行,160104
犀浦街道金粮路580号,郫都区,[],[],[],成都市,[],B001C8MVLX,[],"103.985646,30.730802",中国银行(新里派克支行),[],[],四川省,[],[],2,028-61890581;028-62963629;95566,金融保险服务;银行;中国银行,160104
杜鹃路46号汉正广场一栋101号102号103号房,郫都区,[],[],202,成都市,[],B0FFIH6D0F,[],"103.899466,30.798668",中国银行(汉正广场支行),B0FFFGYR21,[],四川省,[],[],2,028-87862853;95566,金融保险服务;银行;中国银行,160104
红建路228附近,简阳市,[],[],[],成都市,[],B0FFFSYJUD,[],"104.552445,30.392677",中国银行24小时自助银行(红建路),[],[],四川省,[],[],2,[],金融保险服务;自动提款机;中国银行ATM,160301
东星大道438号,邛崃市,[],[],[],成都市,[],B0FFFPYQK2,[],"103.477497,30.403510",中国银行24小时自助银行(东星大道),[],[],四川省,[],[],2,[],金融保险服务;自动提款机;中国银行ATM,160301
龙腾中路9-13,武侯区,[],[],[],成都市,[],B001C8O672,[],"104.014284,30.651644",中国银行24小时自助银行(成都白兰地广场支行),[],[],四川省,[],[],2,[],金融保险服务;自动提款机;中国银行ATM,160301
赵镇南滨路48-49号,金堂县,[],[],[],成都市,[],B001C7ZWQP,[],"104.433758,30.855824",中国银行24小时自助银行(南滨支行),[],[],四川省,[],[],2,[],金融保险服务;自动提款机;中国银行ATM,160301
实业街7号中国银行,青羊区,[],[],3,成都市,[],B001C7Y7MZ,[],"104.055802,30.664979",中国银行24小时自助银行(实业街支行),B001C7Y7N0,[],四川省,[],[],2,[],金融保险服务;自动提款机;中国银行ATM,160301
清江中路4号附11号,青羊区,[],[],3,成都市,[],B001C7WR3H,[],"104.017978,30.671224",中国银行24小时自助银行(双顺路支行),B001C7WR3G,[],四川省,[],[],2,[],金融保险服务;自动提款机;中国银行ATM,160301
紫竹北街80-84号,武侯区,[],[],3,成都市,[],B001C7WHEG,[],"104.055170,30.617393",中国银行24小时自助银行(银都支行),B001C7WHEH,[],四川省,[],[],2,[],金融保险服务;自动提款机;中国银行ATM,160301
海椒市街6号附1-3号,锦江区,[],[],3,成都市,[],B001C7WGT7,[],"104.102388,30.639444",中国银行24小时自助银行(成都海椒市支行),B001C00B10,[],四川省,[],[],2,[],金融保险服务;自动提款机;中国银行ATM,160301
大石东路58号,武侯区,[],[],3,成都市,[],B001C7WG21,[],"104.043128,30.651542",中国银行24小时自助银行(大石东路支行),B001C7WG20,[],四川省,[],[],2,[],金融保险服务;自动提款机;中国银行ATM,160301
一环路南三段13号附2号,武侯区,[],[],3,成都市,[],B001C7VRXN,[],"104.062848,30.633587",中国银行24小时自助银行(华西支行),B001C0AHG4,[],四川省,[],[],2,[],金融保险服务;自动提款机;中国银行ATM,160301
东明街1-9号,双流区,[],[],[],成都市,[],B001C0AHIR,[],"103.925178,30.574125",中国银行24小时自助银行(安福街支行),[],[],四川省,[],[],2,[],金融保险服务;自动提款机;中国银行ATM,160301
天府大道中段279成达大厦,武侯区,[],[],202,成都市,[],B0FFFODNLG,[],"104.069896,30.552304",中国银行24小时自助银行(成达支行),B0FFFZUSTB,[],四川省,[],[],2,[],金融保险服务;自动提款机;中国银行ATM,160301
汇源北路与通汇街交叉口东北150米,锦江区,[],[],[],成都市,[],B0FFHSMMMV,[],"104.116743,30.638247",中国银行24小时自助银行(汇源北路支行),[],[],四川省,[],[],2,[],金融保险服务;自动提款机;中国银行ATM,160301
肖家村三巷23-33,金牛区,[],[],[],成都市,[],B0FFF2E4ZK,[],"104.074678,30.690139",中国银行24小时自助银行(成都金牛万达广场支行),[],[],四川省,[],[],2,[],金融保险服务;自动提款机;中国银行ATM,160301
建设北路二段4号电子科技大学沙河校区内,成华区,[],[],[],成都市,[],B001C8VK7B,[],"104.099792,30.677413",中国银行ATM(秀苑路),[],[],四川省,[],[],2,[],金融保险服务;自动提款机;中国银行ATM,160301
顺城大街607-609号附近,青羊区,[],[],[],成都市,[],B0FFJLID2K,[],"104.070346,30.667456",中国银行24小时自助银行,[],[],四川省,[],[],2,[],金融保险服务;自动提款机;中国银行ATM,160301
致民路36号附5号,武侯区,[],[],[],成都市,[],B0FFGQAGUC,[],"104.075710,30.643927",中国银行24小时自助银行(新南支行),[],[],四川省,[],[],2,[],金融保险服务;自动提款机;中国银行ATM,160301
正中街与糖酒巷交叉口东南50米,简阳市,[],[],[],成都市,[],B0FFF2FODB,[],"104.550475,30.391775",中国银行24小时自助银行(正中街支行),[],[],四川省,[],[],2,[],金融保险服务;自动提款机;中国银行ATM,160301
春熙路北段49号附3号,锦江区,[],[],[],成都市,[],B001C8OJZ1,[],"104.078156,30.657511",中国银行24小时自助银行(春熙路),[],[],四川省,[],[],2,[],金融保险服务;自动提款机;中国银行ATM,160301
二环路东二段426号伊藤洋华堂1层,成华区,[],[],202,成都市,[],B0FFH8KMWC,[],"104.108897,30.671789",中国银行ATM(伊藤洋华堂),B001C8WCEG,[],四川省,[],[],2,[],金融保险服务;自动提款机;中国银行ATM,160301
逸都路6号伊藤洋华堂1F层,武侯区,[],[],201,成都市,[],B0FFG17K56,[],"104.020838,30.646218",中国银行ATM(逸都路),B0FFF0DTTF,[],四川省,[],[],2,[],金融保险服务;自动提款机;中国银行ATM,160301
天韵路186号高新国际广场e座1层,武侯区,[],[],[],成都市,[],B0FFFEY6WL,[],"104.065605,30.591537",中国银行ATM(天府大道支行),[],[],四川省,[],[],2,[],金融保险服务;自动提款机;中国银行ATM,160301
中纱帽街8号成都远洋太古里M层,锦江区,[],[],302,成都市,[],B0FFGK7LF5,[],"104.082432,30.652595",中国银行ATM(成都远洋太古里),B0FFFVUIQJ,[],四川省,[],[],2,[],金融保险服务;自动提款机;中国银行ATM,160301
人民南路四段48号附18号,武侯区,[],[],[],成都市,[],B0HB2SVM0R,[],"104.066486,30.613247",中国银行(火车南站支行)(装修中),[],[],四川省,[],[],2,028-62938670;95566,金融保险服务;银行;银行,160100
广场路北一段130号,金牛区,[],[],[],成都市,[],B001C8R8FN,[],"103.951028,30.781580",中国银行(红光支行)(装修中),[],[],四川省,[],[],2,95566,金融保险服务;银行;中国银行,160104
成龙大道一段9号附4-5号,锦江区,[],[],[],成都市,[],B001C8R8HD,[],"104.135329,30.596048",中国银行(成都卓锦城支行)(装修中),[],[],四川省,[],[],2,028-86719971;028-86718602;95566,金融保险服务;银行;中国银行,160104
南街200-204号,邛崃市,[],[],[],成都市,[],B001C013B4,[],"103.460512,30.409800",中国银行(邛崃支行)(装修中),[],[],四川省,[],[],2,028-88791449;95566,金融保险服务;银行;中国银行,160104
建设南路83号,成华区,[],[],302,成都市,[],B001C8O5TP,[],"104.121397,30.669430",中国银行24小时自助银行(音乐公园支行)(装修中),B001C8NUD2,[],四川省,[],[],2,[],金融保险服务;自动提款机;中国银行ATM,160301
成龙大道一段9号4栋5号,锦江区,[],[],[],成都市,[],B001C8R9ZT,[],"104.135320,30.596065",中国银行24小时自助银行(成都卓锦城支行)(装修中),[],[],四川省,[],[],2,[],金融保险服务;自动提款机;中国银行ATM,160301
外北三环熊猫大道1375号成都大熊猫繁育研究基地内,成华区,[],[],302,成都市,[],B0FFFGY6S7,[],"104.146505,30.732780",中国银行ATM(熊猫大道)(暂停营业),B001C7WE5S,[],四川省,[],[],2,[],金融保险服务;自动提款机;中国银行ATM,160301
东大街1-9号,彭州市,[],[],[],成都市,[],B001C0AHIM,[],"103.942594,30.984053",中国银行24小时自助银行(彭州支行)(装修中),[],[],四川省,[],[],2,[],金融保险服务;自动提款机;中国银行ATM,160301
蜀陵路178号附近,成华区,[],[],[],成都市,[],B0FFHNSERL,[],"104.114333,30.728130",中国银行24小时自助银行(蜀陵路)(暂停营业),[],[],四川省,[],[],2,[],金融保险服务;自动提款机;中国银行ATM,160301
[],郫都区,[],[],[],成都市,[],B0FFFPI0WX,[],"103.984443,30.824545",中国银行24小时自助银行(星光大道)(暂停营业),[],[],四川省,[],[],2,[],金融保险服务;自动提款机;中国银行ATM,160301
一环路南三段45号,武侯区,[],[],3,成都市,[],B0FFICGOPS,[],"104.056803,30.633415",中国银行24小时自助银行(武侯支行营业部)(暂停营业),B001C060N7,[],四川省,[],[],2,[],金融保险服务;自动提款机;中国银行ATM,160301
大悦路518号大悦城B1层,武侯区,[],[],202,成都市,[],B0FFHD6FQ7,[],"104.012100,30.625683",中国银行24小时自助银行(暂停营业),B0FFFACY1X,[],四川省,[],[],2,[],金融保险服务;自动提款机;中国银行ATM,160301
东明街112-114号,双流区,[],[],[],成都市,[],B001C80JAM,[],"103.927762,30.575390",中国银行24小时自助银行(双流安福路支行)(装修中),[],[],四川省,[],[],2,[],金融保险服务;自动提款机;中国银行ATM,160301
望丛东路139号蜀都万达广场F1层,郫都区,[],[],201,成都市,[],B0FFIZ4RIQ,[],"103.908375,30.807119",中国银行ATM(蜀都万达广场)(暂停营业),B0FFF428AQ,[],四川省,[],[],2,[],金融保险服务;自动提款机;中国银行ATM,160301
中同仁路6号附2号,青羊区,[],[],3,成都市,[],B001C0AHHQ,[],"104.051964,30.667675",中国银行24小时自助银行(成都同仁路支行)(装修中),B001C0AHHP,[],四川省,[],[],2,[],金融保险服务;自动提款机;中国银行ATM,160301
新光路7号附12-15号,武侯区,[],[],3,成都市,[],B001C0AHGW,[],"104.057778,30.613314",中国银行24小时自助银行(风华苑支行)(装修中),B001C068FU,[],四川省,[],[],2,[],金融保险服务;自动提款机;中国银行ATM,160301
羊子山西路118-124号,成华区,[],[],[],成都市,[],B0FFFCOU9A,[],"104.095344,30.707875",中国银行(成都羊子山支行),[],[],四川省,[],[],2,028-61294392;95566,金融保险服务;银行;中国银行,160104
海昌南路66号,双流区,[],[],[],成都市,[],B001C95ERJ,[],"104.073197,30.490824",中国银行(海昌支行),[],[],四川省,[],[],2,028-62580464;028-60611240,金融保险服务;银行;中国银行,160104
黄苑街242-248号,青羊区,[],[],[],成都市,[],B0FFIKEKGB,[],"104.009215,30.688832",中国银行(成都上品金沙支行),[],[],四川省,[],[],2,028-87368972;95566,金融保险服务;银行;中国银行,160104
黄田坝经一路123号,青羊区,[],[],[],成都市,[],B001C8MV6T,[],"103.964733,30.694289",中国银行(成飞支行),[],[],四川省,[],[],2,028-87418330;028-87415606;95566,金融保险服务;银行;中国银行,160104
汇源北路272号、274号、276号、278号一层,锦江区,[],[],[],成都市,[],B0FFHPPAL2,[],"104.116710,30.638251",中国银行(东部新区支行),[],[],四川省,[],[],2,028-64357600;028-61197020;95566,金融保险服务;银行;中国银行,160104
紫杉路80号,武侯区,[],[],[],成都市,[],B001C069F8,[],"104.048619,30.614293",中国银行(成都紫荆西路支行),[],[],四川省,[],[],2,028-85130836;95566,金融保险服务;银行;中国银行,160104
聚萃街399号附8号,武侯区,[],[],[],成都市,[],B001C8VJTV,[],"103.998054,30.625953",中国银行(成都聚萃街支行),[],[],四川省,[],[],2,028-85367635;95566,金融保险服务;银行;中国银行,160104
银河路120号,龙泉驿区,[],[],[],成都市,[],B001C8OP8Q,[],"104.179762,30.567245",中国银行(恒大绿洲支行),[],[],四川省,[],[],2,028-88490522;95566,金融保险服务;银行;中国银行,160104
蒲阳路378,都江堰市,[],[],[],成都市,[],B0FFFP24UE,[],"103.631594,31.002601",中国银行(都江堰蒲阳路支行),[],[],四川省,[],[],2,028-87132805;95566,金融保险服务;银行;中国银行,160104
天府大道中段279号成达大厦,武侯区,[],[],202,成都市,[],B001C80FKF,[],"104.069893,30.552301",中国银行(成都成达支行),B0FFFZUSTB,[],四川省,[],[],2,028-85332456;028-85312191;95566,金融保险服务;银行;中国银行,160104
小南街77-79号,青羊区,[],[],[],成都市,[],B001C05UM1,[],"104.054026,30.655377",中国银行(成都长城园支行),[],[],四川省,[],[],2,028-86131786;028-86136830;028-95566,金融保险服务;银行;中国银行,160104
北泉路1018号31栋1层20号,龙泉驿区,[],[],[],成都市,[],B0FFHDE5QM,[],"104.243030,30.571027",中国银行(北泉支行),[],[],四川省,[],[],2,028-69417917;95566,金融保险服务;银行;中国银行,160104
黄金路256号-266号,金牛区,[],[],[],成都市,[],B001C8MV45,[],"103.991260,30.708617",中国银行(成都黄金路支行),[],[],四川省,[],[],2,95566,金融保险服务;银行;中国银行,160104
成华大道新鸿路71-75号,成华区,[],[],[],成都市,[],B001C0AHGL,[],"104.099000,30.662322",中国银行(成都猛追湾支行),[],[],四川省,[],[],2,028-84356612;028-84356613,金融保险服务;银行;中国银行,160104
芙蓉西路502号,锦江区,[],[],[],成都市,[],B0FFHXKKZ9,[],"104.142158,30.608462",中国银行(芙蓉西路支行),[],[],四川省,[],[],2,028-87022127,金融保险服务;银行;中国银行,160104
白河路四段23、25、27号,双流区,[],[],[],成都市,[],B0FFF00DZM,[],"103.909803,30.567941",中国银行(白河路支行),[],[],四川省,[],[],2,028-62580135;95566,金融保险服务;银行;中国银行,160104
崇阳街道滨江路南一段41-49号,崇州市,[],[],[],成都市,[],B0FFF00AS5,[],"103.658834,30.626657",中国银行(滨江路支行),[],[],四川省,[],[],2,028-82276668;028-82276238;95566,金融保险服务;银行;中国银行,160104
涌泉街道政通东路69号,温江区,[],[],202,成都市,[],B0FFG93WKL,[],"103.867079,30.679718",中国银行(政通东路支行),B001C8O7PM,[],四川省,[],[],2,028-82723613;95566,金融保险服务;银行;中国银行,160104
大东街263-267号,崇州市,[],[],[],成都市,[],B001C0AHI2,[],"103.679279,30.628724",中国银行(江源路支行),[],[],四川省,[],[],2,028-82273562;95566,金融保险服务;银行;中国银行,160104
西河街道开元南路79号滨西绿洲6栋9号,龙泉驿区,[],[],202,成都市,[],B0FFF0AJ53,[],"104.231920,30.644465",中国银行(龙泉驿西河支行),B0FFGB5L34,[],四川省,[],[],2,028-88425672;95566,金融保险服务;银行;中国银行,160104
航天北路航天宾馆附楼1层,龙泉驿区,[],[],[],成都市,[],B001C7YQ1Q,[],"104.259101,30.556634",中国银行(航天城支行),[],[],四川省,[],[],2,028-88420128;95566,金融保险服务;银行;中国银行,160104
高新区天益街77号,武侯区,[],[],[],成都市,[],B001C8O7VE,[],"104.061960,30.594095",中国银行(城南支行),[],[],四川省,[],[],2,028-85320411;028-85321407;95566,金融保险服务;银行;中国银行,160104
贝森路56号附2号,青羊区,[],[],[],成都市,[],B0FFGCBDSS,[],"104.003187,30.669869",中国银行(贝森路支行),[],[],四川省,[],[],2,028-87335605;95566,金融保险服务;银行;中国银行,160104
天府四街2806号临江苑9栋1楼临街商铺,武侯区,[],[],[],成都市,[],B0FFKVZJOU,[],"104.031376,30.542462",中国银行(成都大源支行),[],[],四川省,[],[],2,028-60633188;95566,金融保险服务;银行;中国银行,160104
龙泉镇东街61号,龙泉驿区,[],[],[],成都市,[],B001C7UWV3,[],"104.274085,30.557528",中国银行(龙泉驿东街分理处),[],[],四川省,[],[],2,028-84855490;028-84852345;95566,金融保险服务;银行;中国银行,160104
龙城大道1号,龙泉驿区,[],[],[],成都市,[],B0FFF2UN70,[],"104.201798,30.574195",中国银行(成都龙泉驿龙城支行),[],[],四川省,[],[],2,028-88407453;95566,金融保险服务;银行;中国银行,160104
怡湖西路120-124号,青白江区,[],[],[],成都市,[],B0HGPHTJS6,[],"104.254243,30.881468",中国银行(怡湖西路支行),[],[],四川省,[],[],2,028-83668805;95566,金融保险服务;银行;中国银行,160104
新光路7号附12-15号风华苑二期9层3号,武侯区,[],[],[],成都市,[],B0GKG78IGB,[],"104.057860,30.613323",中国银行(成都风华苑支行),[],[],四川省,[],[],2,028-85130910;95566,金融保险服务;银行;中国银行,160104
百草路777号金辉悦府公寓1层,郫都区,[],[],[],成都市,[],B0FFKJNUTE,[],"103.961668,30.744113",中国银行(东电支行),[],[],四川省,[],[],2,028-87520765;95566,金融保险服务;银行;中国银行,160104
沙湾路268号金茂大厦,金牛区,[],[],[],成都市,[],B001C7WR39,[],"104.050741,30.690372",中国银行(成都沙湾支行),[],[],四川省,[],[],2,[],金融保险服务;银行;中国银行,160104
五津镇模范街130号,新津区,[],[],[],成都市,[],B001C8N5VT,[],"103.811538,30.411542",中国银行(新津武阳路支行),[],[],四川省,[],[],2,028-82526159;95566,金融保险服务;银行;中国银行,160104
琉璃路694号,锦江区,[],[],[],成都市,[],B001C80P2H,[],"104.094137,30.611477",中国银行(成都翡翠城支行),[],[],四川省,[],[],2,028-85272430;95566,金融保险服务;银行;中国银行,160104
菱安路276-284号,锦江区,[],[],[],成都市,[],B0FFIZDZA6,[],"104.116654,30.609698",中国银行(成都万科支行),[],[],四川省,[],[],2,028-84782962;028-84783400;95566,金融保险服务;银行;中国银行,160104
紫竹北街80-84号,武侯区,[],[],[],成都市,[],B0HGKSGO5W,[],"104.055184,30.617373",中国银行(银都支行),[],[],四川省,[],[],2,028-85192652;95566,金融保险服务;银行;中国银行,160104
槐杨路2-16号,成华区,[],[],[],成都市,[],B0FFLDN7XC,[],"104.136498,30.647075",中国银行(成都成华支行),[],[],四川省,[],[],2,028-83338461;028-84368078;95566,金融保险服务;银行;中国银行,160104
抚琴西路115号附8-12号,金牛区,[],[],202,成都市,[],B001C05Y5D,[],"104.035965,30.678806",中国银行(成都抚琴支行),B0FFGDWCKT,[],四川省,[],[],2,028-87736590;95566,金融保险服务;银行;中国银行,160104
晋阳路,武侯区,[],[],202,成都市,[],B0FFHR4X0P,[],"103.994547,30.648398",中国银行(成都晋阳支行),B0FFHHDOQZ,[],四川省,[],[],2,028-87436962;95566,金融保险服务;银行;中国银行,160104
同辉南路104号附近,青羊区,[],[],202,成都市,[],B0FFGFTQO2,[],"103.963513,30.670763",中国银行(成都光华支行),B0FFFZBYDC,[],四川省,[],[],2,028-64791816;95566,金融保险服务;银行;中国银行,160104
华润置地二十四城二期9栋附227-231号,成华区,[],[],[],成都市,[],B001C8OL93,[],"104.119031,30.645087",中国银行(成都双成路支行),[],[],四川省,[],[],2,028-61307213;028-61307182,金融保险服务;银行;中国银行,160104
百锦路215号-217号,武侯区,[],[],201,成都市,[],B001C7YQ2L,[],"103.990903,30.607976",中国银行(成都簇锦支行),B001C7WN1X,[],四川省,[],[],2,028-85026180,金融保险服务;银行;中国银行,160104
和平路47-61号,龙泉驿区,[],[],[],成都市,[],B001C05DHR,[],"104.177175,30.649759",中国银行(成都龙泉驿十陵支行),[],[],四川省,[],[],2,028-84600861;028-84605815;95566,金融保险服务;银行;中国银行,160104
益州大道177号中海国际中心A座,武侯区,[],[],202,成都市,[],B001C8R7Z8,[],"104.059321,30.581656",中国银行(益州支行),B0FFF9VK7R,[],四川省,[],[],2,028-85239036;028-85233975;95566,金融保险服务;银行;中国银行,160104
青羊大道7号附14-23号,青羊区,[],[],[],成都市,[],B001C8MQ4C,[],"104.007865,30.657174",中国银行(成都开发西区支行),[],[],四川省,[],[],2,[],金融保险服务;银行;中国银行,160104
蜀金路1号金沙万瑞中心2栋,青羊区,[],[],[],成都市,[],B001C7YPZK,[],"103.999053,30.674537",中国银行(成都青羊支行),[],[],四川省,[],[],2,028-61506536;95566,金融保险服务;银行;中国银行,160104
朝阳大道140号,蒲江县,[],[],[],成都市,[],B001C8R97V,[],"103.514027,30.192660",中国银行(蒲江支行),[],[],四川省,[],[],2,028-88556036;95566,金融保险服务;银行;中国银行,160104
彩虹大道南段1号,都江堰市,[],[],[],成都市,[],B0HA1ZFK7I,[],"103.655806,30.985534",中国银行(都江堰翔凤路支行),[],[],四川省,[],[],2,028-87158047;028-87158343;95566,金融保险服务;银行;银行,160100
华新中街191-197号,双流区,[],[],[],成都市,[],B001C7UW8U,[],"104.053361,30.510127",中国银行(华新中街支行),[],[],四川省,[],[],2,028-85643632;95566,金融保险服务;银行;中国银行,160104
同和路1号附3号,金牛区,[],[],[],成都市,[],B001C8O6TG,[],"104.019592,30.688398",中国银行(成都同和路支行),[],[],四川省,[],[],2,028-87790529;028-87790702,金融保险服务;银行;中国银行,160104
火车南站东路5号附7-9号,武侯区,[],[],[],成都市,[],B001C7Y97M,[],"104.078574,30.608042",中国银行(成都高攀支行),[],[],四川省,[],[],2,028-85210367;028-85216852,金融保险服务;银行;中国银行,160104
双楠路310号双楠谊苑,武侯区,[],[],[],成都市,[],B001C06M7D,[],"104.026672,30.644700",中国银行(成都双楠支行),[],[],四川省,[],[],2,028-85072500;028-85086670;95566,金融保险服务;银行;中国银行,160104
马超西路456号,新都区,[],[],[],成都市,[],B001C8010F,[],"104.169049,30.811661",中国银行(新都马超西路支行),[],[],四川省,[],[],2,028-89399815;028-95566,金融保险服务;银行;中国银行,160104
柳城镇柳城大道西段86、88号,温江区,[],[],[],成都市,[],B001C0AHII,[],"103.829443,30.691087",中国银行(柳台大道支行),[],[],四川省,[],[],2,028-82712300;95566,金融保险服务;银行;中国银行,160104
[],锦江区,[],[],[],成都市,[],B001C8O7WF,[],"104.067203,30.652947",中国银行(成都人民南路支行),[],[],四川省,[],[],2,028-86511780;028-81472169;95566,金融保险服务;银行;中国银行,160104
建和路6号附33号,成华区,[],[],[],成都市,[],B001C80BZH,[],"104.112674,30.672927",中国银行(成都城东支行),[],[],四川省,[],[],2,028-84298001;95566,金融保险服务;银行;中国银行,160104
新希望路7号之附8-10号,武侯区,[],[],[],成都市,[],B001C7WR2R,[],"104.071100,30.616086",中国银行(航空路支行),[],[],四川省,[],[],2,028-85266380,金融保险服务;银行;中国银行,160104
正兴街道菁蓉中心B区4号楼1层,双流区,[],[],[],成都市,[],B0FFI870CG,[],"104.079469,30.405050",中国银行(科学城支行),[],[],四川省,[],[],2,[],金融保险服务;银行;中国银行,160104
武侯祠大街49-53号,武侯区,[],[],[],成都市,[],B001C7Y8SN,[],"104.054630,30.646440",中国银行(成都武侯祠大街支行),[],[],四川省,[],[],2,028-85554690;95566,金融保险服务;银行;中国银行,160104
天府大道天韵路186号高新国际广场E座1层,武侯区,[],[],[],成都市,[],B001C7YLBT,[],"104.065580,30.591674",中国银行(天府大道支行),[],[],四川省,[],[],2,028-85317165,金融保险服务;银行;中国银行,160104
人民中路二段35号,青羊区,[],[],3,成都市,[],B001C0AHJ0,[],"104.065856,30.669077",中国银行(四川省分行),B001C04FCE,[],四川省,[],[],2,028-86403083,金融保险服务;银行;中国银行,160104
顺和街10号附44-49号,武侯区,[],[],202,成都市,[],B001C8O585,[],"104.001930,30.632963",中国银行(成都中华名园支行),B001C8UFX7,[],四川省,[],[],2,028-87537563;028-85378131;95566,金融保险服务;银行;中国银行,160104
天彭镇东大街1-9号,彭州市,[],[],[],成都市,[],B001C06I4V,[],"103.942534,30.983995",中国银行(彭州支行),[],[],四川省,[],[],2,028-84097555;028-83879291;95566,金融保险服务;银行;中国银行,160104
龙腾中路9-13号,武侯区,[],[],[],成都市,[],B001C8MNRW,[],"104.014352,30.651627",中国银行(成都白兰地广场支行),[],[],四川省,[],[],2,028-85556375;028-85553827;95566,金融保险服务;银行;中国银行,160104
云影路1号附22号,武侯区,[],[],[],成都市,[],B0FFILWSL7,[],"104.018090,30.647604",中国银行(逸都分理处),[],[],四川省,[],[],2,028-87040208;95566,金融保险服务;银行;中国银行,160104
中同仁路6号附2号,青羊区,[],[],[],成都市,[],B001C0AHHP,[],"104.051992,30.667692",中国银行(成都同仁路支行),[],[],四川省,[],[],2,028-86257578;95566,金融保险服务;银行;中国银行,160104
科华街2号附5号,武侯区,[],[],[],成都市,[],B001C7WGN7,[],"104.079685,30.623942",中国银行(成都科华街支行),[],[],四川省,[],[],2,95566,金融保险服务;银行;中国银行,160104
人民南路四段28号成达综合楼1层,武侯区,[],[],202,成都市,[],B001C05UXW,[],"104.066485,30.622532",中国银行(成都玉洁支行),B0FFFO42R2,[],四川省,[],[],2,028-85520167,金融保险服务;银行;中国银行,160104
德盛商厦1层,简阳市,[],[],[],成都市,[],B034000131,[],"104.550299,30.391932",中国银行(正中街分理处),[],[],四川省,[],[],2,028-27218129,金融保险服务;银行;中国银行,160104
五河路88号1栋附近,新津区,[],[],[],成都市,[],B0FFHXD5YG,[],"103.802223,30.408917",中国银行24小时自助银行,[],[],四川省,[],[],2,[],金融保险服务;自动提款机;中国银行ATM,160301
清江东路9号,青羊区,[],[],[],成都市,[],B001C7WR3S,[],"104.037803,30.667275",中国银行(罗家碾支行),[],[],四川省,[],[],2,028-87313361;028-95566;028-87310312,金融保险服务;银行;中国银行,160104
蜀西路52号珠宝中心一栋一楼,金牛区,[],[],[],成都市,[],B0FFIAKDL2,[],"103.986386,30.717659",中国银行(成都蜀西路支行),[],[],四川省,[],[],2,028-86582487;95566,金融保险服务;银行;中国银行,160104
玉林中路4号,武侯区,[],[],[],成都市,[],B001C05FEL,[],"104.058075,30.627319",中国银行(成都玉林支行),[],[],四川省,[],[],2,028-85583157;95566,金融保险服务;银行;中国银行,160104
海科大厦7号楼,温江区,[],[],[],成都市,[],B0H61RQMWX,[],"103.855365,30.682968",中国银行(海科支行),[],[],四川省,[],[],2,028-82668566;95566,金融保险服务;银行;中国银行,160104
江安路495号、497号、499号,温江区,[],[],[],成都市,[],B0GRDOKB82,[],"103.882969,30.688089",中国银行(凤凰大街支行),[],[],四川省,[],[],2,[],金融保险服务;银行;银行,160100
柳林路261号、263号,温江区,[],[],[],成都市,[],B0GKXHF4BA,[],"103.839107,30.683693",中国银行温江南熏大道支行,[],[],四川省,[],[],2,[],金融保险服务;银行;银行,160100
玉带街2-10号,邛崃市,[],[],[],成都市,[],B0G0NPW8JV,[],"103.458217,30.404358",中国银行(邛崃玉带街分理处),[],[],四川省,[],[],2,95566,金融保险服务;银行;中国银行,160104
花照壁下横街429号,金牛区,[],[],[],成都市,[],B0FFMCEUKM,[],"104.031957,30.699389",中国银行(茶店子支行),[],[],四川省,[],[],2,028-62563148,金融保险服务;银行;银行,160100
九江街道鸿雁路92、94、96、98号,双流区,[],[],[],成都市,[],B0FFLNOKQ9,[],"103.913374,30.620082",中国银行(双流九江支行),[],[],四川省,[],[],2,028-62583061,金融保险服务;银行;中国银行,160104
文武路1号附1号,青羊区,[],[],[],成都市,[],B0FFLJNA2S,[],"104.073215,30.670392",中国银行(草市街支行),[],[],四川省,[],[],2,95566,金融保险服务;银行;中国银行,160104
天府一街718号,武侯区,[],[],202,成都市,[],B0FFK40KW4,[],"104.052780,30.560662",中国银行(成都天府一街支行),B0FFFPYMKV,[],四川省,[],[],2,028-63911571,金融保险服务;银行;中国银行,160104
盛和三路1号,武侯区,[],[],[],成都市,[],B0FFJQOXLQ,[],"104.054070,30.602759",中国银行(成都锦城支行),[],[],四川省,[],[],2,028-86148790;028-86123445;95588,金融保险服务;银行;中国银行,160104
南大街2号,郫都区,[],[],[],成都市,[],B0FFFABB4F,[],"103.886335,30.809116",中国银行(郫都支行),[],[],四川省,[],[],2,028-87885631;028-87862716,金融保险服务;银行;中国银行,160104
实业街7号1层,青羊区,[],[],[],成都市,[],B001C7Y7N0,[],"104.055789,30.665014",中国银行(成都实业街支行),[],[],四川省,[],[],2,028-86638952;028-86638327;95566,金融保险服务;银行;中国银行,160104
一环路南三段13号华西宾馆1层,武侯区,[],[],[],成都市,[],B001C0AHG4,[],"104.062905,30.633646",中国银行(成都华西支行),[],[],四川省,[],[],2,028-85593119;95566,金融保险服务;银行;中国银行,160104
海椒市街6号之附1-附4,锦江区,[],[],[],成都市,[],B001C00B10,[],"104.102396,30.639431",中国银行(海椒市支行),[],[],四川省,[],[],2,028-84533180;028-84530360,金融保险服务;银行;中国银行,160104
吉龙一街与应龙北一路交叉口南50米,双流区,[],[],[],成都市,[],B0FFJPRZP2,[],"104.088835,30.537700",中国银行(成都吉龙路支行),[],[],四川省,[],[],2,028-60612831;028-60612833,金融保险服务;银行;中国银行,160104
湖滨西路81号,简阳市,[],[],[],成都市,[],B0HA955RUU,[],"104.296114,30.299163",中国银行股份有限公司成都三岔支行,[],[],四川省,[],[],2,028-83101929,金融保险服务;银行;银行,160100
兴农路蒙阳印象售楼处旁,彭州市,[],[],[],成都市,[],B0FFKFVD45,[],"104.116399,30.946876",中国银行,[],[],四川省,[],[],2,95566,金融保险服务;银行;中国银行,160104
天府二街999号伊藤洋华堂L1层,武侯区,[],[],201,成都市,[],B0FFIYYUCW,[],"104.044523,30.550710",中国银行ATM(伊藤洋华堂),B001C8O160,[],四川省,[],[],2,[],金融保险服务;自动提款机;中国银行ATM,160301
赵镇南滨路48-49号,金堂县,[],[],[],成都市,[],B001C800W1,[],"104.433801,30.855878",中国银行(金堂南滨支行),[],[],四川省,[],[],2,028-68382152;028-68382129,金融保险服务;银行;中国银行,160104
一环路南1段24号四川大学望江校区,武侯区,[],[],[],成都市,[],B001C80SB7,[],"104.079697,30.627155",中国银行(成都川大南苑支行),[],[],四川省,[],[],2,028-85406113,金融保险服务;银行;中国银行,160104
文翁路139号力迅领筑1层4-6号,青羊区,[],[],[],成都市,[],B001C80SB6,[],"104.060197,30.653645",中国银行(成都文翁路支行),[],[],四川省,[],[],2,028-86131465,金融保险服务;银行;中国银行,160104
川大路二段2号附近,双流区,[],[],[],成都市,[],B0FFFODJ1B,[],"103.994065,30.553714",中国银行24小时自助银行(双流四川大学分理处),[],[],四川省,[],[],2,[],金融保险服务;自动提款机;中国银行ATM,160301
科华北路58号附1号,武侯区,[],[],202,成都市,[],B001C06MXH,[],"104.076441,30.624803",中国银行(成都棕南支行),B001C7TDQL,[],四川省,[],[],2,028-85233301;95566,金融保险服务;银行;中国银行,160104
繁江中路143-147,新都区,[],[],[],成都市,[],B0FFF2GUQ7,[],"104.018620,30.870941",中国银行(新都新繁支行),[],[],四川省,[],[],2,028-83082477,金融保险服务;银行;中国银行,160104
赵镇三中园区金中路75号,金堂县,[],[],[],成都市,[],B001C7ZWRM,[],"104.409959,30.860397",中国银行(金堂支行),[],[],四川省,[],[],2,028-84937015;028-69267161,金融保险服务;银行;中国银行,160104
机场路成都双流国际机场3F层,双流区,[],[],201,成都市,[],B0FFFDD1EI,[],"103.956083,30.571267",中国银行(成都双流国际机场T2航站楼支行),B001C06GIA,[],四川省,[],[],2,[],金融保险服务;银行;中国银行,160104
天府大道中段1366号,武侯区,[],[],[],成都市,[],B001C8R8CO,[],"104.068210,30.535838",中国银行24小时自助银行(成都高新技术产业开发区支行),[],[],四川省,[],[],2,[],金融保险服务;自动提款机;中国银行ATM,160301
建设中路237号(奥林宾馆旁边),简阳市,[],[],[],成都市,[],B034000576,[],"104.544695,30.385528",中国银行(简阳建设中路支行),[],[],四川省,[],[],2,028-27011188;028-27013861,金融保险服务;银行;中国银行,160104
华府大道一段518号,双流区,[],[],[],成都市,[],B0FFFPA22U,[],"104.059631,30.527089",中国银行24小时自助银行(成都自贸试验区分行),[],[],四川省,[],[],2,[],金融保险服务;自动提款机;中国银行ATM,160301
大南街144号,温江区,[],[],[],成都市,[],B001C04E04,[],"103.836832,30.694793",中国银行(温江支行),[],[],四川省,[],[],2,028-82722144;028-82726821;95566,金融保险服务;银行;中国银行,160104
东湖北街11号,彭州市,[],[],[],成都市,[],B001C8OJIY,[],"103.959746,30.987319",中国银行24小时自助银行(东湖北街),[],[],四川省,[],[],2,[],金融保险服务;自动提款机;中国银行ATM,160301
围城南路西段与建华北一巷交叉口东南50米,大邑县,[],[],[],成都市,[],B0FFIP2UNS,[],"103.520969,30.582037",中国银行(西街支行),[],[],四川省,[],[],2,[],金融保险服务;银行;中国银行,160104
下街与兴业南街交叉口东50米,郫都区,[],[],[],成都市,[],B0FFJ1JTJA,[],"103.974877,30.751583",中国银行(犀浦支行),[],[],四川省,[],[],2,028-87851394;028-87851170,金融保险服务;银行;中国银行,160104
安居路附近,青白江区,[],[],[],成都市,[],B0FFGHODOS,[],"104.262460,30.892194",中国银行(凤凰西路支行),[],[],四川省,[],[],2,028-83669287;95566,金融保险服务;银行;中国银行,160104
淮口街道兴淮大道275-281号,金堂县,[],[],[],成都市,[],B001C8ONFD,[],"104.548965,30.714890",中国银行(金堂淮口支行),[],[],四川省,[],[],2,028-69267019;028-69267018,金融保险服务;银行;中国银行,160104
三洞桥路20号附8号,金牛区,[],[],[],成都市,[],B001C7WR32,[],"104.051862,30.675547",中国银行(成都金牛支行),[],[],四川省,[],[],2,028-87778725;028-87749690;95566,金融保险服务;银行;中国银行,160104
红星路二段120号附1-4号,锦江区,[],[],202,成都市,[],B001C7WR2T,[],"104.084503,30.662198",中国银行(成都红星中路支行),B001C7TDR3,[],四川省,[],[],2,028-86513499,金融保险服务;银行;中国银行,160104
望平街167号,成华区,[],[],[],成都市,[],B001C7WFHW,[],"104.091398,30.656818",中国银行(成都望平街支行),[],[],四川省,[],[],2,028-84461277;028-84461536;95566,金融保险服务;银行;中国银行,160104
双林中横路6号附1-4号,成华区,[],[],[],成都市,[],B001C0AHHJ,[],"104.109149,30.650462",中国银行(双林路支行),[],[],四川省,[],[],2,028-84318005;95566,金融保险服务;银行;银行,160100
千祥街32号银都大厦B座1-5层,青羊区,[],[],[],成都市,[],B001C060AF,[],"104.065878,30.673416",中国银行(成都江汉路支行),[],[],四川省,[],[],2,028-86699474;028-86240131;95566,金融保险服务;银行;中国银行,160104
[],彭州市,[],[],[],成都市,[],B0GDCN7Z4R,[],"103.941285,30.973351",中国银行,[],[],四川省,[],[],2,[],金融保险服务;银行;中国银行,160104
汇泉南路5号,锦江区,[],[],[],成都市,[],B0G3VXFZBQ,[],"104.102692,30.624923",中国银行(锦江支行),[],[],四川省,[],[],2,[],金融保险服务;银行;中国银行,160104
香月湖附近,武侯区,[],[],[],成都市,[],B0G3S7X3UN,[],"104.057077,30.555306",中国银行(香月湖支行),[],[],四川省,[],[],2,[],金融保险服务;银行;中国银行,160104
[],龙泉驿区,[],[],[],成都市,[],B0G31CY5DI,[],"104.292435,30.608462",中国银行,[],[],四川省,[],[],2,[],金融保险服务;银行;中国银行,160104
崔家店横三街26号1栋1层11-17号,成华区,[],[],[],成都市,[],B0G0C5Y34B,[],"104.124288,30.663963",中国银行(成都崔家店支行),[],[],四川省,[],[],2,028-62302778,金融保险服务;银行;中国银行,160104
瑞祥路146号,双流区,[],[],[],成都市,[],B0FFMHTOIH,[],"104.036670,30.481355",中国银行(牧华支行),[],[],四川省,[],[],2,[],金融保险服务;银行;中国银行,160104
[],青白江区,[],[],[],成都市,[],B0FFMENHSE,[],"104.244145,30.887996",中国银行,[],[],四川省,[],[],2,[],金融保险服务;银行;中国银行,160104
通锦路,邛崃市,[],[],[],成都市,[],B0FFMENGCN,[],"103.480269,30.414224",中国银行,[],[],四川省,[],[],2,[],金融保险服务;银行;中国银行,160104
[],大邑县,[],[],[],成都市,[],B0FFMCQ7GE,[],"103.529810,30.584884",中国银行,[],[],四川省,[],[],2,[],金融保险服务;银行;中国银行,160104
石桥街道雄州大道南段东城华府A区,简阳市,[],[],[],成都市,[],B0FFLDTOMW,[],"104.532346,30.415144",中国银行(简阳支行),[],[],四川省,[],[],2,[],金融保险服务;银行;中国银行,160104
[],邛崃市,[],[],[],成都市,[],B0FFL6O4NG,[],"103.458458,30.414131",中国银行,[],[],四川省,[],[],2,[],金融保险服务;银行;中国银行,160104
关家堰社区六小组杉板桥路601号4幢102-106号,成华区,[],[],[],成都市,[],B0FFKSGCCZ,[],"104.131706,30.671925",中国银行(成都杉板桥路支行),[],[],四川省,[],[],2,028-83531796,金融保险服务;银行;中国银行,160104
百卉路13号附1号,青羊区,[],[],[],成都市,[],B0FFKR1TRN,[],"104.037109,30.652848",中国银行(春天花园支行),[],[],四川省,[],[],2,028-87032852,金融保险服务;银行;中国银行,160104
吉泰路696、698号,武侯区,[],[],202,成都市,[],B0FFJWZYNY,[],"104.063760,30.549907",中国银行(吉泰路支行),B001C8RGCT,[],四川省,[],[],2,[],金融保险服务;银行;中国银行,160104
犀浦街道泰山南街24号,郫都区,[],[],[],成都市,[],B001C7U3RA,[],"103.960474,30.759610",中国银行(泰山大道支行),[],[],四川省,[],[],2,028-62532622,金融保险服务;银行;中国银行,160104
天府大道中段1366号天府软件园e8,武侯区,[],[],202,成都市,[],B001C8R8CM,[],"104.068085,30.535782",中国银行(成都高新技术产业开发区支行),B0FFHG1VM5,[],四川省,[],[],2,028-62038635;028-62038731,金融保险服务;银行;中国银行,160104
青江中路288号大邦第一城商业楼,青白江区,[],[],[],成都市,[],B001C7YQOM,[],"104.251991,30.877608",中国银行(青白江支行),[],[],四川省,[],[],2,028-83660987,金融保险服务;银行;中国银行,160104
华府大道一段518号蜀郡A区77栋,双流区,[],[],[],成都市,[],B0FFFPA22X,[],"104.059826,30.527399",中国银行(成都自贸试验区分行),[],[],四川省,[],[],2,028-68273230;028-68273210,金融保险服务;银行;中国银行,160104
天乙街309-313号,都江堰市,[],[],[],成都市,[],B001C7VRY0,[],"103.619547,30.988820",中国银行(江安路支行),[],[],四川省,[],[],2,028-87281275;95566,金融保险服务;银行;中国银行,160104
金凤路5号附14-18号,青羊区,[],[],[],成都市,[],B001C7WBY5,[],"104.006124,30.675846",中国银行(成都金凤路支行),[],[],四川省,[],[],2,028-81717615;028-81717614;95566,金融保险服务;银行;中国银行,160104
金彭东路9号附1号,彭州市,[],[],[],成都市,[],B001C804SP,[],"103.953123,30.989241",中国银行(金彭东路支行),[],[],四川省,[],[],2,028-83872060;95566,金融保险服务;银行;银行,160100
下东大街199号睿东中心一楼,锦江区,[],[],[],成都市,[],B0FFG77G5J,[],"104.084057,30.650000",中国银行(成都大慈寺支行),[],[],四川省,[],[],2,028-85233218;028-85230219;95566,金融保险服务;银行;中国银行,160104
东大街紫东楼段35号明宇金融广场1层,锦江区,[],[],[],成都市,[],B0FFFAD48G,[],"104.091164,30.646876",中国银行(成都东大街支行),[],[],四川省,[],[],2,028-86731050;95566,金融保险服务;银行;中国银行,160104
提督街108号,青羊区,[],[],[],成都市,[],B001C92CGH,[],"104.072537,30.659951",中国银行(成都蜀都大道支行),[],[],四川省,[],[],2,028-86653878;95566,金融保险服务;银行;中国银行,160104
水碾河路25号蜀都惠园,成华区,[],[],[],成都市,[],B001C8OQOS,[],"104.103244,30.647055",中国银行(成都蜀都惠园支行),[],[],四川省,[],[],2,028-83520267;028-84391556;95566,金融保险服务;银行;中国银行,160104
建设路1号附14-17,成华区,[],[],[],成都市,[],B001C7YOVC,[],"104.108559,30.670296",中国银行(成都金域蓝湾支行),[],[],四川省,[],[],2,028-84702015;028-84702012;95566,金融保险服务;银行;中国银行,160104
致民路36号锦江新园1层,武侯区,[],[],[],成都市,[],B001C0AHJ8,[],"104.075568,30.643812",中国银行(新南支行),[],[],四川省,[],[],2,028-85445730;028-85441511;95566,金融保险服务;银行;中国银行,160104
新都大道8号,新都区,[],[],[],成都市,[],B0FFFGND6E,[],"104.179309,30.820965",中国银行(新都石油大学支行),[],[],四川省,[],[],2,028-83033932;028-83033936,金融保险服务;银行;中国银行,160104
红旗大道北段146号附近,郫都区,[],[],[],成都市,[],B0G3Z1U3N8,[],"103.861277,30.781152",中国银行ATM,[],[],四川省,[],[],2,[],金融保险服务;自动提款机;中国银行ATM,160301
建设路24-32号,新都区,[],[],[],成都市,[],B001C7YL4D,[],"104.156792,30.826632",中国银行(新都建设路支行),[],[],四川省,[],[],2,028-83974644;95566,金融保险服务;银行;中国银行,160104
华兴正街王府井商城B座,锦江区,[],[],202,成都市,[],B001C06PBN,[],"104.080483,30.658960",中国银行(成都王府井支行),B001C8OSCD,[],四川省,[],[],2,028-86745960;95566,金融保险服务;银行;中国银行,160104
金彭西路368-380号,彭州市,[],[],[],成都市,[],B0FFFPA4GT,[],"103.932798,30.988224",中国银行24小时自助银行(彭州延秀街支行),[],[],四川省,[],[],2,[],金融保险服务;自动提款机;中国银行ATM,160301
人民北路一段4号7幢附102-107号,金牛区,[],[],[],成都市,[],B0HB4AAADI,[],"104.071387,30.679816",中国银行(成都城北支行),[],[],四川省,[],[],2,[],金融保险服务;银行;中国银行,160104
临邛镇棉花街138-140号,邛崃市,[],[],[],成都市,[],B0FFFVO42D,[],"103.464744,30.416663",中国银行(邛崃文君广场支行),[],[],四川省,[],[],2,028-88740856;95566,金融保险服务;银行;中国银行,160104
幸福镇都江堰大道88号,都江堰市,[],[],[],成都市,[],B001C7U135,[],"103.630846,30.991217",中国银行(都江堰大道支行),[],[],四川省,[],[],2,028-87135189;028-61922832,金融保险服务;银行;中国银行,160104
万春镇天乡路二段88号国色天乡乐园,温江区,[],[],302,成都市,[],B0FFHE4KZW,[],"103.828428,30.720715",中国银行ATM(美温丽江东南),B0FFG0Y3PS,[],四川省,[],[],2,[],金融保险服务;自动提款机;中国银行ATM,160301
古川大道与君平大道交叉口北50米,邛崃市,[],[],[],成都市,[],B0FFGIWAR2,[],"103.457875,30.422796",中国银行24小时自助银行(古川大道),[],[],四川省,[],[],2,[],金融保险服务;自动提款机;中国银行ATM,160301
育卉街8,金牛区,[],[],[],成都市,[],B0FFFZ0ON1,[],"104.020219,30.702334",中国银行24小时自助银行,[],[],四川省,[],[],2,[],金融保险服务;自动提款机;中国银行ATM,160301
建设中路237号(简阳市农机监理站西北),简阳市,[],[],[],成都市,[],B0340012GG,[],"104.544691,30.385545",中国银行24小时自助银行(建设中路支行),[],[],四川省,[],[],2,[],金融保险服务;自动提款机;中国银行ATM,160301
望丛西路140、150附1-3号,郫都区,[],[],[],成都市,[],B001C7ZWV6,[],"103.877962,30.812596",中国银行24小时自助银行,[],[],四川省,[],[],2,[],金融保险服务;自动提款机;中国银行ATM,160301
晋原街道大邑大道123号附99号,大邑县,[],[],[],成都市,[],B001C8NO5G,[],"103.525683,30.573571",中国银行(大邑大道支行),[],[],四川省,[],[],2,028-88290211,金融保险服务;银行;中国银行,160104
大石东路58号,武侯区,[],[],[],成都市,[],B001C7WG20,[],"104.043065,30.651569",中国银行(大石东路支行),[],[],四川省,[],[],2,028-85500722;95566,金融保险服务;银行;中国银行,160104
武侯祠大街49-53号,武侯区,[],[],[],成都市,[],B0FFLAN3PE,[],"104.054526,30.646378",中国银行24小时自助银行,[],[],四川省,[],[],2,[],金融保险服务;自动提款机;中国银行ATM,160301
青华路42号附1-3号,青羊区,[],[],3,成都市,[],B001C7WG2T,[],"104.023439,30.662492",中国银行24小时自助银行(青华路支行),B001C7WG2S,[],四川省,[],[],2,[],金融保险服务;自动提款机;中国银行ATM,160301
玉林中路4号,武侯区,[],[],3,成都市,[],B001C0AHHX,[],"104.058088,30.627334",中国银行24小时自助银行(玉林支行),B001C05FEL,[],四川省,[],[],2,[],金融保险服务;自动提款机;中国银行ATM,160301
简城镇新民街180-190号(中国农业银行对面),简阳市,[],[],[],成都市,[],B034000113,[],"104.547506,30.389864",中国银行(新民街支行),[],[],四川省,[],[],2,028-27212013;95566,金融保险服务;银行;中国银行,160104
提督街110号附近,锦江区,[],[],[],成都市,[],B0FFHROGZC,[],"104.072671,30.659130",中国银行成都蜀都大道支行地下停车场(出入口),[],[],四川省,[],[],2,[],金融保险服务;银行;中国银行,160104
交子大道177号,武侯区,[],[],[],成都市,[],B001C8R7ZA,[],"104.059375,30.581664",中国银行24小时自助银行(成都益州支行),[],[],四川省,[],[],2,[],金融保险服务;自动提款机;中国银行ATM,160301
晋原街道内蒙古大道431号,大邑县,[],[],[],成都市,[],B0FFHGNJPF,[],"103.516314,30.569341",中国银行(大邑金融城支行),[],[],四川省,[],[],2,028-88282199,金融保险服务;银行;中国银行,160104
方圆街136-138号,邛崃市,[],[],202,成都市,[],B001C95EYH,[],"103.463693,30.401899",中国银行(邛崃瑞云欣广场支行),B0FFF00B5N,[],四川省,[],[],2,028-88767061,金融保险服务;银行;中国银行,160104
中山北路36号附1,都江堰市,[],[],[],成都市,[],B001C8R881,[],"103.641932,30.993634",中国银行(中山北路支行),[],[],四川省,[],[],2,028-61757913,金融保险服务;银行;中国银行,160104
犀浦街道泰山南街24号,郫都区,[],[],[],成都市,[],B001C0AHJI,[],"103.960474,30.759610",中国银行24小时自助银行(泰山大道支行),[],[],四川省,[],[],2,[],金融保险服务;自动提款机;中国银行ATM,160301
潘家街三段72号附1号,大邑县,[],[],[],成都市,[],B0FFGILE44,[],"103.535817,30.576267",中国银行24小时自助银行(潘家街三段),[],[],四川省,[],[],2,[],金融保险服务;自动提款机;中国银行ATM,160301
金泉路431号,金堂县,[],[],[],成都市,[],B001C8NZSS,[],"104.409776,30.849126",中国银行24小时自助银行(金泉路),[],[],四川省,[],[],2,[],金融保险服务;自动提款机;中国银行ATM,160301
梨园路一段,郫都区,[],[],[],成都市,[],B0FFHS5RQZ,[],"103.874840,30.821371",中国银行(梨园路支行),[],[],四川省,[],[],2,028-87925256;95566,金融保险服务;银行;中国银行,160104
五津西路105号,新津区,[],[],[],成都市,[],B001C059TM,[],"103.807546,30.415170",中国银行24小时自助银行(新津支行),[],[],四川省,[],[],2,[],金融保险服务;自动提款机;中国银行ATM,160301
犀浦街道天府大道18、20、22号,郫都区,[],[],[],成都市,[],B001C8MET0,[],"103.973793,30.758186",中银富登村镇银行,[],[],四川省,[],[],2,95566,金融保险服务;银行;中国银行,160104
温玉路与申柳路交叉口西南50米,温江区,[],[],[],成都市,[],B0FFJ9XSF8,[],"103.751717,30.775505",中国银行24小时自助银行,[],[],四川省,[],[],2,[],金融保险服务;自动提款机;中国银行ATM,160301
大南街144-146号,温江区,[],[],[],成都市,[],B001C7U5HB,[],"103.836640,30.694710",中国银行24小时自助银行(温江支行),[],[],四川省,[],[],2,[],金融保险服务;自动提款机;中国银行ATM,160301
马超西路456号,新都区,[],[],[],成都市,[],B001C7ZY1D,[],"104.169138,30.811638",中国银行24小时自助银行(马超西路支行),[],[],四川省,[],[],2,[],金融保险服务;自动提款机;中国银行ATM,160301
邛陶路54号,邛崃市,[],[],[],成都市,[],B0FFFW8IHK,[],"103.453204,30.406291",中国银行24小时自助银行(邛陶路),[],[],四川省,[],[],2,[],金融保险服务;自动提款机;中国银行ATM,160301
桥津上街320号,新津区,[],[],[],成都市,[],B0FFMEE6S1,[],"103.838416,30.419779",中国银行ATM,[],[],四川省,[],[],2,[],金融保险服务;自动提款机;中国银行ATM,160301
古川大道与君平大道交叉口北50米,邛崃市,[],[],[],成都市,[],B0FFM6QUQP,[],"103.458062,30.423463",中国银行24小时自助银行,[],[],四川省,[],[],2,[],金融保险服务;自动提款机;中国银行ATM,160301
新材料功能园区新材大道附近,新津区,[],[],[],成都市,[],B0FFHQYHUA,[],"103.892856,30.356944",中国银行24小时自助银行(新材大道),[],[],四川省,[],[],2,[],金融保险服务;自动提款机;中国银行ATM,160301
淮口街道兴淮大道275-281号,金堂县,[],[],[],成都市,[],B001C8OLJI,[],"104.548721,30.714895",中国银行24小时自助银行(金堂淮口支行),[],[],四川省,[],[],2,[],金融保险服务;自动提款机;中国银行ATM,160301
正东街166号,新津区,[],[],[],成都市,[],B0FFF00CMG,[],"103.814688,30.408349",中国银行ATM(新津支行),[],[],四川省,[],[],2,[],金融保险服务;自动提款机;中国银行ATM,160301
西街48号,崇州市,[],[],[],成都市,[],B001C8ONAH,[],"103.671404,30.629224",中国银行(崇州支行),[],[],四川省,[],[],2,028-82276608;028-82273002;95566,金融保险服务;银行;中国银行,160104
天彭镇天府中路26-32号(国贸超市楼下),彭州市,[],[],[],成都市,[],B001C06U6A,[],"103.943213,30.977867",中国银行(南大街支行),[],[],四川省,[],[],2,028-83705574,金融保险服务;银行;中国银行,160104
建设路1号附14-17,成华区,[],[],3,成都市,[],B0FFF5WNBG,[],"104.108708,30.670342",中国银行24小时自助银行(成都金域蓝湾支行),B001C7YOVC,[],四川省,[],[],2,[],金融保险服务;自动提款机;中国银行ATM,160301
朝阳大道142号附近,蒲江县,[],[],[],成都市,[],B001C8R97Y,[],"103.514228,30.192741",中国银行24小时自助银行(蒲江支行),[],[],四川省,[],[],2,[],金融保险服务;自动提款机;中国银行ATM,160301
一环路南1段24号四川大学望江校区,武侯区,[],[],3,成都市,[],B001C7Y9Y8,[],"104.079744,30.627259",中国银行24小时自助银行(成都川大南苑支行),B001C80SB7,[],四川省,[],[],2,[],金融保险服务;自动提款机;中国银行ATM,160301
太康西路与红石街交叉口西50米,新津区,[],[],302,成都市,[],B0FFGO1IRK,[],"103.810290,30.420312",中国银行24小时自助银行(新津支行),B001C8UCVP,[],四川省,[],[],2,[],金融保险服务;自动提款机;中国银行ATM,160301
西北市街44号,彭州市,[],[],[],成都市,[],B001C8OLZB,[],"103.937713,30.984709",中国银行24小时自助银行(西北市街),[],[],四川省,[],[],2,[],金融保险服务;自动提款机;中国银行ATM,160301
北大街155-157号(永康明近视保健中心西北),彭州市,[],[],[],成都市,[],B001C7YPR3,[],"103.942131,30.987442",中国银行24小时自助银行(北大街),[],[],四川省,[],[],2,[],金融保险服务;自动提款机;中国银行ATM,160301
静安路5号四川师范大学天朗气清综合楼,锦江区,[],[],[],成都市,[],B001C8NQ6U,[],"104.123545,30.608730",中国银行24小时自助银行(柳蹊路),[],[],四川省,[],[],2,[],金融保险服务;自动提款机;中国银行ATM,160301
益州大道中段699号,武侯区,[],[],[],成都市,[],B0G3MR31GV,[],"104.057188,30.555113",中国银行24小时自助银行(复城广场支行),[],[],四川省,[],[],2,[],金融保险服务;自动提款机;中国银行ATM,160301
[],双流区,[],[],[],成都市,[],B0G3M500KZ,[],"103.911926,30.619729",中国银行24小时自助银行(蛟龙港支行),[],[],四川省,[],[],2,[],金融保险服务;自动提款机;中国银行ATM,160301
[],双流区,[],[],[],成都市,[],B0G31CXXOZ,[],"104.036714,30.481434",中国银行24小时自助银行(牧华支行),[],[],四川省,[],[],2,[],金融保险服务;自动提款机;中国银行ATM,160301
幸福路辅路,龙泉驿区,[],[],[],成都市,[],B0G31CXXLT,[],"104.292616,30.608387",中国银行24小时自助银行服务点(幸福城店),[],[],四川省,[],[],2,[],金融保险服务;自动提款机;中国银行ATM,160301
[],双流区,[],[],[],成都市,[],B0G2VCKHYC,[],"103.913238,30.620075",中国银行24小时自助银行(九江支行),[],[],四川省,[],[],2,[],金融保险服务;自动提款机;中国银行ATM,160301
文武路,青羊区,[],[],[],成都市,[],B0G2U6ZSDE,[],"104.073219,30.670410",中国银行24小时自助银行(草市街支行),[],[],四川省,[],[],2,[],金融保险服务;自动提款机;中国银行ATM,160301
星艺大道17号,温江区,[],[],[],成都市,[],B0G1LK47M2,[],"103.777602,30.750171",中国银行24小时自助银行,[],[],四川省,[],[],2,[],金融保险服务;自动提款机;中国银行ATM,160301
府青路二段68菲想家未来广场1F,成华区,[],[],[],成都市,[],B0FFM5415M,[],"104.100797,30.685620",中国银行24小时自助银行,[],[],四川省,[],[],2,[],金融保险服务;自动提款机;中国银行ATM,160301
光华大道三段1588号合生汇(光华大道三段)L1层,温江区,[],[],201,成都市,[],B0FFLFKGZ9,[],"103.863948,30.686112",中国银行ATM(合生汇光华大道三段),B0FFF7TL3R,[],四川省,[],[],2,[],金融保险服务;自动提款机;中国银行ATM,160301
天府四街2808号,武侯区,[],[],[],成都市,[],B0FFLC8R3M,[],"104.031058,30.542358",中国银行24小时自助银行,[],[],四川省,[],[],2,[],金融保险服务;自动提款机;中国银行ATM,160301
金凤凰大道666中铁轨道交通高科技产业园A6栋,金牛区,[],[],202,成都市,[],B0FFL92P6K,[],"104.100841,30.768809",中国银行ATM,B0FFL92BKQ,[],四川省,[],[],2,[],金融保险服务;自动提款机;中国银行ATM,160301
剑南大道南段1166号,双流区,[],[],[],成都市,[],B0FFL6CJFS,[],"104.042490,30.522261",中国银行24小时自助银行(协和支行),[],[],四川省,[],[],2,[],金融保险服务;自动提款机;中国银行ATM,160301
博海路与励志路一段交叉路口东北侧(海伦国际),新都区,[],[],[],成都市,[],B0FFL68Q3Z,[],"104.158410,30.813210",中国银行24小时自助银行(博海路支行),[],[],四川省,[],[],2,[],金融保险服务;自动提款机;中国银行ATM,160301
市西街与书院街交叉路口往东约50米(御府),邛崃市,[],[],[],成都市,[],B0FFL5FN43,[],"103.458466,30.414166",中国银行24小时自助银行,[],[],四川省,[],[],2,[],金融保险服务;自动提款机;中国银行ATM,160301
正兴镇菁蓉中心B区4号楼1楼,双流区,[],[],[],成都市,[],B0FFL513WH,[],"104.079470,30.405051",中国银行24小时自助银行(科学城支行),[],[],四川省,[],[],2,[],金融保险服务;自动提款机;中国银行ATM,160301
吉泰路696号,武侯区,[],[],[],成都市,[],B0FFL2EIRN,[],"104.063756,30.550023",中国银行24小时自助银行(吉泰路支行),[],[],四川省,[],[],2,[],金融保险服务;自动提款机;中国银行ATM,160301
柳清街544号,双流区,[],[],[],成都市,[],B0FFL0FUKZ,[],"103.878931,30.533458",中国银行24小时自助银行,[],[],四川省,[],[],2,[],金融保险服务;自动提款机;中国银行ATM,160301
万顺路一段336,双流区,[],[],[],成都市,[],B0FFL03B6A,[],"104.025553,30.492890",中国银行24小时自助银行,[],[],四川省,[],[],2,[],金融保险服务;自动提款机;中国银行ATM,160301
盛和三路1号,武侯区,[],[],[],成都市,[],B0FFL031LD,[],"104.054075,30.602809",中国银行24小时自助银行(锦城支行),[],[],四川省,[],[],2,[],金融保险服务;自动提款机;中国银行ATM,160301
应龙北一路139号附近,双流区,[],[],[],成都市,[],B0FFKYRYI1,[],"104.088772,30.537655",中国银行24小时自助银行(吉龙路支行),[],[],四川省,[],[],2,[],金融保险服务;自动提款机;中国银行ATM,160301
天府中路281-285号附近,彭州市,[],[],[],成都市,[],B0FFKXV6I0,[],"103.951488,30.978574",中国银行24小时自助银行,[],[],四川省,[],[],2,[],金融保险服务;自动提款机;中国银行ATM,160301
清风乡清北街128号清风乡人民政府附近,简阳市,[],[],[],成都市,[],B0FFKXGOUO,[],"104.414683,30.241845",中国银行ATM,[],[],四川省,[],[],2,[],金融保险服务;自动提款机;中国银行ATM,160301
兴农路401号,彭州市,[],[],[],成都市,[],B0FFKXANOC,[],"104.116773,30.946871",中国银行24小时自助银行(彭州国际农产品支行),[],[],四川省,[],[],2,[],金融保险服务;自动提款机;中国银行ATM,160301
尽春意大道附近,简阳市,[],[],[],成都市,[],B0FFKX99K1,[],"104.557562,30.396713",中国银行24小时自助银行,[],[],四川省,[],[],2,[],金融保险服务;自动提款机;中国银行ATM,160301
石家碾西路与红阳东路交叉口西北50米,青白江区,[],[],[],成都市,[],B0FFKWX0K6,[],"104.252675,30.887479",中国银行24小时自助银行,[],[],四川省,[],[],2,[],金融保险服务;自动提款机;中国银行ATM,160301
富华北路与富华南路交叉口东南100米,武侯区,[],[],[],成都市,[],B0FFKWNXCW,[],"104.040494,30.550466",中国银行24小时自助银行,[],[],四川省,[],[],2,[],金融保险服务;自动提款机;中国银行ATM,160301
华金大道3段118附26东90米,青白江区,[],[],[],成都市,[],B0FFKWNXA3,[],"104.275556,30.882475",中国银行24小时自助银行,[],[],四川省,[],[],2,[],金融保险服务;自动提款机;中国银行ATM,160301
芙蓉西路504号附近,锦江区,[],[],[],成都市,[],B0FFKWCHU4,[],"104.142182,30.608453",中国银行24小时自助银行(芙蓉西路支行),[],[],四川省,[],[],2,[],金融保险服务;自动提款机;中国银行ATM,160301
下街与兴业南街交叉口东50米,郫都区,[],[],[],成都市,[],B0FFKWBINO,[],"103.974879,30.751588",中国银行24小时自助银行(犀浦支行),[],[],四川省,[],[],2,[],金融保险服务;自动提款机;中国银行ATM,160301
天府一街788号附近,武侯区,[],[],[],成都市,[],B0FFKWAN6U,[],"104.052781,30.560705",中国银行24小时自助银行(天府一街支行),[],[],四川省,[],[],2,[],金融保险服务;自动提款机;中国银行ATM,160301
牛沙横街2号附3,锦江区,[],[],[],成都市,[],B0FFKW1HJH,[],"104.101734,30.625651",中国银行24小时自助银行,[],[],四川省,[],[],2,[],金融保险服务;自动提款机;中国银行ATM,160301
医院路与花园街交叉口南50米,简阳市,[],[],[],成都市,[],B0FFKMOZDZ,[],"104.546420,30.389240",中国银行24小时自助银行(新民街),[],[],四川省,[],[],2,[],金融保险服务;自动提款机;中国银行ATM,160301
华侨城公园广场,金牛区,[],[],302,成都市,[],B0FFKK638P,[],"104.035367,30.719848",中国银行ATM,B001C80821,[],四川省,[],[],2,[],金融保险服务;自动提款机;中国银行ATM,160301
北三环路一段221号(华侨城・创想中心A座),金牛区,[],[],202,成都市,[],B0FFKCKY3V,[],"104.029735,30.713289",中国银行24小时自助银行,B0FFL2ICT3,[],四川省,[],[],2,[],金融保险服务;自动提款机;中国银行ATM,160301
129乡道附近,简阳市,[],[],[],成都市,[],B0FFKC47P8,[],"104.376457,30.474795",中国银行24小时自助银行,[],[],四川省,[],[],2,[],金融保险服务;自动提款机;中国银行ATM,160301
东篱路468号,新津区,[],[],[],成都市,[],B0FFK23ZOF,[],"103.879501,30.469034",中国银行ATM,[],[],四川省,[],[],2,[],金融保险服务;自动提款机;中国银行ATM,160301
梨园路一段518,郫都区,[],[],[],成都市,[],B0FFK1TISA,[],"103.874797,30.821524",中国银行24小时自助银行(梨园路支行),[],[],四川省,[],[],2,[],金融保险服务;自动提款机;中国银行ATM,160301
橡树林路193-203号,锦江区,[],[],[],成都市,[],B0FFJKF9J0,[],"104.093171,30.621506",中国银行24小时自助银行(橡树林支行),[],[],四川省,[],[],2,[],金融保险服务;自动提款机;中国银行ATM,160301
长江路三段68、70、72号(前锋・空港国际1层),双流区,[],[],[],成都市,[],B0FFI90ZHA,[],"103.990905,30.575603",中国银行24小时自助银行(西航港支行),[],[],四川省,[],[],2,[],金融保险服务;自动提款机;中国银行ATM,160301
九里埂路,双流区,[],[],[],成都市,[],B0FFHWH6TB,[],"104.087050,30.462522",中国银行24小时自助银行,[],[],四川省,[],[],2,[],金融保险服务;自动提款机;中国银行ATM,160301
开金路与红叶街交叉口南50米,温江区,[],[],[],成都市,[],B0FFGLCX5H,[],"103.910690,30.726750",中国银行24小时自助银行(红叶街),[],[],四川省,[],[],2,[],金融保险服务;自动提款机;中国银行ATM,160301
五津东路153号,新津区,[],[],[],成都市,[],B0FFF006HI,[],"103.817046,30.414543",中国银行24小时自助银行(新津瑞通路支行),[],[],四川省,[],[],2,[],金融保险服务;自动提款机;中国银行ATM,160301
肖家村三巷23-33号,金牛区,[],[],[],成都市,[],B001C92GUA,[],"104.074363,30.690056",中国银行(成都金牛万达广场支行),[],[],四川省,[],[],2,028-83311941;95566,金融保险服务;银行;中国银行,160104
水碾河路25号附19号,成华区,[],[],[],成都市,[],B001C8OKNM,[],"104.103404,30.647029",中国银行24小时自助银行(成都蜀都惠园支行),[],[],四川省,[],[],2,[],金融保险服务;银行;中国银行,160104
宏济新路194-198号,锦江区,[],[],[],成都市,[],B001C7UPNJ,[],"104.094621,30.639241",中国银行(宏济新路支行),[],[],四川省,[],[],2,028-84513605;028-84513607,金融保险服务;银行;中国银行,160104
永丰路298附近,邛崃市,[],[],[],成都市,[],B0FFFVC9NR,[],"103.464646,30.416745",中国银行24小时自助银行(文君广场支行),[],[],四川省,[],[],2,[],金融保险服务;自动提款机;中国银行ATM,160301
顺和街10号附44-49号,武侯区,[],[],[],成都市,[],B001C8O2M8,[],"104.001959,30.633045",中国银行24小时自助银行(成都中华名园支行),[],[],四川省,[],[],2,[],金融保险服务;自动提款机;中国银行ATM,160301
建设路24-32号,新都区,[],[],[],成都市,[],B001C8030F,[],"104.156764,30.826655",中国银行24小时自助银行(建设路支行),[],[],四川省,[],[],2,[],金融保险服务;自动提款机;中国银行ATM,160301
晋原街道富民路中段85-87号,大邑县,[],[],[],成都市,[],B001C8VJHD,[],"103.529687,30.584912",中国银行ATM,[],[],四川省,[],[],2,[],金融保险服务;自动提款机;中国银行ATM,160301
大邑大道99号附1号,大邑县,[],[],[],成都市,[],B001C8NP0N,[],"103.525630,30.573691",中国银行24小时自助银行(大邑大道支行),[],[],四川省,[],[],2,[],金融保险服务;自动提款机;中国银行ATM,160301
大邑大道568号附6号,大邑县,[],[],[],成都市,[],B0FFHCU1IS,[],"103.526892,30.566008",中国银行24小时自助银行(大邑大道),[],[],四川省,[],[],2,[],金融保险服务;自动提款机;中国银行ATM,160301
府青路14号,成华区,[],[],3,成都市,[],B001C0AHG0,[],"104.091897,30.679183",中国银行24小时自助银行(成都府青路支行),B001C7TLGE,[],四川省,[],[],2,[],金融保险服务;自动提款机;中国银行ATM,160301
小天北街18号附8号,武侯区,[],[],3,成都市,[],B001C7WHKQ,[],"104.058321,30.635699",中国银行24小时自助银行(小天北街支行),B001C7WHKN,[],四川省,[],[],2,[],金融保险服务;自动提款机;中国银行ATM,160301
蒲阳路374号,都江堰市,[],[],[],成都市,[],B001C8OKZ3,[],"103.631575,31.002596",中国银行24小时自助银行(蒲阳路支行),[],[],四川省,[],[],2,[],金融保险服务;自动提款机;中国银行ATM,160301
花园路165号附近,彭州市,[],[],[],成都市,[],B0FFHBVB9V,[],"103.946727,30.992197",中国银行24小时自助银行(花园路),[],[],四川省,[],[],2,[],金融保险服务;自动提款机;中国银行ATM,160301
双成三路18号附31号,成华区,[],[],[],成都市,[],B001C8OMSL,[],"104.119069,30.645093",中国银行24小时自助银行(成都双成路支行),[],[],四川省,[],[],2,[],金融保险服务;自动提款机;中国银行ATM,160301
机场东二路与机场南三路交叉口东150米,双流区,[],[],[],成都市,[],B001C8MQYK,[],"103.963486,30.568195",中国银行24小时自助银行(双流机场支行),[],[],四川省,[],[],2,[],金融保险服务;自动提款机;中国银行ATM,160301
天府大道南段150-156,双流区,[],[],[],成都市,[],B001C8RGBP,[],"104.068589,30.527685",中国银行24小时自助银行(华府支行),[],[],四川省,[],[],2,[],金融保险服务;自动提款机;中国银行ATM,160301
新都大道783附近,新都区,[],[],[],成都市,[],B0FFFGNSL1,[],"104.198881,30.823163",中国银行24小时自助银行(成怡嘉苑西南),[],[],四川省,[],[],2,[],金融保险服务;自动提款机;中国银行ATM,160301
圣谕亭巷319号,新都区,[],[],[],成都市,[],B001C0686W,[],"104.164511,30.823521",中国银行24小时自助银行(新都支行),[],[],四川省,[],[],2,[],金融保险服务;自动提款机;中国银行ATM,160301
天府西路138号,彭州市,[],[],[],成都市,[],B001C8ONLT,[],"103.938144,30.978376",中国银行24小时自助银行(天府西路),[],[],四川省,[],[],2,[],金融保险服务;自动提款机;中国银行ATM,160301
政星街117-附2号附近,温江区,[],[],[],成都市,[],B0FFINLY4Y,[],"103.753279,30.810862",中国银行24小时自助银行(政星街),[],[],四川省,[],[],2,[],金融保险服务;自动提款机;中国银行ATM,160301
天益街77号,武侯区,[],[],3,成都市,[],B001C8O948,[],"104.062006,30.594077",中国银行24小时自助银行(成都城南支行),B001C8O7VE,[],四川省,[],[],2,[],金融保险服务;自动提款机;中国银行ATM,160301
211号百伦广场1楼,都江堰市,[],[],[],成都市,[],B001C8ON08,[],"103.638739,30.996730",中国银行24小时自助银行(学府路一段),[],[],四川省,[],[],2,[],金融保险服务;自动提款机;中国银行ATM,160301
正东上街87-99,双流区,[],[],[],成都市,[],B001C8MPAQ,[],"104.057256,30.504533",中国银行24小时自助银行(华阳支行),[],[],四川省,[],[],2,[],金融保险服务;自动提款机;中国银行ATM,160301
清泰路与骑士大道交叉口西北100米,温江区,[],[],[],成都市,[],B0FFHF1HI7,[],"103.809609,30.644204",中国银行24小时自助银行(东原城自助银行),[],[],四川省,[],[],2,[],金融保险服务;自动提款机;中国银行ATM,160301
致远路与陈英路交叉口西100米成都大学-第6教学楼附近,龙泉驿区,[],[],[],成都市,[],B0FFG0ZGRH,[],"104.191501,30.650990",中国银行24小时自助银行,[],[],四川省,[],[],2,[],金融保险服务;自动提款机;中国银行ATM,160301
建和路6号附33号,成华区,[],[],[],成都市,[],B001C80BZI,[],"104.112775,30.672928",中国银行24小时自助银行(成都城东支行),[],[],四川省,[],[],2,[],金融保险服务;自动提款机;中国银行ATM,160301
蜀跃路2号附9-11号,金牛区,[],[],3,成都市,[],B001C8MKUP,[],"104.005986,30.705567",中国银行24小时自助银行(蜀跃路支行),B001C0AHHN,[],四川省,[],[],2,[],金融保险服务;自动提款机;中国银行ATM,160301
大黄路附近,双流区,[],[],[],成都市,[],B0FFFZ2W2H,[],"104.006896,30.533073",中国银行24小时自助银行,[],[],四川省,[],[],2,[],金融保险服务;自动提款机;中国银行ATM,160301
江安路与清泉北街交叉路口往东约200米,温江区,[],[],[],成都市,[],B0HBKCTDNY,[],"103.882859,30.688115",中国银行24小时自助银行,[],[],四川省,[],[],2,[],金融保险服务;自动提款机;中国银行ATM,160301
逸都路6号伊藤洋华堂F1,武侯区,[],[],202,成都市,[],B0HARM1SJH,[],"104.020692,30.646244",伊藤洋华堂-中国银行ATM,B0FFF0DTTF,[],四川省,[],[],2,[],金融保险服务;自动提款机;中国银行ATM,160301
洪山北路242号,成华区,[],[],[],成都市,[],B0H63B5Z0P,[],"104.095522,30.708711",中国银行24小时自助银行,[],[],四川省,[],[],2,[],金融保险服务;自动提款机;中国银行ATM,160301
[],金牛区,[],[],[],成都市,[],B0H60CJ4UL,[],"104.071586,30.679675",中国银行24小时自助银行(成都城北支行),[],[],四川省,[],[],2,[],金融保险服务;自动提款机;中国银行ATM,160301
人民南路四段28号成达综合楼1层,武侯区,[],[],202,成都市,[],B001C7VRXW,[],"104.066486,30.622528",中国银行24小时自助银行(成都玉洁支行),B0FFFO42R2,[],四川省,[],[],2,[],金融保险服务;自动提款机;中国银行ATM,160301
赵镇三中园区金中路75号,金堂县,[],[],[],成都市,[],B001C7ZWRN,[],"104.409996,30.860622",中国银行24小时自助银行(金堂支行),[],[],四川省,[],[],2,[],金融保险服务;自动提款机;中国银行ATM,160301
新园路与清源路交叉口西北100米,新都区,[],[],[],成都市,[],B0FFGB4FPS,[],"104.172054,30.816543",中国银行24小时自助银行(清源路),[],[],四川省,[],[],2,[],金融保险服务;自动提款机;中国银行ATM,160301
滨江路南一段41-49号,崇州市,[],[],[],成都市,[],B0FFF00AS6,[],"103.658823,30.626417",中国银行24小时自助银行(滨江路支行),[],[],四川省,[],[],2,[],金融保险服务;自动提款机;中国银行ATM,160301
都江堰大道88号,都江堰市,[],[],[],成都市,[],B001C80SLM,[],"103.630881,30.991297",中国银行24小时自助银行(都江堰大道支行),[],[],四川省,[],[],2,[],金融保险服务;自动提款机;中国银行ATM,160301
机场路成都双流国际机场3F层,双流区,[],[],201,成都市,[],B0FFGF9I9S,[],"103.958337,30.578414",中国银行ATM(成都空港大酒店西北),B001C06GIA,[],四川省,[],[],2,[],金融保险服务;自动提款机;中国银行ATM,160301
芙蓉三巷与芙蓉东街交叉口东100米,大邑县,[],[],[],成都市,[],B0FFIOWGY5,[],"103.546959,30.599820",中国银行24小时自助银行(芙蓉二巷),[],[],四川省,[],[],2,[],金融保险服务;自动提款机;中国银行ATM,160301
崇义镇IT大道四川工商职业技术学院,都江堰市,[],[],[],成都市,[],B001C8X3GX,[],"103.697762,30.912917",中国银行ATM(天府大道),[],[],四川省,[],[],2,[],金融保险服务;自动提款机;中国银行ATM,160301
华新中街191-197号,双流区,[],[],[],成都市,[],B001C7UW8V,[],"104.053383,30.510135",中国银行24小时自助银行(华新中街支行),[],[],四川省,[],[],2,[],金融保险服务;自动提款机;中国银行ATM,160301
正南街与繁江大道交叉口东南50米,新都区,[],[],[],成都市,[],B0FFFQ2059,[],"104.018681,30.870949",中国银行24小时自助银行(新繁支行),[],[],四川省,[],[],2,[],金融保险服务;自动提款机;中国银行ATM,160301
淮州大道与瑞光路交叉口西北50米,金堂县,[],[],[],成都市,[],B0FFG8IS4M,[],"104.558634,30.712514",中国银行24小时自助银行(瑞光路),[],[],四川省,[],[],2,[],金融保险服务;自动提款机;中国银行ATM,160301
望丛中路328号附近,郫都区,[],[],[],成都市,[],B0FFGSWEAV,[],"103.879036,30.806355",中国银行24小时自助银行(农发局家属院东),[],[],四川省,[],[],2,[],金融保险服务;自动提款机;中国银行ATM,160301
区高新区中和大道一段11号,双流区,[],[],[],成都市,[],B001C80PYI,[],"104.077131,30.548084",中国银行24小时自助银行(中和支行),[],[],四川省,[],[],2,[],金融保险服务;自动提款机;中国银行ATM,160301
双华路三段南大家乐超市附近(双华路三段与西航港大道交叉口西)科技企业孵化中心,双流区,[],[],[],成都市,[],B001C8MQWM,[],"103.972531,30.535743",中国银行24小时自助银行(双流工业新城支行),[],[],四川省,[],[],2,[],金融保险服务;自动提款机;中国银行ATM,160301
机场东路3层,双流区,[],[],[],成都市,[],B0FFGFYETV,[],"103.956081,30.571259",中国银行ATM,[],[],四川省,[],[],2,[],金融保险服务;自动提款机;中国银行ATM,160301
新都大道8号,新都区,[],[],[],成都市,[],B0FFFGND6N,[],"104.179310,30.820956",中国银行24小时自助银行(新都石油大学支行),[],[],四川省,[],[],2,[],金融保险服务;自动提款机;中国银行ATM,160301
上善南路40号,都江堰市,[],[],[],成都市,[],B001C8NV4H,[],"103.659664,31.013284",中国银行24小时自助银行(问道路),[],[],四川省,[],[],2,[],金融保险服务;自动提款机;中国银行ATM,160301
天乡路二段395号,温江区,[],[],[],成都市,[],B0FFFGY25N,[],"103.830467,30.719727",中国银行24小时自助银行(天乡路二段),[],[],四川省,[],[],2,[],金融保险服务;自动提款机;中国银行ATM,160301
学子路2号附151,邛崃市,[],[],[],成都市,[],B0FFGHOQID,[],"103.480397,30.414241",中国银行24小时自助银行,[],[],四川省,[],[],2,[],金融保险服务;自动提款机;中国银行ATM,160301
东大街下东大街段与磨房街交叉口东50米,锦江区,[],[],[],成都市,[],B0FFFFCLQ0,[],"104.083985,30.649960",中国银行24小时自助银行(成都大慈寺支行),[],[],四川省,[],[],2,[],金融保险服务;自动提款机;中国银行ATM,160301
总府路15号王府井商厦B座1层,锦江区,[],[],202,成都市,[],B001C0AHHR,[],"104.080471,30.658979",中国银行24小时自助银行(成都王府井支行),B001C8OSCD,[],四川省,[],[],2,[],金融保险服务;自动提款机;中国银行ATM,160301
乐唱KTV对面,青羊区,[],[],201,成都市,[],B0FFJX68R0,[],"103.962543,30.670129",中国银行24小时自助银行,B0FFFOD7KI,[],四川省,[],[],2,[],金融保险服务;自动提款机;中国银行ATM,160301
航天北路航天宾馆1层,龙泉驿区,[],[],[],成都市,[],B001C805OO,[],"104.259027,30.556654",中国银行24小时自助银行(航天城支行),[],[],四川省,[],[],2,[],金融保险服务;自动提款机;中国银行ATM,160301
中学路21附近,武侯区,[],[],[],成都市,[],B0FFFZKKNB,[],"104.062644,30.637773",中国银行24小时自助银行(中学路),[],[],四川省,[],[],2,[],金融保险服务;自动提款机;中国银行ATM,160301
柳城大道西段242-246号,温江区,[],[],[],成都市,[],B001C0AHIJ,[],"103.829427,30.691041",中国银行24小时自助银行(柳台大道支行),[],[],四川省,[],[],2,[],金融保险服务;自动提款机;中国银行ATM,160301
麓山大道二段7号,双流区,[],[],[],成都市,[],B0FFFX91OX,[],"104.089578,30.485424",中国银行ATM(麓山大道二段),[],[],四川省,[],[],2,[],金融保险服务;自动提款机;中国银行ATM,160301
人民中路二段31号,青羊区,[],[],3,成都市,[],B001C7VRY5,[],"104.065981,30.669088",中国银行24小时自助银行(四川省分行营业部),B001C0AHJ0,[],四川省,[],[],2,[],金融保险服务;自动提款机;中国银行ATM,160301
复兴街107-109号,金堂县,[],[],[],成都市,[],B001C7VRXY,[],"104.438057,30.853914",中国银行24小时自助银行(东风路分理处),[],[],四川省,[],[],2,[],金融保险服务;自动提款机;中国银行ATM,160301
希望路115号附近,双流区,[],[],[],成都市,[],B001C7TLG2,[],"104.010098,30.578912",中国银行ATM(美好花园北),[],[],四川省,[],[],2,[],金融保险服务;自动提款机;中国银行ATM,160301
西源大道1(四川大学锦城学院),郫都区,[],[],[],成都市,[],B0FFIHMWF9,[],"103.950657,30.725675",中国银行24小时自助银行,[],[],四川省,[],[],2,[],金融保险服务;自动提款机;中国银行ATM,160301
太平街50号,温江区,[],[],[],成都市,[],B001C8MW7S,[],"103.847317,30.700344",中国银行24小时自助银行(太平街),[],[],四川省,[],[],2,[],金融保险服务;自动提款机;中国银行ATM,160301
建材路188附近,龙泉驿区,[],[],[],成都市,[],B0FFFTKQAH,[],"104.279986,30.570342",中国银行24小时自助银行(建材路),[],[],四川省,[],[],2,[],金融保险服务;自动提款机;中国银行ATM,160301
花都大道西段7号,温江区,[],[],[],成都市,[],B0FFHXKB7P,[],"103.872827,30.691781",中国银行24小时自助银行(花都大道西段),[],[],四川省,[],[],2,[],金融保险服务;自动提款机;中国银行ATM,160301
人民南路四段55号,武侯区,[],[],[],成都市,[],B0FFHE4KIY,[],"104.069517,30.609875",中国银行ATM(长寿苑社区59号院落东北),[],[],四川省,[],[],2,[],金融保险服务;自动提款机;中国银行ATM,160301
东大街紫东楼段37-39,锦江区,[],[],[],成都市,[],B0FFFAD48D,[],"104.090932,30.647064",中国银行24小时自助银行(成都东大街支行),[],[],四川省,[],[],2,[],金融保险服务;自动提款机;中国银行ATM,160301
人民南路四段9号附近,武侯区,[],[],[],成都市,[],B0FFF9VJ46,[],"104.071753,30.629702",中国银行24小时自助银行(中科支行),[],[],四川省,[],[],2,[],金融保险服务;自动提款机;中国银行ATM,160301
天乙街309-313号,都江堰市,[],[],[],成都市,[],B001C8QD57,[],"103.619634,30.988850",中国银行24小时自助银行(江安路支行),[],[],四川省,[],[],2,[],金融保险服务;自动提款机;中国银行ATM,160301
华金大道2段406号1栋附1号,青白江区,[],[],[],成都市,[],B0FFFF0PY8,[],"104.257117,30.883268",中国银行24小时自助银行(青江北路),[],[],四川省,[],[],2,[],金融保险服务;自动提款机;中国银行ATM,160301
十里大道一段与康宁街交叉口东100米,金堂县,[],[],[],成都市,[],B001C8R8AU,[],"104.419578,30.858195",中国银行24小时自助银行(康宁街),[],[],四川省,[],[],2,[],金融保险服务;自动提款机;中国银行ATM,160301
同和路1号附3号,金牛区,[],[],[],成都市,[],B001C8O4M5,[],"104.019627,30.688418",中国银行24小时自助银行(成都同和路支行),[],[],四川省,[],[],2,[],金融保险服务;自动提款机;中国银行ATM,160301
凉水井路826号,都江堰市,[],[],[],成都市,[],B001C80K2M,[],"103.629501,30.975561",中国银行24小时自助银行(凉水井路),[],[],四川省,[],[],2,[],金融保险服务;自动提款机;中国银行ATM,160301
晋康北路229-237号,崇州市,[],[],[],成都市,[],B001C8MJI9,[],"103.684527,30.638963",中国银行24小时自助银行(九龙路支行),[],[],四川省,[],[],2,[],金融保险服务;自动提款机;中国银行ATM,160301
发展路38-40号附近,都江堰市,[],[],[],成都市,[],B0FFHGOOMF,[],"103.658029,31.001563",中国银行ATM(发展路),[],[],四川省,[],[],2,[],金融保险服务;自动提款机;中国银行ATM,160301
西河街道开元南路79号滨西绿洲6栋9号,龙泉驿区,[],[],202,成都市,[],B0FFGPGIU1,[],"104.231943,30.644393",中国银行24小时自助银行(成都龙泉驿西河支行),B0FFGB5L34,[],四川省,[],[],2,[],金融保险服务;自动提款机;中国银行ATM,160301
东滨路南段458号附近,简阳市,[],[],[],成都市,[],B0FFHE3NA5,[],"104.540440,30.404618",中国银行24小时自助银行,[],[],四川省,[],[],2,[],金融保险服务;自动提款机;中国银行ATM,160301
银杏路保利公园,新都区,[],[],[],成都市,[],B001C8O90E,[],"104.147620,30.751997",中国银行24小时自助银行(保利百合郡西北),[],[],四川省,[],[],2,[],金融保险服务;自动提款机;中国银行ATM,160301
滨河北街58号,龙泉驿区,[],[],[],成都市,[],B0FFGA56AZ,[],"104.278725,30.559748",中国银行24小时自助银行(滨河北街),[],[],四川省,[],[],2,[],金融保险服务;自动提款机;中国银行ATM,160301
幸福路10成都信息工程大学龙泉驿校区,龙泉驿区,[],[],[],成都市,[],B0FFFGV616,[],"104.302662,30.605076",中国银行ATM(幸福路),[],[],四川省,[],[],2,[],金融保险服务;自动提款机;中国银行ATM,160301
中环路与飞翔路交叉口东100米,新都区,[],[],[],成都市,[],B0FFFGNKP2,[],"104.186838,30.826455",中国银行24小时自助银行(中环路),[],[],四川省,[],[],2,[],金融保险服务;自动提款机;中国银行ATM,160301
清江中路288号,新都区,[],[],[],成都市,[],B0FFGST3YG,[],"104.181241,30.818702",中国银行ATM,[],[],四川省,[],[],2,[],金融保险服务;自动提款机;中国银行ATM,160301
五津镇模范街130号,新津区,[],[],[],成都市,[],B001C7VRY8,[],"103.811641,30.411491",中国银行24小时自助银行(武阳路支行),[],[],四川省,[],[],2,[],金融保险服务;自动提款机;中国银行ATM,160301
川大路二段301-303,双流区,[],[],[],成都市,[],B001C8MQXJ,[],"104.001564,30.552636",中国银行24小时自助银行(双流四川大学支行),[],[],四川省,[],[],2,[],金融保险服务;自动提款机;中国银行ATM,160301
和平路65-73号,龙泉驿区,[],[],[],成都市,[],B001C055FF,[],"104.177132,30.649784",中国银行24小时自助银行(十陵支行),[],[],四川省,[],[],2,[],金融保险服务;自动提款机;中国银行ATM,160301
葛陌路与商学街交叉路口往北约50米(迎春三期),双流区,[],[],[],成都市,[],B0FFJBWEN9,[],"103.933875,30.589057",中国银行24小时自助银行,[],[],四川省,[],[],2,[],金融保险服务;自动提款机;中国银行ATM,160301
泉颐街与鸿雁路交叉口东南50米,双流区,[],[],[],成都市,[],B0FFIKYIZT,[],"103.911893,30.619724",中国银行24小时自助银行,[],[],四川省,[],[],2,[],金融保险服务;自动提款机;中国银行ATM,160301
安象街76号(四川省简阳市简阳简城同济医院东南),简阳市,[],[],[],成都市,[],B0FFFT7KGI,[],"104.543995,30.396410",中国银行24小时自助银行(四川省简阳市简阳简城同济医院东南),[],[],四川省,[],[],2,[],金融保险服务;自动提款机;中国银行ATM,160301
佳灵路3号,武侯区,[],[],3,成都市,[],B001C8O2JO,[],"104.030018,30.634501",中国银行24小时自助银行(成都红牌楼支行),B001C8O71X,[],四川省,[],[],2,[],金融保险服务;自动提款机;中国银行ATM,160301
文翁路139号之附3-5,青羊区,[],[],[],成都市,[],B001C80SD6,[],"104.060200,30.653690",中国银行24小时自助银行(成都文翁路支行),[],[],四川省,[],[],2,[],金融保险服务;自动提款机;中国银行ATM,160301
西安路三段63附近,双流区,[],[],[],成都市,[],B0FFFPXBO4,[],"103.912700,30.576142",中国银行24小时自助(西安路三段),[],[],四川省,[],[],2,[],金融保险服务;自动提款机;中国银行ATM,160301
大东街263-267号,崇州市,[],[],[],成都市,[],B0FFIPE54F,[],"103.679252,30.628726",中国银行24小时自助银行(大东街),[],[],四川省,[],[],2,[],金融保险服务;自动提款机;中国银行ATM,160301
蜀清路236-240,青羊区,[],[],[],成都市,[],B0FFF00BAC,[],"103.985879,30.678372",中国银行24小时自助银行(蜀清路支行),[],[],四川省,[],[],2,[],金融保险服务;自动提款机;中国银行ATM,160301
簇锦北路138号千盛生活广场F1层,武侯区,[],[],201,成都市,[],B001C7YQ2M,[],"103.990971,30.608032",中国银行24小时自助银行(成都簇锦支行),B001C7WN1X,[],四川省,[],[],2,[],金融保险服务;自动提款机;中国银行ATM,160301
成环路与柏华路交叉口西100米,龙泉驿区,[],[],[],成都市,[],B0FFGIIMXF,[],"104.212946,30.513197",中国银行24小时自助银行(成环路),[],[],四川省,[],[],2,[],金融保险服务;自动提款机;中国银行ATM,160301
迎春路四段12号附近,双流区,[],[],[],成都市,[],B0FFGJ2V0E,[],"103.917863,30.579783",中国银行24小时自助银行(迎春路三段),[],[],四川省,[],[],2,[],金融保险服务;自动提款机;中国银行ATM,160301
红佳东路2号,郫都区,[],[],[],成都市,[],B001C8MG2H,[],"103.947415,30.779347",中国银行24小时自助银行(广场路北一段),[],[],四川省,[],[],2,[],金融保险服务;自动提款机;中国银行ATM,160301
升仙湖站A口内,成华区,[],[],[],成都市,[],B0FFFPZ6IU,[],"104.083321,30.704969",中国银行ATM,[],[],四川省,[],[],2,[],金融保险服务;自动提款机;中国银行ATM,160301
大弯西路与步行街交叉口西北50米,青白江区,[],[],[],成都市,[],B0FFFDS768,[],"104.267683,30.877071",中国银行ATM(大弯西路),[],[],四川省,[],[],2,[],金融保险服务;自动提款机;中国银行ATM,160301
海昌南路66号,双流区,[],[],[],成都市,[],B001C95ERK,[],"104.073256,30.490875",中国银行24小时自助银行(海昌路支行),[],[],四川省,[],[],2,[],金融保险服务;自动提款机;中国银行ATM,160301
红光大道9999号(西华大学),金牛区,[],[],[],成都市,[],B001C8R8FQ,[],"103.952044,30.776567",中国银行ATM(西华街道办事处东北),[],[],四川省,[],[],2,[],金融保险服务;自动提款机;中国银行ATM,160301
经一路123号,青羊区,[],[],[],成都市,[],B001C8N3F5,[],"103.964630,30.694262",中国银行24小时自助银行(成都成飞支行),[],[],四川省,[],[],2,[],金融保险服务;自动提款机;中国银行ATM,160301
上南街274号,崇州市,[],[],[],成都市,[],B0FFIP7Q8Z,[],"103.672501,30.623724",中国银行24小时自助银行(学府街分理处),[],[],四川省,[],[],2,[],金融保险服务;自动提款机;中国银行ATM,160301
白河路四段17,双流区,[],[],[],成都市,[],B0FFF00DZN,[],"103.909817,30.567928",中国银行24小时自助银行(白河路支行),[],[],四川省,[],[],2,[],金融保险服务;自动提款机;中国银行ATM,160301
高升桥南街8号附32-35号,武侯区,[],[],3,成都市,[],B001C0AHGI,[],"104.038697,30.637251",中国银行24小时自助银行(罗浮支行),B001C0AHGH,[],四川省,[],[],2,[],金融保险服务;自动提款机;中国银行ATM,160301
华逸路与同金街交叉口北100米,青白江区,[],[],[],成都市,[],B0FFHLSFIQ,[],"104.244126,30.888022",中国银行24小时自助银行,[],[],四川省,[],[],2,[],金融保险服务;自动提款机;中国银行ATM,160301
天久街19-21号,武侯区,[],[],3,成都市,[],B001C8MZOW,[],"104.071814,30.593024",中国银行24小时自助银行(海关大厦支行),B001C8MR1K,[],四川省,[],[],2,[],金融保险服务;自动提款机;中国银行ATM,160301
贝森路54附近,青羊区,[],[],[],成都市,[],B0FFGCX1CQ,[],"104.003133,30.669851",中国银行24小时自助银行(贝森路支行),[],[],四川省,[],[],2,[],金融保险服务;自动提款机;中国银行ATM,160301
紫杉路80号,武侯区,[],[],[],成都市,[],B001C0AHHI,[],"104.048701,30.614294",中国银行24小时自助银行(紫荆西路支行),[],[],四川省,[],[],2,[],金融保险服务;自动提款机;中国银行ATM,160301
怡湖西路120-124号,青白江区,[],[],[],成都市,[],B001C7U2S5,[],"104.254179,30.881550",中国银行24小时自助银行(怡湖西路支行),[],[],四川省,[],[],2,[],金融保险服务;自动提款机;中国银行ATM,160301
锦城大道1024-1030号,武侯区,[],[],[],成都市,[],B0FFGFL169,[],"104.051821,30.575601",中国银行24小时自助银行(锦城大道支行),[],[],四川省,[],[],2,[],金融保险服务;自动提款机;中国银行ATM,160301
高新西区合信路西南二期5号楼一层1-2号,郫都区,[],[],[],成都市,[],B001C8R7G3,[],"103.913870,30.753259",中国银行24小时自助银行(成都电子路支行),[],[],四川省,[],[],2,[],金融保险服务;自动提款机;中国银行ATM,160301
四川农业大学成都校区内,温江区,[],[],[],成都市,[],B0FFFHJ7ID,[],"103.861085,30.706371",中国银行24小时自助银行(温江区气象局东北),[],[],四川省,[],[],2,[],金融保险服务;自动提款机;中国银行ATM,160301
红建路南段7-2号附近,简阳市,[],[],[],成都市,[],B0FFHDRMJ6,[],"104.556462,30.387635",中国银行24小时自助银行,[],[],四川省,[],[],2,[],金融保险服务;自动提款机;中国银行ATM,160301
围城南路西段与建华北一巷交叉口东南50米,大邑县,[],[],[],成都市,[],B0FFJ9TPEA,[],"103.520902,30.582020",中国银行24小时自助银行(西街支行),[],[],四川省,[],[],2,[],金融保险服务;自动提款机;中国银行ATM,160301
新光华街7号附1号,锦江区,[],[],3,成都市,[],B001C8O8O0,[],"104.067193,30.652903",中国银行24小时自助银行(成都人民南路支行),B001C8O7WF,[],四川省,[],[],2,[],金融保险服务;自动提款机;中国银行ATM,160301
永康西路与蜀州中路交叉口东100米,崇州市,[],[],[],成都市,[],B0FFIIU72C,[],"103.669854,30.621884",中国银行24小时自助银行(永康西路),[],[],四川省,[],[],2,[],金融保险服务;自动提款机;中国银行ATM,160301
荆竹南街与荆竹坝路交叉口东50米,成华区,[],[],[],成都市,[],B0FFFFSXFU,[],"104.094202,30.710131",中国银行ATM(中环路双荆路路段),[],[],四川省,[],[],2,[],金融保险服务;自动提款机;中国银行ATM,160301
银河路120号,龙泉驿区,[],[],[],成都市,[],B001C8OO5Q,[],"104.179708,30.567359",中国银行ATM,[],[],四川省,[],[],2,[],金融保险服务;自动提款机;中国银行ATM,160301
群星路92-94号,金牛区,[],[],3,成都市,[],B001C0AHHU,[],"104.051918,30.702058",中国银行24小时自助银行(成都西南交大支行),B001C0AHHT,[],四川省,[],[],2,[],金融保险服务;自动提款机;中国银行ATM,160301
金桂大道100号,双流区,[],[],[],成都市,[],B001C8O0DK,[],"103.942668,30.580003",中国银行24小时自助银行(石佛路二段),[],[],四川省,[],[],2,[],金融保险服务;自动提款机;中国银行ATM,160301
西安路三段63号附近,双流区,[],[],[],成都市,[],B0FFG61IEI,[],"103.912730,30.576064",中国银行24小时自助银行(西安路三段),[],[],四川省,[],[],2,[],金融保险服务;自动提款机;中国银行ATM,160301
东街61号,龙泉驿区,[],[],[],成都市,[],B001C7UWV4,[],"104.274076,30.557510",中国银行ATM(成都龙泉驿东街支行),[],[],四川省,[],[],2,[],金融保险服务;自动提款机;中国银行ATM,160301
丽都路3号附4号,武侯区,[],[],3,成都市,[],B001C91TNC,[],"104.032958,30.624557",中国银行24小时自助银行(丽都支行),B001C0AHGD,[],四川省,[],[],2,[],金融保险服务;自动提款机;中国银行ATM,160301
温泉大道二段166号15栋附127号,温江区,[],[],[],成都市,[],B0FFGMLZT8,[],"103.866956,30.679785",中国银行24小时自助银行(政通东路支行),[],[],四川省,[],[],2,[],金融保险服务;自动提款机;中国银行ATM,160301
驿都西路4111号附近,龙泉驿区,[],[],[],成都市,[],B0FFFLJZ2S,[],"104.212459,30.580630",中国银行ATM(校园金融自助服务中心),[],[],四川省,[],[],2,[],金融保险服务;自动提款机;中国银行ATM,160301
石犀路28-34,新都区,[],[],[],成都市,[],B001C7YJ0N,[],"104.060158,30.760361",中国银行24小时自助银行(新都大丰支行),[],[],四川省,[],[],2,[],金融保险服务;自动提款机;中国银行ATM,160301
宜城大道一段与涧槽南街交叉口东南100米,双流区,[],[],[],成都市,[],B0FFJEWC2V,[],"103.905954,30.556263",中国银行24小时自助银行,[],[],四川省,[],[],2,[],金融保险服务;自动提款机;中国银行ATM,160301
蜀龙大道1980号保利公园皇冠假日酒店1层,新都区,[],[],202,成都市,[],B0FFG9ZOC8,[],"104.144760,30.752220",中国银行ATM(保利公园皇冠假日酒店),B001C80MIP,[],四川省,[],[],2,[],金融保险服务;自动提款机;中国银行ATM,160301
公兴镇黄龙大道二段333号,双流区,[],[],[],成都市,[],B001C8OLCU,[],"103.996237,30.492830",中国银行24小时自助银行(双流公兴支行),[],[],四川省,[],[],2,[],金融保险服务;自动提款机;中国银行ATM,160301
汇泉南路1-17号,锦江区,[],[],[],成都市,[],B0FFFAAW4G,[],"104.103399,30.624959",中国银行24小时自助银行(锦江支行),[],[],四川省,[],[],2,[],金融保险服务;自动提款机;中国银行ATM,160301
围城南路中段105号,大邑县,[],[],[],成都市,[],B001C8NQL0,[],"103.524833,30.583252",中国银行24小时自助银行(东濠沟分理处),[],[],四川省,[],[],2,[],金融保险服务;自动提款机;中国银行ATM,160301
瑞通路140号附5号,新津区,[],[],[],成都市,[],B0FFIU3NK1,[],"103.817769,30.421106",中国银行24小时自助银行,[],[],四川省,[],[],2,[],金融保险服务;自动提款机;中国银行ATM,160301
武阳中路300号附近,新津区,[],[],[],成都市,[],B0FFIOW7FP,[],"103.819376,30.410360",中国银行24小时自助银行(五交化大院西),[],[],四川省,[],[],2,[],金融保险服务;自动提款机;中国银行ATM,160301
西大街7,郫都区,[],[],[],成都市,[],B001C7VRYB,[],"103.886396,30.809238",中国银行24小时自助银行(郫都支行),[],[],四川省,[],[],2,[],金融保险服务;自动提款机;中国银行ATM,160301
沙湾路268号金茂大厦,金牛区,[],[],3,成都市,[],B001C7WR3A,[],"104.050787,30.690055",中国银行24小时自助银行(成都沙湾支行),B001C7WR39,[],四川省,[],[],2,[],金融保险服务;自动提款机;中国银行ATM,160301
唐安西路230-234号,崇州市,[],[],[],成都市,[],B001C8NST2,[],"103.674090,30.632794",中国银行24小时自助银行(崇州支行),[],[],四川省,[],[],2,[],金融保险服务;自动提款机;中国银行ATM,160301
火车南站东路5号附7号,武侯区,[],[],[],成都市,[],B001C7Y97N,[],"104.078638,30.608042",中国银行24小时自助银行(高攀支行),[],[],四川省,[],[],2,[],金融保险服务;自动提款机;中国银行ATM,160301
江汉路108号,青羊区,[],[],3,成都市,[],B001C7WR3D,[],"104.065564,30.673276",中国银行24小时自助银行(成都江汉路支行),B001C060AF,[],四川省,[],[],2,[],金融保险服务;自动提款机;中国银行ATM,160301
航空路7号华尔兹广场113-114号,武侯区,[],[],3,成都市,[],B001C7WR2S,[],"104.071217,30.616150",中国银行24小时自助银行(成都航空路支行),B001C7WR2R,[],四川省,[],[],2,[],金融保险服务;自动提款机;中国银行ATM,160301
云影路1号附22号,武侯区,[],[],3,成都市,[],B001C7WFWB,[],"104.018102,30.647585",中国银行24小时自助银行(成都逸都支行),B0FFF6AWOX,[],四川省,[],[],2,[],金融保险服务;自动提款机;中国银行ATM,160301
龙都南路111号,龙泉驿区,[],[],[],成都市,[],B0FFIMD3PY,[],"104.262283,30.566636",中国银行24小时自助银行,[],[],四川省,[],[],2,[],金融保险服务;自动提款机;中国银行ATM,160301
青羊大道7号附14-23号,青羊区,[],[],[],成都市,[],B001C7YOGJ,[],"104.007840,30.657148",中国银行24小时自助银行(成都开发西区支行),[],[],四川省,[],[],2,[],金融保险服务;自动提款机;中国银行ATM,160301
东溪大道67号,简阳市,[],[],[],成都市,[],B0FFJ21UKU,[],"104.560898,30.392816",中国银行24小时自助银行,[],[],四川省,[],[],2,[],金融保险服务;自动提款机;中国银行ATM,160301
西街42-54号,崇州市,[],[],[],成都市,[],B001C8OLAI,[],"103.671333,30.629242",中国银行24小时自助银行(崇州支行),[],[],四川省,[],[],2,[],金融保险服务;自动提款机;中国银行ATM,160301
宏济新路194-198号,锦江区,[],[],3,成都市,[],B001C7UPNK,[],"104.094522,30.639267",中国银行24小时自助银行(宏济新路支行),B001C7UPNJ,[],四川省,[],[],2,[],金融保险服务;自动提款机;中国银行ATM,160301
小南街77-79号,青羊区,[],[],3,成都市,[],B001C0AHFT,[],"104.054031,30.655383",中国银行24小时自助银行(成都长城园支行),B001C05UM1,[],四川省,[],[],2,[],金融保险服务;自动提款机;中国银行ATM,160301
晋阳路353附近,武侯区,[],[],[],成都市,[],B0FFI6Y768,[],"103.994627,30.648366",中国银行24小时自助银行,[],[],四川省,[],[],2,[],金融保险服务;自动提款机;中国银行ATM,160301
菱安路276号,锦江区,[],[],[],成都市,[],B0FFIZDZA5,[],"104.116768,30.609695",中国银行24小时自助银行(万科支行),[],[],四川省,[],[],2,[],金融保险服务;自动提款机;中国银行ATM,160301
杜鹃路52号1-103,郫都区,[],[],202,成都市,[],B0FFIJXOAP,[],"103.899578,30.798536",中国银行24小时自助银行(汉正广场支行),B0G06KKXRF,[],四川省,[],[],2,[],金融保险服务;自动提款机;中国银行ATM,160301
天府大道20、24,郫都区,[],[],[],成都市,[],B001C8MET1,[],"103.974018,30.757391",中国银行24小时自助银行(万树森林支行),[],[],四川省,[],[],2,[],金融保险服务;自动提款机;中国银行ATM,160301
羊子山西路118-124号,成华区,[],[],[],成都市,[],B0FFFCOU8W,[],"104.095464,30.707958",中国银行24小时自助银行(羊子山支行),[],[],四川省,[],[],2,[],金融保险服务;自动提款机;中国银行ATM,160301
蜀西路52号附近,金牛区,[],[],[],成都市,[],B0FFIP1ENK,[],"103.986348,30.717773",中国银行24小时自助银行(蜀西路支行),[],[],四川省,[],[],2,[],金融保险服务;自动提款机;中国银行ATM,160301
红光镇广场路北一段130号,金牛区,[],[],[],成都市,[],B0FFF5V5Z4,[],"103.951150,30.781447",中国银行24小时自助银行(郫都区红光支行),[],[],四川省,[],[],2,[],金融保险服务;自动提款机;中国银行ATM,160301
黄金路256号-266号,金牛区,[],[],[],成都市,[],B0FFIJXBZN,[],"103.991336,30.708759",中国银行24小时自助银行(成都黄金路支行),[],[],四川省,[],[],2,[],金融保险服务;自动提款机;中国银行ATM,160301
聚萃街399号附8号,武侯区,[],[],[],成都市,[],B001C92GO7,[],"103.998174,30.625992",中国银行24小时自助银行(成都聚萃街支行),[],[],四川省,[],[],2,[],金融保险服务;自动提款机;中国银行ATM,160301
金粮路580号附近,郫都区,[],[],[],成都市,[],B001C8MVLW,[],"103.985482,30.730913",中国银行24小时自助银行(新里派克支行),[],[],四川省,[],[],2,[],金融保险服务;自动提款机;中国银行ATM,160301
琉璃路694号,锦江区,[],[],[],成都市,[],B001C80P2J,[],"104.094200,30.611431",中国银行24小时自助银行(成都翡翠城支行),[],[],四川省,[],[],2,[],金融保险服务;自动提款机;中国银行ATM,160301
抚琴西路115号附8-12号,金牛区,[],[],202,成都市,[],B001C0AHFZ,[],"104.035961,30.678808",中国银行24小时自助银行(成都抚琴支行),B0FFGDWCKT,[],四川省,[],[],2,[],金融保险服务;自动提款机;中国银行ATM,160301
东升镇棠湖东路一段15号,双流区,[],[],[],成都市,[],B001C05PGB,[],"103.922191,30.571684",中国银行24小时自助银行(双流分行),[],[],四川省,[],[],2,[],金融保险服务;自动提款机;中国银行ATM,160301
科华北路58号附1号,武侯区,[],[],202,成都市,[],B001C8O66F,[],"104.076409,30.624840",中国银行24小时自助银行(成都棕南支行),B001C7TDQL,[],四川省,[],[],2,[],金融保险服务;自动提款机;中国银行ATM,160301
江月街49号,简阳市,[],[],[],成都市,[],B0FFI9PJ1S,[],"104.545496,30.398548",中国银行24小时自助银行,[],[],四川省,[],[],2,[],金融保险服务;自动提款机;中国银行ATM,160301
府青路一段3号附20号,成华区,[],[],[],成都市,[],B0FFFAC9OJ,[],"104.092769,30.673247",中国银行24小时自助银行(一号桥支行),[],[],四川省,[],[],2,[],金融保险服务;自动提款机;中国银行ATM,160301
玉带街2-8号,邛崃市,[],[],[],成都市,[],B001C7ZZX5,[],"103.458202,30.404419",中国银行24小时自助银行(玉带街支行),[],[],四川省,[],[],2,[],金融保险服务;自动提款机;中国银行ATM,160301
清江东路9号,青羊区,[],[],3,成都市,[],B001C7WR3T,[],"104.037511,30.667210",中国银行24小时自助银行(罗家碾支行),B001C7WR3S,[],四川省,[],[],2,[],金融保险服务;自动提款机;中国银行ATM,160301
三洞桥路20号附8号,金牛区,[],[],3,成都市,[],B001C7WR33,[],"104.051573,30.675721",中国银行24小时自助银行(金牛支行),B001C7WR32,[],四川省,[],[],2,[],金融保险服务;自动提款机;中国银行ATM,160301
科华街2号附5号,武侯区,[],[],3,成都市,[],B001C7WGN8,[],"104.079661,30.623962",中国银行24小时自助银行(科华街支行),B001C7WGN7,[],四川省,[],[],2,[],金融保险服务;自动提款机;中国银行ATM,160301
望平街167号,成华区,[],[],3,成都市,[],B001C7WFHV,[],"104.091379,30.656964",中国银行24小时自助银行(望平街支行),B001C7WFHW,[],四川省,[],[],2,[],金融保险服务;自动提款机;中国银行ATM,160301
西体北路2号附15号,金牛区,[],[],[],成都市,[],B001C7WDB6,[],"104.061532,30.681617",中国银行24小时自助银行(西体北路分理处),[],[],四川省,[],[],2,[],金融保险服务;自动提款机;中国银行ATM,160301
内蒙古大道与桃园大道交叉口南100米,大邑县,[],[],[],成都市,[],B0FFHGNLPN,[],"103.516198,30.569481",中国银行24小时自助银行(金融城支行),[],[],四川省,[],[],2,[],金融保险服务;自动提款机;中国银行ATM,160301
华金大道二段543号,青白江区,[],[],[],成都市,[],B0FFG7H3MQ,[],"104.250576,30.884321",中国银行24小时自助银行(华金大道二段),[],[],四川省,[],[],2,[],金融保险服务;自动提款机;中国银行ATM,160301
机场东路成都双流国际机场T2航站楼1层,双流区,[],[],[],成都市,[],B0FFGLNM9P,[],"103.955502,30.569819",中国银行ATM,[],[],四川省,[],[],2,[],金融保险服务;自动提款机;中国银行ATM,160301
红星路二段120号亚新大厦1层,锦江区,[],[],202,成都市,[],B0FFGQGXYA,[],"104.084421,30.662103",中国银行24小时自助银行(成都红星路支行),B001C7TDR3,[],四川省,[],[],2,[],金融保险服务;自动提款机;中国银行ATM,160301
