address,adname,biz_ext,biz_type,childtype,cityname,distance,id,importance,location,name,parent,photos,pname,poiweight,shopid,shopinfo,tel,type,typecode
大面街道东洪路257号,龙泉驿区,[],[],[],成都市,[],B001C7UUI5,[],"104.150532,30.614992",交通银行(龙泉驿桃花源支行),[],[],四川省,[],[],2,028-84636318;028-84630393,金融保险服务;银行;交通银行,160108
高升桥北街10附46号,武侯区,[],[],[],成都市,[],B001C7WAFM,[],"104.037566,30.637059",交通银行(成都广福支行),[],[],四川省,[],[],2,028-85075203;028-85075103,金融保险服务;银行;交通银行,160108
创业路16号火炬大厦1层,武侯区,[],[],202,成都市,[],B001C7WLBA,[],"104.042835,30.620527",交通银行(创业路支行),B001C8ZE4K,[],四川省,[],[],2,028-85181826;028-85180904,金融保险服务;银行;交通银行,160108
建设路151-155号,都江堰市,[],[],[],成都市,[],B001C80IV9,[],"103.624307,30.998317",交通银行(成都都江堰支行),[],[],四川省,[],[],2,028-87132085;028-87132860,金融保险服务;银行;交通银行,160108
马超东路289号,新都区,[],[],[],成都市,[],B0FFFGUNI0,[],"104.180155,30.808907",交通银行(成都新都支行),[],[],四川省,[],[],2,95559,金融保险服务;银行;交通银行,160108
清泉北街267号,温江区,[],[],[],成都市,[],B0FFIV3AO3,[],"103.879648,30.681789",交通银行(成都温江光华大道支行),[],[],四川省,[],[],2,028-82723822,金融保险服务;银行;交通银行,160108
小天东街5号附13-19号,武侯区,[],[],[],成都市,[],B001C7WLB1,[],"104.058562,30.635157",交通银行(成都华西支行),[],[],四川省,[],[],2,[],金融保险服务;银行;交通银行,160108
一环路北一段99号环球广场,金牛区,[],[],202,成都市,[],B001C8VMPH,[],"104.048381,30.683243",交通银行(成都城西支行),B001C8N32Z,[],四川省,[],[],2,028-87664932;028-87661767,金融保险服务;银行;交通银行,160108
大丰街办花都大道696号17幢1-01号,新都区,[],[],[],成都市,[],B001C8R8F9,[],"104.063072,30.761692",交通银行(成都新都大丰支行),[],[],四川省,[],[],2,028-83027646;028-83964766,金融保险服务;银行;交通银行,160108
柳城大道东段221号,温江区,[],[],[],成都市,[],B001C7XQOB,[],"103.837164,30.693908",交通银行(温江支行),[],[],四川省,[],[],2,028-82763350,金融保险服务;银行;交通银行,160108
正东中街81号,双流区,[],[],202,成都市,[],B001C8OCMR,[],"104.060579,30.502394",交通银行(成都南阳支行),B0FFKKRTFX,[],四川省,[],[],2,028-62151208;028-62151209,金融保险服务;银行;交通银行,160108
跳伞塔街道一环路南二段17号成都A世界电脑商城1F层,武侯区,[],[],202,成都市,[],B0FFK7HJ2R,[],"104.067087,30.634119",交通银行(成都人民南路支行),B001C7XBAT,[],四川省,[],[],2,028-85214366;028-85236739,金融保险服务;银行;交通银行,160108
湖畔路北段333号,双流区,[],[],[],成都市,[],B0FFJMCFM1,[],"104.079726,30.403562",交通银行(天府新区支行),[],[],四川省,[],[],2,028-61317540;028-61318141,金融保险服务;银行;交通银行,160108
和平路166-168号,龙泉驿区,[],[],[],成都市,[],B001C7SE7O,[],"104.177623,30.652619",交通银行(成都十陵支行),[],[],四川省,[],[],2,028-84600864,金融保险服务;银行;交通银行,160108
淳化街86号-90,双流区,[],[],[],成都市,[],B001C0856M,[],"103.923332,30.572037",交通银行(双流支行),[],[],四川省,[],[],2,028-85822391;028-85815466,金融保险服务;银行;交通银行,160108
一环路东一段159号电子信息产业大厦,成华区,[],[],3,成都市,[],B001C8OQPT,[],"104.098270,30.673374",交通银行(成都电子科技大学支行),B001C7WDJM,[],四川省,[],[],2,028-83218497;028-83201771,金融保险服务;银行;交通银行,160108
中和新下街242号锦华市场,双流区,[],[],[],成都市,[],B0FFFE8VYJ,[],"104.087701,30.549251",交通银行(成都中和支行),[],[],四川省,[],[],2,028-64469911,金融保险服务;银行;交通银行,160108
交大路219号附4-6号,金牛区,[],[],[],成都市,[],B001C022D7,[],"104.040292,30.707629",交通银行(交大路支行),[],[],四川省,[],[],2,028-87629638;028-87624856,金融保险服务;银行;交通银行,160108
新希望路4号附4号,武侯区,[],[],[],成都市,[],B001C7UR2S,[],"104.072235,30.614630",交通银行(新希望路支行),[],[],四川省,[],[],2,028-85355859;028-85355533,金融保险服务;银行;交通银行,160108
天府大道天韵路186号高新国际广场E座1层,武侯区,[],[],[],成都市,[],B001C80IUA,[],"104.065590,30.591639",交通银行(高新南区支行),[],[],四川省,[],[],2,028-85316887,金融保险服务;银行;银行,160100
驿都东路1030号,龙泉驿区,[],[],[],成都市,[],B001C7SE7N,[],"104.263779,30.560241",交通银行(龙泉驿支行),[],[],四川省,[],[],2,028-84862304;028-84852018,金融保险服务;银行;交通银行,160108
建设路56号附5号,成华区,[],[],[],成都市,[],B001C022CB,[],"104.099130,30.667985",交通银行(成都城东支行),[],[],四川省,[],[],2,028-84320210;028-84317406,金融保险服务;银行;交通银行,160108
正西街47-49号,双流区,[],[],202,成都市,[],B0FFF6RP3E,[],"104.053473,30.505825",交通银行(成都华阳支行),B001C7XLAU,[],四川省,[],[],2,028-85642767;028-85638852,金融保险服务;银行;交通银行,160108
科华街5号附9号,武侯区,[],[],[],成都市,[],B001C7WLB6,[],"104.078114,30.623492",交通银行(成都磨子桥支行),[],[],四川省,[],[],2,028-85406216;028-85461297,金融保险服务;银行;交通银行,160108
一环路东三段60号附2-3号,成华区,[],[],[],成都市,[],B001C05T2R,[],"104.098490,30.654357",交通银行(成都成华支行),[],[],四川省,[],[],2,028-84330016;028-84364069,金融保险服务;银行;交通银行,160108
建设路三段建业北路237号,成华区,[],[],[],成都市,[],B001C8OQT9,[],"104.110978,30.675586",交通银行(成都厂北路支行),[],[],四川省,[],[],2,028-84386139;028-84317406,金融保险服务;银行;交通银行,160108
肖家村二巷108号,金牛区,[],[],[],成都市,[],B001C8RHI2,[],"104.076457,30.687791",交通银行(成都金牛支行),[],[],四川省,[],[],2,028-83340543;028-83379950,金融保险服务;银行;交通银行,160108
解放路二段6号凤凰大厦F1,金牛区,[],[],[],成都市,[],B0FFKBM7WO,[],"104.079877,30.678031",交通银行(成都花圃路支行),[],[],四川省,[],[],2,028-83230583;028-83232804,金融保险服务;银行;交通银行,160108
机场东二路与机场南四路交叉口北150米,双流区,[],[],[],成都市,[],B001C8MQKB,[],"103.965892,30.568047",交通银行(双流机场支行),[],[],四川省,[],[],2,028-85208065;028-85208066,金融保险服务;银行;交通银行,160108
天府新区华阳大道一段333号银泰商务中心1层,双流区,[],[],202,成都市,[],B001C8MOEZ,[],"104.049509,30.512463",交通银行(成都双华支行),B001C8TY2R,[],四川省,[],[],2,028-85646343,金融保险服务;银行;交通银行,160108
北泉路229-233号,龙泉驿区,[],[],[],成都市,[],B001C8NNVP,[],"104.252753,30.567139",交通银行(龙泉驿龙鑫支行),[],[],四川省,[],[],2,028-84860161,金融保险服务;银行;交通银行,160108
东升镇棠湖北路82-92号,双流区,[],[],[],成都市,[],B001C094G8,[],"103.921182,30.574054",交通银行(双流西门支行),[],[],四川省,[],[],2,028-85824285;028-85815700,金融保险服务;银行;交通银行,160108
红牌楼佳灵路4号,武侯区,[],[],[],成都市,[],B001C8O29L,[],"104.028567,30.634515",交通银行(成都武侯支行),[],[],四川省,[],[],2,028-85074330;028-85075239,金融保险服务;银行;交通银行,160108
清江东路39号附18-19号,青羊区,[],[],[],成都市,[],B001C7V8EQ,[],"104.030138,30.668581",交通银行(草堂支行),[],[],四川省,[],[],2,028-87330937;028-87332510,金融保险服务;银行;交通银行,160108
锦城大道533号,武侯区,[],[],[],成都市,[],B0FFF00EHM,[],"104.062100,30.575171",交通银行(高新区支行),[],[],四川省,[],[],2,028-85185568;028-85185919,金融保险服务;银行;交通银行,160108
郫筒镇科化二路178-188号,郫都区,[],[],[],成都市,[],B001C8ZVV6,[],"103.897850,30.794912",交通银行(郫都区支行),[],[],四川省,[],[],2,028-87901210,金融保险服务;银行;交通银行,160108
泰山南街西区地标126-130号,郫都区,[],[],[],成都市,[],B001C094F8,[],"103.959601,30.758748",交通银行(成都西区支行),[],[],四川省,[],[],2,028-87958187,金融保险服务;银行;交通银行,160108
蜀汉路216号附1-3号,金牛区,[],[],3,成都市,[],B001C8NVA1,[],"104.023869,30.685994",交通银行24小时自助银行(成都蜀汉支行),B001C80QU9,[],四川省,[],[],2,[],金融保险服务;自动提款机;交通银行ATM,160305
武侯大道铁佛段1号优博国际1层,武侯区,[],[],202,成都市,[],B001C8O8SU,[],"103.984711,30.622453",交通银行(成都新城支行),B0FFHLKCCY,[],四川省,[],[],2,028-85374620;028-85366939,金融保险服务;银行;交通银行,160108
天泰路111号特拉克斯国际广场北楼1层,武侯区,[],[],[],成都市,[],B001C8O8H5,[],"104.070614,30.592660",交通银行(成都科技支行),[],[],四川省,[],[],2,028-61551329;028-85052179,金融保险服务;银行;交通银行,160108
金阳路69-75号,青羊区,[],[],[],成都市,[],B001C7V8EX,[],"104.008049,30.677874",交通银行(成都金沙支行),[],[],四川省,[],[],2,028-87342016;028-87342015,金融保险服务;银行;交通银行,160108
凤凰西六路28号,青白江区,[],[],[],成都市,[],B0FFGPUT5H,[],"104.262497,30.891513",交通银行(成都青白江支行),[],[],四川省,[],[],2,028-83665775;028-83665780,金融保险服务;银行;交通银行,160108
云华路333号,武侯区,[],[],[],成都市,[],B001C8R92H,[],"104.060571,30.549039",交通银行24小时自助银行(无国界西),[],[],四川省,[],[],2,[],金融保险服务;自动提款机;交通银行ATM,160305
东大街芷泉段210号,锦江区,[],[],[],成都市,[],B001C8VJZJ,[],"104.088414,30.647299",交通银行(成都锦江支行),[],[],四川省,[],[],2,028-86785703;028-86785351,金融保险服务;银行;交通银行,160108
瑞联路59号附12号,青羊区,[],[],[],成都市,[],B001C7WB9M,[],"104.000598,30.665292",交通银行24小时自助银行(东坡支行),[],[],四川省,[],[],2,[],金融保险服务;自动提款机;交通银行ATM,160305
天府大道南段2039号,双流区,[],[],[],成都市,[],B0FFLEXVYD,[],"104.071979,30.492215",交通银行(成都自贸试验区支行),[],[],四川省,[],[],2,028-61035910;028-61035957,金融保险服务;银行;交通银行,160108
棠湖西路一段191号,双流区,[],[],[],成都市,[],B0FFFKPXCT,[],"103.916603,30.573138",交通银行(仁和分理处),[],[],四川省,[],[],2,[],金融保险服务;银行;交通银行,160108
北纱帽街101号附1,锦江区,[],[],[],成都市,[],B001C06DD1,[],"104.083199,30.655451",交通银行(成都红星路支行),[],[],四川省,[],[],2,028-86652124;028-86710192,金融保险服务;银行;交通银行,160108
外南街56-62号,新都区,[],[],[],成都市,[],B001C7V8F5,[],"104.162424,30.820236",交通银行(成都新都下南街支行),[],[],四川省,[],[],2,028-83961823;028-83961776,金融保险服务;银行;交通银行,160108
锦城大道539号盈创动力科技金融服务平台a座1层,武侯区,[],[],202,成都市,[],B0FFF00EHN,[],"104.062201,30.575102",交通银行24小时自助银行(成都高新区支行),B0FFF05LSW,[],四川省,[],[],2,[],金融保险服务;自动提款机;交通银行ATM,160305
天府大道南段2039号,双流区,[],[],302,成都市,[],B0FFH8VX9F,[],"104.071970,30.492291",交通银行24小时自助银行(成都自贸试验区支行),B001C805MI,[],四川省,[],[],2,[],金融保险服务;自动提款机;交通银行ATM,160305
二环路南三段3号附25号,武侯区,[],[],[],成都市,[],B001C078UU,[],"104.062641,30.620383",交通银行(成都南二环支行),[],[],四川省,[],[],2,028-85544464;028-85540727,金融保险服务;银行;交通银行,160108
科华街5号附9号,武侯区,[],[],3,成都市,[],B001C7WLB7,[],"104.077902,30.623493",交通银行24小时自助银行(磨子桥支行),B001C7WLB6,[],四川省,[],[],2,[],金融保险服务;自动提款机;交通银行ATM,160305
马超东路289号,新都区,[],[],[],成都市,[],B0FFGPGSZX,[],"104.180167,30.808904",交通银行24小时自助银行(新都支行),[],[],四川省,[],[],2,[],金融保险服务;自动提款机;交通银行ATM,160305
上阳街与太阳岛路交叉口东50米,都江堰市,[],[],[],成都市,[],B0HG1CTN9R,[],"103.673906,31.026524",交通银行ATM(太阳岛路),[],[],四川省,[],[],2,[],金融保险服务;自动提款机;交通银行ATM,160305
正兴街34号,青白江区,[],[],[],成都市,[],B0GUZXJU6S,[],"104.194837,30.866640",交通银行ATM,[],[],四川省,[],[],2,[],金融保险服务;自动提款机;交通银行ATM,160305
中山北路与学府路一段交叉路口东南侧(佳美新居),都江堰市,[],[],[],成都市,[],B0G3XUE94E,[],"103.641781,30.997020",交通银行24小时自助银行,[],[],四川省,[],[],2,[],金融保险服务;自动提款机;交通银行ATM,160305
岷江路112号附4号,都江堰市,[],[],[],成都市,[],B0FFKNFY6S,[],"103.645223,30.983123",交通银行24小时自助银行(中山北路支行),[],[],四川省,[],[],2,[],金融保险服务;自动提款机;交通银行ATM,160305
海峡科技园520广场孵化中心大楼第1层,温江区,[],[],[],成都市,[],B001C8MXJH,[],"103.799037,30.675232",交通银行24小时自助银行(温江支行),[],[],四川省,[],[],2,[],金融保险服务;自动提款机;交通银行ATM,160305
上升街96号交银大厦,青羊区,[],[],3,成都市,[],B001C929M3,[],"104.066087,30.666897",交通银行(四川省分行),B001C04E49,[],四川省,[],[],2,028-86525118;028-86525666,金融保险服务;银行;交通银行,160108
天彭镇牡丹西路49号,彭州市,[],[],[],成都市,[],B0FFFFMC55,[],"103.956217,30.989523",交通银行(彭州支行),[],[],四川省,[],[],2,028-83890769;028-83890719,金融保险服务;银行;交通银行,160108
白河路二段2号之附1-附2,双流区,[],[],[],成都市,[],B001C094FY,[],"103.918148,30.565082",交通银行(双流棠湖支行),[],[],四川省,[],[],2,028-62580203,金融保险服务;银行;交通银行,160108
江汉路168号附1号,青羊区,[],[],[],成都市,[],B001C7WDFO,[],"104.064696,30.673921",交通银行(成都江汉路支行),[],[],四川省,[],[],2,028-86245588;028-87011151,金融保险服务;银行;交通银行,160108
岷江路110附近,都江堰市,[],[],[],成都市,[],B0GU71N6HA,[],"103.645226,30.983136",交通银行,[],[],四川省,[],[],2,[],金融保险服务;银行;交通银行,160108
广场路与东明街交叉路口往西北约50米(双流中学),双流区,[],[],[],成都市,[],B0GKJHYC9W,[],"103.928259,30.574948",交通银行,[],[],四川省,[],[],2,[],金融保险服务;银行;交通银行,160108
蓉北商贸大道一段48号附116号,金牛区,[],[],[],成都市,[],B0G21Y7EL8,[],"104.065139,30.707358",交通银行(成都五块石支行),[],[],四川省,[],[],2,[],金融保险服务;银行;交通银行,160108
太平街419号附近,都江堰市,[],[],[],成都市,[],B0FFMF0XZF,[],"103.628929,30.986893",交通银行,[],[],四川省,[],[],2,[],金融保险服务;银行;交通银行,160108
南大街与繁江南路交叉路口往东北约100米,彭州市,[],[],[],成都市,[],B0FFMB5T77,[],"103.941658,30.974646",交通银行,[],[],四川省,[],[],2,[],金融保险服务;银行;交通银行,160108
建设路268号附近,都江堰市,[],[],[],成都市,[],B0FFKX5QNR,[],"103.622544,31.001357",交通银行,[],[],四川省,[],[],2,[],金融保险服务;银行;交通银行,160108
驿都东路1022号交通银行,龙泉驿区,[],[],[],成都市,[],B0FFKUHBYJ,[],"104.264144,30.560176",交通银行龙泉驿支行个贷中心,[],[],四川省,[],[],2,[],金融保险服务;银行;银行,160100
都江堰大道209号附近,都江堰市,[],[],[],成都市,[],B0FFIPKCW4,[],"103.635069,30.990981",交通银行(都江堰大道),[],[],四川省,[],[],2,[],金融保险服务;银行;交通银行,160108
蜀汉路216号附1-3号,金牛区,[],[],[],成都市,[],B001C80QU9,[],"104.023994,30.685937",交通银行(成都蜀汉路支行),[],[],四川省,[],[],2,028-87527987;028-87548010,金融保险服务;银行;交通银行,160108
永盛镇兴达路822号,温江区,[],[],[],成都市,[],B0FFMGZ7HT,[],"103.773094,30.669346",交通银行24小时自助银行(兴达路),[],[],四川省,[],[],2,[],金融保险服务;自动提款机;交通银行ATM,160305
阳光路338西北100米,郫都区,[],[],[],成都市,[],B0FFH475L0,[],"104.027016,30.746336",交通银行24小时自助银行,[],[],四川省,[],[],2,[],金融保险服务;自动提款机;交通银行ATM,160305
石家碾东路与菁华路交叉口东南50米,青白江区,[],[],[],成都市,[],B001C8O2D6,[],"104.269540,30.885765",交通银行24小时自助银行,[],[],四川省,[],[],2,[],金融保险服务;自动提款机;交通银行ATM,160305
永安路6号,龙泉驿区,[],[],3,成都市,[],B001C094FR,[],"104.263650,30.560448",交通银行24小时自助银行(龙泉驿支行),B001C7SE7N,[],四川省,[],[],2,[],金融保险服务;自动提款机;交通银行ATM,160305
长安路278-290号,温江区,[],[],[],成都市,[],B001C8MW80,[],"103.856282,30.698100",交通银行(成都温江柳城支行),[],[],四川省,[],[],2,028-82726711,金融保险服务;银行;交通银行,160108
建设路224号(乔富大厦东),都江堰市,[],[],[],成都市,[],B0FFHF5CS0,[],"103.622747,31.001241",交通银行24小时自助银行(外北街20号小区南),[],[],四川省,[],[],2,[],金融保险服务;自动提款机;交通银行ATM,160305
[],青羊区,[],[],[],成都市,[],B0G306FDCM,[],"104.065918,30.666732",交通银行,[],[],四川省,[],[],2,[],金融保险服务;银行;交通银行,160108
吴家坝北街44号附近,双流区,[],[],[],成都市,[],B0FFIN8W2P,[],"103.919368,30.579638",交通银行,[],[],四川省,[],[],2,[],金融保险服务;银行;交通银行,160108
兴乐北路13号,新都区,[],[],[],成都市,[],B001C8R6LM,[],"104.191269,30.807433",交通银行24小时自助银行(兴乐北路),[],[],四川省,[],[],2,[],金融保险服务;自动提款机;交通银行ATM,160305
奎光路295号,都江堰市,[],[],[],成都市,[],B001C022D9,[],"103.618814,30.983043",交通银行(成都都江堰景区支行),[],[],四川省,[],[],2,028-87281740;028-61720281,金融保险服务;银行;交通银行,160108
南大街414附近,彭州市,[],[],[],成都市,[],B0FFF9Z60C,[],"103.941622,30.974608",交通银行ATM(南大街),[],[],四川省,[],[],2,[],金融保险服务;自动提款机;交通银行ATM,160305
同金街76号1层,青白江区,[],[],[],成都市,[],B0FFGM0BHY,[],"104.244155,30.888275",交通银行(青白江同金支行),[],[],四川省,[],[],2,028-61762983,金融保险服务;银行;交通银行,160108
西玉龙街211号附2号,青羊区,[],[],3,成都市,[],B001C7Y9YI,[],"104.065842,30.666727",交通银行24小时自助银行(四川省分行),B001C929M3,[],四川省,[],[],2,[],金融保险服务;自动提款机;交通银行ATM,160305
白八路附近,都江堰市,[],[],[],成都市,[],B0FFFDZCHA,[],"103.632971,31.093643",交通银行ATM(白八路),[],[],四川省,[],[],2,[],金融保险服务;自动提款机;交通银行ATM,160305
燕塘路500号附近,新都区,[],[],[],成都市,[],B0FFKXCMQX,[],"104.117621,30.795336",交通银行24小时自助银行,[],[],四川省,[],[],2,[],金融保险服务;自动提款机;交通银行ATM,160305
北大街与城隍东巷交叉口北50米,金牛区,[],[],[],成都市,[],B0FFKWCHWP,[],"104.079870,30.678020",交通银行24小时自助银行(花圃路支行),[],[],四川省,[],[],2,[],金融保险服务;自动提款机;交通银行ATM,160305
二江路一段194附近,双流区,[],[],[],成都市,[],B001C8ONG9,[],"104.062855,30.497023",交通银行24小时自助银行,[],[],四川省,[],[],2,[],金融保险服务;自动提款机;交通银行ATM,160305
华阳秦皇苑小区门卫,双流区,[],[],[],成都市,[],B001C80GDK,[],"104.050364,30.430570",交通银行ATM(一横街),[],[],四川省,[],[],2,[],金融保险服务;自动提款机;交通银行ATM,160305
长安路278-290号,温江区,[],[],3,成都市,[],B001C8MW7Z,[],"103.856272,30.698133",交通银行24小时自助银行(成都温江柳城支行),B001C8MW80,[],四川省,[],[],2,[],金融保险服务;自动提款机;交通银行ATM,160305
大丰街道互惠大道169号,新都区,[],[],[],成都市,[],B0FFFFW1JY,[],"104.057970,30.773668",交通银行ATM(互惠大道),[],[],四川省,[],[],2,[],金融保险服务;自动提款机;交通银行ATM,160305
和平路166-168号,龙泉驿区,[],[],3,成都市,[],B001C8MR6Z,[],"104.177646,30.652618",交通银行24小时自助银行(十陵支行),B001C7SE7O,[],四川省,[],[],2,[],金融保险服务;自动提款机;交通银行ATM,160305
清泉北街265号附近,温江区,[],[],[],成都市,[],B0FFIT55GR,[],"103.879666,30.681817",交通银行24小时自助银行(成都温江光华大道支行),[],[],四川省,[],[],2,[],金融保险服务;自动提款机;交通银行ATM,160305
青城国际酒店,都江堰市,[],[],[],成都市,[],B0FFFFW24V,[],"103.599683,30.894350",交通银行ATM(青城豪生国际酒店),[],[],四川省,[],[],2,[],金融保险服务;自动提款机;交通银行ATM,160305
天骄路368号高新区惠民购物中心,郫都区,[],[],202,成都市,[],B001C8R8DQ,[],"103.917969,30.752053",交通银行24小时自助银行(合信路),B001C8O16V,[],四川省,[],[],2,[],金融保险服务;自动提款机;交通银行ATM,160305
新乐路195(兴元丽都1栋1-7号),武侯区,[],[],202,成都市,[],B001C7Y8SA,[],"104.039466,30.606167",交通银行24小时自助银行(新乐路),B0FFFSHUFY,[],四川省,[],[],2,[],金融保险服务;自动提款机;交通银行ATM,160305
安仁镇升平街102号大邑交银,大邑县,[],[],302,成都市,[],B0FFGAKBCI,[],"103.625157,30.509850",交通银行24小时自助银行(民安街),B0FFF09PVK,[],四川省,[],[],2,[],金融保险服务;自动提款机;交通银行ATM,160305
顺和街2号,武侯区,[],[],[],成都市,[],B0FFG0WUYY,[],"103.999682,30.631969",交通银行24小时自助银行,[],[],四川省,[],[],2,[],金融保险服务;自动提款机;交通银行ATM,160305
东升街道成都双流国际机场综合保障区,双流区,[],[],3,成都市,[],B001C8MQKC,[],"103.965887,30.568145",交通银行24小时自助银行(成都双流机场支行),B001C8MQKB,[],四川省,[],[],2,[],金融保险服务;自动提款机;交通银行ATM,160305
新军路283号(近中国燃气涡轮研究院新都职工医院),新都区,[],[],[],成都市,[],B0FFG354P8,[],"104.157407,30.835100",交通银行24小时自助银行,[],[],四川省,[],[],2,[],金融保险服务;自动提款机;交通银行ATM,160305
小天东街5号附13-19号,武侯区,[],[],3,成都市,[],B001C7WLB2,[],"104.058569,30.635196",交通银行24小时自助银行(华西支行),B001C7WLB1,[],四川省,[],[],2,[],金融保险服务;自动提款机;交通银行ATM,160305
北泉路229号,龙泉驿区,[],[],3,成都市,[],B001C8NOPE,[],"104.252774,30.567075",交通银行24小时自助银行(龙鑫支行),B001C8NNVP,[],四川省,[],[],2,[],金融保险服务;自动提款机;交通银行ATM,160305
东大街城守东大街段6号附1号,锦江区,[],[],202,成都市,[],B001C7SE74,[],"104.076103,30.653256",交通银行(成都东大街支行),B001C05065,[],四川省,[],[],2,028-86711883;028-86711884,金融保险服务;银行;交通银行,160108
三槐树路3号附30-32号,锦江区,[],[],[],成都市,[],B001C033D5,[],"104.089965,30.662644",交通银行(成都新华支行),[],[],四川省,[],[],2,028-86920612,金融保险服务;银行;交通银行,160108
都江堰大道96号,都江堰市,[],[],[],成都市,[],B001C022D1,[],"103.631517,30.991082",交通银行(都江堰大道支行),[],[],四川省,[],[],2,028-87282176;028-61922829,金融保险服务;银行;交通银行,160108
武侯大道铁佛段1号附2号,武侯区,[],[],3,成都市,[],B001C8O8FL,[],"103.984633,30.622414",交通银行24小时自助银行(成都新城支行),B001C8O8SU,[],四川省,[],[],2,[],金融保险服务;自动提款机;交通银行ATM,160305
广场路35号,双流区,[],[],[],成都市,[],B001C80QTK,[],"103.927042,30.576149",交通银行ATM(广场路),[],[],四川省,[],[],2,[],金融保险服务;自动提款机;交通银行ATM,160305
华阳大道三段206号(近地税局中和地税所),双流区,[],[],[],成都市,[],B001C8OAYT,[],"104.062216,30.506186",交通银行ATM,[],[],四川省,[],[],2,[],金融保险服务;自动提款机;交通银行ATM,160305
石油大学校园区内学生宿舍10幢102室,新都区,[],[],[],成都市,[],B0FFFEJLA7,[],"104.186257,30.825165",交通银行ATM(博学路),[],[],四川省,[],[],2,[],金融保险服务;自动提款机;交通银行ATM,160305
天乡路二段871号,温江区,[],[],[],成都市,[],B0FFFGYEBK,[],"103.820597,30.714719",交通银行24小时自助银行(生态大道踏水段),[],[],四川省,[],[],2,[],金融保险服务;自动提款机;交通银行ATM,160305
康安路与广履路交叉路口西南侧,双流区,[],[],[],成都市,[],B0HAHBG5C6,[],"103.946399,30.593201",交通银行(ATM),[],[],四川省,[],[],2,[],金融保险服务;自动提款机;交通银行ATM,160305
外南街56-62号,新都区,[],[],3,成都市,[],B001C8NR0P,[],"104.162427,30.820188",交通银行24小时自助银行(下南街支行),B001C7V8F5,[],四川省,[],[],2,[],金融保险服务;自动提款机;交通银行ATM,160305
农平路与来龙村交叉口东北100米,龙泉驿区,[],[],[],成都市,[],B001C8R7BO,[],"104.168784,30.662077",交通银行ATM(农平路),[],[],四川省,[],[],2,[],金融保险服务;自动提款机;交通银行ATM,160305
华新中街263号,双流区,[],[],[],成都市,[],B001C094FN,[],"104.053611,30.511222",交通银行24小时自助银行(华兴街分理处),[],[],四川省,[],[],2,[],金融保险服务;自动提款机;交通银行ATM,160305
新园大道54-56,武侯区,[],[],[],成都市,[],B001C8MR3Q,[],"104.035283,30.584232",交通银行ATM(惠风和苑西南),[],[],四川省,[],[],2,[],金融保险服务;自动提款机;交通银行ATM,160305
团结中路与团结北路交叉口东北50米,青白江区,[],[],[],成都市,[],B0FFJ8JNZI,[],"104.245500,30.875826",交通银行24小时自助银行(团结中路),[],[],四川省,[],[],2,[],金融保险服务;自动提款机;交通银行ATM,160305
长安路186号,温江区,[],[],[],成都市,[],B001C7U587,[],"103.853221,30.698992",交通银行24小时自助银行(长安路分理处),[],[],四川省,[],[],2,[],金融保险服务;自动提款机;交通银行ATM,160305
星辉中路16号,金牛区,[],[],[],成都市,[],B001C7WBM5,[],"104.082087,30.674793",交通银行ATM(星辉中路),[],[],四川省,[],[],2,[],金融保险服务;自动提款机;交通银行ATM,160305
东升镇广巍路2号,双流区,[],[],[],成都市,[],B001C8O2JW,[],"103.945464,30.590878",交通银行ATM(广巍路一段),[],[],四川省,[],[],2,[],金融保险服务;自动提款机;交通银行ATM,160305
蓉台大道与骑士大道交叉口东北50米,温江区,[],[],[],成都市,[],B001C8R9OR,[],"103.814813,30.645891",交通银行24小时自助银行(蓉台大道),[],[],四川省,[],[],2,[],金融保险服务;自动提款机;交通银行ATM,160305
物流大道西延线301,新都区,[],[],[],成都市,[],B001C8O1KH,[],"104.121772,30.798653",交通银行24小时自助银行(燕塘村卫生站北),[],[],四川省,[],[],2,[],金融保险服务;自动提款机;交通银行ATM,160305
迎春路三段156号,双流区,[],[],[],成都市,[],B001C8VK3J,[],"103.916668,30.577228",交通银行ATM(吴家坝南街),[],[],四川省,[],[],2,[],金融保险服务;自动提款机;交通银行ATM,160305
兴城大道957附近,新都区,[],[],[],成都市,[],B001C8O1WH,[],"104.142548,30.798653",交通银行ATM(锦水苑社区东),[],[],四川省,[],[],2,[],金融保险服务;自动提款机;交通银行ATM,160305
迎春路三段140号,双流区,[],[],[],成都市,[],B001C92BYS,[],"103.919392,30.579621",交通银行ATM,[],[],四川省,[],[],2,[],金融保险服务;自动提款机;交通银行ATM,160305
光华大道一段866号元益花园6栋1层25号,青羊区,[],[],202,成都市,[],B001C953YP,[],"103.975354,30.669501",交通银行24小时自助银行(光华大道一段),B0FFGU4EZC,[],四川省,[],[],2,[],金融保险服务;自动提款机;交通银行ATM,160305
阳光林森路278号附近,新都区,[],[],[],成都市,[],B0FFFAD1A9,[],"104.023439,30.840340",交通银行ATM(永安街),[],[],四川省,[],[],2,[],金融保险服务;自动提款机;交通银行ATM,160305
观景路416号国税局家属院附近,都江堰市,[],[],[],成都市,[],B001C92D9U,[],"103.634415,30.996645",交通银行24小时自助银行(正泰综合楼东北),[],[],四川省,[],[],2,[],金融保险服务;自动提款机;交通银行ATM,160305
培风横街277号,青羊区,[],[],[],成都市,[],B001C8O8IO,[],"103.977813,30.665643",交通银行24小时自助银行(培风横街),[],[],四川省,[],[],2,[],金融保险服务;自动提款机;交通银行ATM,160305
中和新下街242号,双流区,[],[],[],成都市,[],B0FFFGLQ90,[],"104.087617,30.549237",交通银行24小时自助银行(中和支行),[],[],四川省,[],[],2,[],金融保险服务;自动提款机;交通银行ATM,160305
成龙大道与车城东一路交叉口西南150米,龙泉驿区,[],[],[],成都市,[],B0FFHU9M0Q,[],"104.208298,30.555442",交通银行ATM(车城东一路),[],[],四川省,[],[],2,[],金融保险服务;自动提款机;交通银行ATM,160305
金阳路69-75号,青羊区,[],[],3,成都市,[],B001C7V8EY,[],"104.008098,30.677882",交通银行24小时自助银行(金沙支行),B001C7V8EX,[],四川省,[],[],2,[],金融保险服务;自动提款机;交通银行ATM,160305
武兴三路28号1栋附2号,武侯区,[],[],[],成都市,[],B0FFGHQ3N6,[],"103.978736,30.635461",交通银行ATM,[],[],四川省,[],[],2,[],金融保险服务;自动提款机;交通银行ATM,160305
吴家坝北街64号,双流区,[],[],[],成都市,[],B001C92BYW,[],"103.917101,30.581589",交通银行ATM,[],[],四川省,[],[],2,[],金融保险服务;自动提款机;交通银行ATM,160305
一环路南二段17号成都A世界电脑商城1F层,武侯区,[],[],[],成都市,[],B001C7Y28K,[],"104.067114,30.633985",交通银行ATM(成都A世界电脑商城),[],[],四川省,[],[],2,[],金融保险服务;自动提款机;交通银行ATM,160305
一杆旗南街一段与棠中路四段交叉口西50米,双流区,[],[],[],成都市,[],B001C92C7C,[],"103.911572,30.570149",交通银行ATM,[],[],四川省,[],[],2,[],金融保险服务;自动提款机;交通银行ATM,160305
新都工业大道东段335号附近,新都区,[],[],[],成都市,[],B001C8R6TS,[],"104.167699,30.801747",交通银行24小时自助银行(新都工业大道东段),[],[],四川省,[],[],2,[],金融保险服务;自动提款机;交通银行ATM,160305
一环路东一段157号,成华区,[],[],3,成都市,[],B001C92B88,[],"104.098259,30.673402",交通银行24小时自助银行(成都电子科技大学支行),B001C80838,[],四川省,[],[],2,[],金融保险服务;自动提款机;交通银行ATM,160305
建业路233-237号,成华区,[],[],3,成都市,[],B001C8NTJZ,[],"104.111032,30.675527",交通银行24小时自助银行(厂北路支行),B001C8OQT9,[],四川省,[],[],2,[],金融保险服务;自动提款机;交通银行ATM,160305
南街21号正南方向200米,新都区,[],[],[],成都市,[],B0FFG34VS8,[],"104.026246,30.817742",交通银行ATM(古渭路),[],[],四川省,[],[],2,[],金融保险服务;自动提款机;交通银行ATM,160305
三河街道惠民路二巷48号,新都区,[],[],[],成都市,[],B001C93D7V,[],"104.142859,30.780669",交通银行ATM,[],[],四川省,[],[],2,[],金融保险服务;自动提款机;交通银行ATM,160305
香樟路201号附近,新都区,[],[],[],成都市,[],B0FFGIPT3A,[],"104.169967,30.809377",交通银行24小时自助银行(香樟路),[],[],四川省,[],[],2,[],金融保险服务;自动提款机;交通银行ATM,160305
金彭西路180号,彭州市,[],[],[],成都市,[],B0FFFGLNTA,[],"103.937276,30.988476",交通银行24小时自助银行(金彭西路),[],[],四川省,[],[],2,[],金融保险服务;自动提款机;交通银行ATM,160305
白衣下街10号,双流区,[],[],[],成都市,[],B001C8VJWP,[],"103.914644,30.575879",交通银行ATM(白衣下街),[],[],四川省,[],[],2,[],金融保险服务;自动提款机;交通银行ATM,160305
华阳大道一段333号银泰商务中心1层,双流区,[],[],202,成都市,[],B0FFGAECDM,[],"104.049398,30.512258",交通银行24小时自助银行(成都双华支行),B001C8TY2R,[],四川省,[],[],2,[],金融保险服务;自动提款机;交通银行ATM,160305
凤凰西六路28号,青白江区,[],[],3,成都市,[],B001C8O4YO,[],"104.262469,30.891491",交通银行24小时自助银行(青白江支行),B001C8O5WK,[],四川省,[],[],2,[],金融保险服务;自动提款机;交通银行ATM,160305
科新南路4号附近,郫都区,[],[],[],成都市,[],B0FFHTZ3PL,[],"103.929625,30.757153",交通银行24小时自助银行,[],[],四川省,[],[],2,[],金融保险服务;自动提款机;交通银行ATM,160305
协和路与南三环路二段交叉路口南侧,彭州市,[],[],[],成都市,[],B0FFFGLNSU,[],"103.945162,30.937104",交通银行ATM(协和大道),[],[],四川省,[],[],2,[],金融保险服务;自动提款机;交通银行ATM,160305
同心街50号,龙泉驿区,[],[],[],成都市,[],B001C93GPI,[],"104.304975,30.596260",交通银行ATM(同心街),[],[],四川省,[],[],2,[],金融保险服务;自动提款机;交通银行ATM,160305
广履路与龙桥路横街交叉口西50米,双流区,[],[],[],成都市,[],B001C8O4V3,[],"103.946441,30.593267",交通银行24小时自助银行(龙桥小区南),[],[],四川省,[],[],2,[],金融保险服务;自动提款机;交通银行ATM,160305
牡丹西路49号,彭州市,[],[],[],成都市,[],B0FFFFRPMG,[],"103.956090,30.989480",交通银行24小时自助银行(彭州支行),[],[],四川省,[],[],2,[],金融保险服务;自动提款机;交通银行ATM,160305
交大路219号附4-6号,金牛区,[],[],3,成都市,[],B001C8N6NR,[],"104.040266,30.707645",交通银行24小时自助银行(交大路支行),B001C022D7,[],四川省,[],[],2,[],金融保险服务;自动提款机;交通银行ATM,160305
柳城大道东段213-223,温江区,[],[],3,成都市,[],B001C7YODY,[],"103.837029,30.693816",交通银行24小时自助银行(成都温江支行),B001C7XQOB,[],四川省,[],[],2,[],金融保险服务;自动提款机;交通银行ATM,160305
正西街47-49号,双流区,[],[],3,成都市,[],B001C7UW9W,[],"104.053513,30.505825",交通银行24小时自助银行(华阳支行),B0FFF6RP3E,[],四川省,[],[],2,[],金融保险服务;自动提款机;交通银行ATM,160305
上善南路39号附近,都江堰市,[],[],[],成都市,[],B001C8NULV,[],"103.659016,31.013076",交通银行24小时自助银行(上善南路),[],[],四川省,[],[],2,[],金融保险服务;自动提款机;交通银行ATM,160305
鲸龙路1057号第一中学校,龙泉驿区,[],[],[],成都市,[],B001C8NOHE,[],"104.245287,30.533124",交通银行ATM(鲸龙路),[],[],四川省,[],[],2,[],金融保险服务;自动提款机;交通银行ATM,160305
都江堰大道304-308号,都江堰市,[],[],3,成都市,[],B001C80JOY,[],"103.651822,30.986790",交通银行24小时自助银行(莲花支行),B001C80JT4,[],四川省,[],[],2,[],金融保险服务;自动提款机;交通银行ATM,160305
建设路151-153号,都江堰市,[],[],3,成都市,[],B001C8OL4R,[],"103.624287,30.998485",交通银行24小时自助银行(都江堰支行),B001C80IV9,[],四川省,[],[],2,[],金融保险服务;自动提款机;交通银行ATM,160305
天韵路186号高新国际广场A座1层,武侯区,[],[],[],成都市,[],B001C8P658,[],"104.065190,30.592044",交通银行ATM(天韵路),[],[],四川省,[],[],2,[],金融保险服务;自动提款机;交通银行ATM,160305
一环路东三段60号附2号,成华区,[],[],[],成都市,[],B0FFHGLGSC,[],"104.098372,30.654149",交通银行24小时自助银行(一环路东三段支行),[],[],四川省,[],[],2,[],金融保险服务;自动提款机;交通银行ATM,160305
西源大道1号四川大学锦城学院附近,郫都区,[],[],[],成都市,[],B001C8N2DY,[],"103.951024,30.724958",交通银行24小时自助银行(创业路),[],[],四川省,[],[],2,[],金融保险服务;自动提款机;交通银行ATM,160305
肖家河沿巷6号,武侯区,[],[],[],成都市,[],B001C80MNM,[],"104.045073,30.626655",交通银行ATM(肖家河沿巷),[],[],四川省,[],[],2,[],金融保险服务;自动提款机;交通银行ATM,160305
清江东路39号附18-19号,青羊区,[],[],3,成都市,[],B001C7V8ER,[],"104.030063,30.668591",交通银行24小时自助银行(草堂支行),B001C7V8EQ,[],四川省,[],[],2,[],金融保险服务;自动提款机;交通银行ATM,160305
成都市郫都区科化二路182号,郫都区,[],[],[],成都市,[],B0FFFEJL5P,[],"103.897906,30.794912",交通银行24小时自助银行(郫都支行),[],[],四川省,[],[],2,[],金融保险服务;自动提款机;交通银行ATM,160305
果堰街16号附57号,武侯区,[],[],[],成都市,[],B001C8O5OX,[],"103.995777,30.638369",交通银行ATM,[],[],四川省,[],[],2,[],金融保险服务;自动提款机;交通银行ATM,160305
玉泉街与驿都大道中路交汇处北150米,龙泉驿区,[],[],[],成都市,[],B0FFGG4F6D,[],"104.229283,30.570311",交通银行ATM(步行街),[],[],四川省,[],[],2,[],金融保险服务;自动提款机;交通银行ATM,160305
东大街176号,郫都区,[],[],[],成都市,[],B001C8OA3L,[],"103.889468,30.805920",交通银行ATM(东大街),[],[],四川省,[],[],2,[],金融保险服务;自动提款机;交通银行ATM,160305
正东中街81号,双流区,[],[],3,成都市,[],B001C8OC0V,[],"104.060641,30.502341",交通银行24小时自助银行(南阳支行),B001C8OCMR,[],四川省,[],[],2,[],金融保险服务;自动提款机;交通银行ATM,160305
淳化街86号-90,双流区,[],[],3,成都市,[],B0FFFGLNTB,[],"103.923344,30.571963",交通银行24小时自助银行(双流分行),B001C0856M,[],四川省,[],[],2,[],金融保险服务;自动提款机;交通银行ATM,160305
大面镇陵川路1号陵川特种工业有限责任公司大门口,龙泉驿区,[],[],[],成都市,[],B0FFGHQEIF,[],"104.154749,30.613026",交通银行ATM(陵川路),[],[],四川省,[],[],2,[],金融保险服务;自动提款机;交通银行ATM,160305
天顺路153-155(天泰路111号特拉克斯国际广场北楼附楼1层101号),武侯区,[],[],3,成都市,[],B001C8O86H,[],"104.070565,30.592979",交通银行24小时自助银行(科技支行),B001C8O8H5,[],四川省,[],[],2,[],金融保险服务;自动提款机;交通银行ATM,160305
二环路南三段3号附25号,武侯区,[],[],3,成都市,[],B001C7V8ES,[],"104.062641,30.620356",交通银行24小时自助银行(南二环支行),B001C078UU,[],四川省,[],[],2,[],金融保险服务;自动提款机;交通银行ATM,160305
一环路北一段69-79号,金牛区,[],[],3,成都市,[],B001C937Z0,[],"104.048384,30.683123",交通银行24小时自助银行(城西支行),B001C8VMPH,[],四川省,[],[],2,[],金融保险服务;自动提款机;交通银行ATM,160305
太平街443号,都江堰市,[],[],[],成都市,[],B001C9298Z,[],"103.628896,30.986838",交通银行ATM,[],[],四川省,[],[],2,[],金融保险服务;自动提款机;交通银行ATM,160305
龙泉街办龙都北路39号1座5单元1层101号绿果超市春秋名邸店,龙泉驿区,[],[],[],成都市,[],B0FFFEJKZT,[],"104.277071,30.574575",交通银行ATM(建材路),[],[],四川省,[],[],2,[],金融保险服务;自动提款机;交通银行ATM,160305
高升桥南街8号附44-47号,武侯区,[],[],3,成都市,[],B001C7WLAZ,[],"104.037544,30.637056",交通银行24小时自助银行(广福支行),B001C7WAFM,[],四川省,[],[],2,[],金融保险服务;自动提款机;交通银行ATM,160305
建设路56号附4号,成华区,[],[],3,成都市,[],B001C094ER,[],"104.099155,30.667992",交通银行24小时自助银行(成都城东支行),B001C022CB,[],四川省,[],[],2,[],金融保险服务;自动提款机;交通银行ATM,160305
聚兴路44号,都江堰市,[],[],[],成都市,[],B0FFIIT5ZX,[],"103.681990,30.946122",交通银行ATM,[],[],四川省,[],[],2,[],金融保险服务;自动提款机;交通银行ATM,160305
肖家村二巷旺马仕名品广场1层,金牛区,[],[],202,成都市,[],B0FFFFW0RL,[],"104.076504,30.687684",交通银行24小时自助银行(金牛支行),B0FFFR0GTT,[],四川省,[],[],2,[],金融保险服务;自动提款机;交通银行ATM,160305
万春东路44号附3号,温江区,[],[],[],成都市,[],B0FFFABDUQ,[],"103.841704,30.702273",交通银行ATM(万春东路),[],[],四川省,[],[],2,[],金融保险服务;自动提款机;交通银行ATM,160305
红牌楼佳灵路4号,武侯区,[],[],3,成都市,[],B001C8O4VY,[],"104.028641,30.634531",交通银行24小时自助银行(武侯支行),B001C8O29L,[],四川省,[],[],2,[],金融保险服务;自动提款机;交通银行ATM,160305
花都大道696号17幢1-01号,新都区,[],[],3,成都市,[],B001C8R6I4,[],"104.063014,30.761636",交通银行24小时自助银行(大丰支行),B001C8R8F9,[],四川省,[],[],2,[],金融保险服务;自动提款机;交通银行ATM,160305
南丰大道610-附60号附近,新都区,[],[],[],成都市,[],B0FFIUOWXM,[],"104.064962,30.744369",交通银行24小时自助银行,[],[],四川省,[],[],2,[],金融保险服务;自动提款机;交通银行ATM,160305
新希望路4号附4号,武侯区,[],[],3,成都市,[],B001C7UR2T,[],"104.072235,30.614619",交通银行24小时自助银行(新希望路支行),B001C7UR2S,[],四川省,[],[],2,[],金融保险服务;自动提款机;交通银行ATM,160305
三槐树路3号附30-32号,锦江区,[],[],3,成都市,[],B001C7V8ET,[],"104.089897,30.662676",交通银行24小时自助银行(新华支行),B001C033D5,[],四川省,[],[],2,[],金融保险服务;自动提款机;交通银行ATM,160305
两河路东段69号,温江区,[],[],[],成都市,[],B001C8MW8W,[],"103.845193,30.691213",交通银行24小时自助银行(两河路东段),[],[],四川省,[],[],2,[],金融保险服务;自动提款机;交通银行ATM,160305
东升镇棠湖西路1段170号,双流区,[],[],[],成都市,[],B0FFFEJKRE,[],"103.916769,30.573066",交通银行24小时自助银行(仁和分理处),[],[],四川省,[],[],2,[],金融保险服务;自动提款机;交通银行ATM,160305
创业路16号附2-8,武侯区,[],[],3,成都市,[],B001C7WLBB,[],"104.042614,30.620280",交通银行24小时自助银行(创业路支行),B001C7WLBA,[],四川省,[],[],2,[],金融保险服务;自动提款机;交通银行ATM,160305
西安南路63号附7附9号,金牛区,[],[],3,成都市,[],B001C06A2O,[],"104.046656,30.665210",交通银行24小时自助银行(成都西安路支行),B001C05LEC,[],四川省,[],[],2,[],金融保险服务;自动提款机;交通银行ATM,160305
北纱帽街101号附1,锦江区,[],[],3,成都市,[],B001C05J62,[],"104.083167,30.655372",交通银行24小时自助银行(红星路支行),B001C06DD1,[],四川省,[],[],2,[],金融保险服务;自动提款机;交通银行ATM,160305
建设北路二段4号电子科技大学二食堂侧,成华区,[],[],[],成都市,[],B0FFF5WI5H,[],"104.099682,30.677385",交通银行24小时自助银行(成都电子科技大学支行),[],[],四川省,[],[],2,[],金融保险服务;自动提款机;交通银行ATM,160305
东大街芷泉段200、210,锦江区,[],[],3,成都市,[],B001C929O3,[],"104.088400,30.647372",交通银行24小时自助银行(锦江支行),B001C8VJZJ,[],四川省,[],[],2,[],金融保险服务;自动提款机;交通银行ATM,160305
江汉路168号附1号,青羊区,[],[],3,成都市,[],B001C7WDFP,[],"104.064622,30.673955",交通银行24小时自助银行(江汉路支行),B001C7WDFO,[],四川省,[],[],2,[],金融保险服务;自动提款机;交通银行ATM,160305
太平园西路278号红旗超市,武侯区,[],[],[],成都市,[],B001C7WI58,[],"104.002509,30.619118",交通银行24小时自助银行,[],[],四川省,[],[],2,[],金融保险服务;自动提款机;交通银行ATM,160305
西玉龙街209号附近,青羊区,[],[],[],成都市,[],B0FFHNE45O,[],"104.066450,30.666882",交通银行24小时银行服务,[],[],四川省,[],[],2,[],金融保险服务;自动提款机;交通银行ATM,160305
都江堰大道96号,都江堰市,[],[],3,成都市,[],B001C7U0R5,[],"103.631454,30.990992",交通银行24小时自助银行(都江堰大道支行),B001C022D1,[],四川省,[],[],2,[],金融保险服务;自动提款机;交通银行ATM,160305
奎光路301号,都江堰市,[],[],[],成都市,[],B001C8SPRA,[],"103.618827,30.983203",交通银行24小时自助银行(成都都江堰景区支行),[],[],四川省,[],[],2,[],金融保险服务;自动提款机;交通银行ATM,160305
新乐中街280恩威玲珑南域附近,武侯区,[],[],[],成都市,[],B0FFFCVQ9G,[],"104.040352,30.609786",交通银行ATM(新义西街),[],[],四川省,[],[],2,[],金融保险服务;自动提款机;交通银行ATM,160305
翔凤路538号,都江堰市,[],[],[],成都市,[],B0FFF3A67U,[],"103.641678,30.972348",交通银行ATM(彩虹大道南段),[],[],四川省,[],[],2,[],金融保险服务;自动提款机;交通银行ATM,160305
都江堰大道209号,都江堰市,[],[],[],成都市,[],B001C8OD73,[],"103.635092,30.991012",交通银行ATM(都江堰大道),[],[],四川省,[],[],2,[],金融保险服务;自动提款机;交通银行ATM,160305
江安河东路中段61号,都江堰市,[],[],[],成都市,[],B001C80JRQ,[],"103.628427,30.974100",交通银行ATM,[],[],四川省,[],[],2,[],金融保险服务;自动提款机;交通银行ATM,160305
棠湖北路一段86-90,双流区,[],[],3,成都市,[],B001C7V8F4,[],"103.921234,30.574225",交通银行24小时自助银行(成都双流西门支行),B001C094G8,[],四川省,[],[],2,[],金融保险服务;自动提款机;交通银行ATM,160305
永安大道南一段61号14附近,都江堰市,[],[],[],成都市,[],B0FFIN5IEN,[],"103.633196,30.961709",交通银行ATM(中医院北路),[],[],四川省,[],[],2,[],金融保险服务;自动提款机;交通银行ATM,160305
犀浦街道泰山南街123号润杨・西区地标1层,郫都区,[],[],[],成都市,[],B0FFGLDLRK,[],"103.959641,30.758848",交通银行24小时自助银行(成都高新西区支行),[],[],四川省,[],[],2,[],金融保险服务;自动提款机;交通银行ATM,160305
水杉路附近,郫都区,[],[],[],成都市,[],B0FFGO1L3Q,[],"103.924848,30.750169",交通银行ATM(龙湖・时代天街东南),[],[],四川省,[],[],2,[],金融保险服务;自动提款机;交通银行ATM,160305
西六路1号,青白江区,[],[],[],成都市,[],B0FFFGLQOG,[],"104.260699,30.891412",交通银行ATM(西六路),[],[],四川省,[],[],2,[],金融保险服务;自动提款机;交通银行ATM,160305
中山路与翔和路交叉口东100米,都江堰市,[],[],[],成都市,[],B0FFIIH3A7,[],"103.639126,30.982918",交通银行ATM(迎宾路),[],[],四川省,[],[],2,[],金融保险服务;自动提款机;交通银行ATM,160305
西安南路63号金座大厦1层,金牛区,[],[],[],成都市,[],B001C05LEC,[],"104.046666,30.665178",交通银行(成都西安路支行)(装修中),[],[],四川省,[],[],2,028-87794303;028-87771157,金融保险服务;银行;交通银行,160108
黄河中路二段蓝光圣菲TOWN城旁边,双流区,[],[],[],成都市,[],B001C95DGT,[],"104.003093,30.566208",交通银行ATM(暂停营业),[],[],四川省,[],[],2,[],金融保险服务;自动提款机;交通银行ATM,160305
