address,adname,biz_ext,biz_type,childtype,cityname,distance,id,importance,location,name,parent,photos,pname,poiweight,shopid,shopinfo,tel,type,typecode
东城根中街138附2-7,青羊区,[],[],[],成都市,[],B001C7WQXI,[],"104.060809,30.666492",中国建设银行(成都第一支行),[],[],四川省,[],[],2,028-86272817;028-86255539;95533,金融保险服务;银行;中国建设银行,160106
蜀汉路353号远洋大厦,金牛区,[],[],[],成都市,[],B0FFJ672QN,[],"104.012700,30.695057",中国建设银行(成都蜀汉路远洋大厦支行),[],[],四川省,[],[],2,95533,金融保险服务;银行;中国建设银行,160106
西南航空港经济开发区西航港大道二段12号,双流区,[],[],[],成都市,[],B001C8MRA2,[],"103.973131,30.533892",中国建设银行(双流西航港支行),[],[],四川省,[],[],2,028-62142256,金融保险服务;银行;中国建设银行,160106
繁江北路4号,新都区,[],[],[],成都市,[],B0FFFQ1XWD,[],"104.018853,30.874439",中国建设银行(新都新繁支行),[],[],四川省,[],[],2,028-83080310,金融保险服务;银行;中国建设银行,160106
帘官公所街2号附1号,青羊区,[],[],[],成都市,[],B001C7Y4U4,[],"104.081369,30.666697",中国建设银行(成都第二支行),[],[],四川省,[],[],2,028-86917696,金融保险服务;银行;中国建设银行,160106
麓镇西路21号附2号,双流区,[],[],[],成都市,[],B0FFGA4D03,[],"104.093454,30.481491",中国建设银行(麓山国际支行),[],[],四川省,[],[],2,028-85612324,金融保险服务;银行;中国建设银行,160106
三河场厚诚路8号海峡茶城,新都区,[],[],[],成都市,[],B0FFFE2E2A,[],"104.146288,30.780570",中国建设银行(新都三河支行),[],[],四川省,[],[],2,028-89397220,金融保险服务;银行;中国建设银行,160106
创意产业商务区三色路38号博瑞・创意成都1层,锦江区,[],[],202,成都市,[],B001C8O8EP,[],"104.085349,30.587114",中国建设银行(锦江工业园支行),B001C8P6NH,[],四川省,[],[],2,028-85917612,金融保险服务;银行;中国建设银行,160106
金泽路155-161号2层,青羊区,[],[],[],成都市,[],B0FFFAATLY,[],"104.002537,30.685197",中国建设银行(西贵金沙支行),[],[],四川省,[],[],2,[],金融保险服务;银行;中国建设银行,160106
光华北五路78-80号、光华西二路50-56号,青羊区,[],[],[],成都市,[],B0FFHO14FS,[],"103.956936,30.674415",中国建设银行(成都颐城支行),[],[],四川省,[],[],2,028-87606548;028-87502485,金融保险服务;银行;中国建设银行,160106
桂湖东路56-64号,新都区,[],[],202,成都市,[],B001C0AG9R,[],"104.163720,30.823033",中国建设银行(新都支行营业部),B001C8NSDX,[],四川省,[],[],2,028-83972967;028-83992382;95533,金融保险服务;银行;中国建设银行,160106
天久北巷114-116号,武侯区,[],[],[],成都市,[],B001C93K7G,[],"104.076116,30.593138",中国建设银行(天府长城支行),[],[],四川省,[],[],2,028-85356645;028-85180263,金融保险服务;银行;中国建设银行,160106
朝阳路232-238,双流区,[],[],[],成都市,[],B001C8OMKA,[],"104.094095,30.559702",中国建设银行(成都中和支行),[],[],四川省,[],[],2,028-85835575,金融保险服务;银行;中国建设银行,160106
金阳路1号青羊大道储蓄所,青羊区,[],[],[],成都市,[],B001C0AGBS,[],"104.011209,30.676592",中国建设银行(金沙园支行),[],[],四川省,[],[],2,028-87311205,金融保险服务;银行;中国建设银行,160106
东壕沟南段70-74号,大邑县,[],[],[],成都市,[],B0FFIPOHO5,[],"103.524357,30.584815",中国建设银行(东街储蓄所),[],[],四川省,[],[],2,028-88261951,金融保险服务;银行;中国建设银行,160106
金带街210-220号,崇州市,[],[],[],成都市,[],B001C7ZYZP,[],"103.664686,30.629953",中国建设银行(崇州金带街支行),[],[],四川省,[],[],2,028-82277013,金融保险服务;银行;中国建设银行,160106
蜀光路1号附10号,金牛区,[],[],[],成都市,[],B001C058VT,[],"104.016068,30.691929",中国建设银行(成都蜀光路支行),[],[],四川省,[],[],2,028-87529121;028-95533,金融保险服务;银行;中国建设银行,160106
正东中街69号,双流区,[],[],[],成都市,[],B001C8OC3A,[],"104.060518,30.502570",中国建设银行(华阳支行),[],[],四川省,[],[],2,028-85642142;028-85644710,金融保险服务;银行;中国建设银行,160106
东湖北街1-9号,彭州市,[],[],[],成都市,[],B0FFFPHYU9,[],"103.959864,30.987558",中国建设银行(新城支行),[],[],四川省,[],[],2,028-83836233,金融保险服务;银行;中国建设银行,160106
荣华北路299号,武侯区,[],[],[],成都市,[],B001C95DE0,[],"104.043839,30.552266",中国建设银行(大源支行),[],[],四川省,[],[],2,028-85342291,金融保险服务;银行;中国建设银行,160106
犀浦街道新业南街2-6号,郫都区,[],[],[],成都市,[],B001C92BGG,[],"103.974094,30.751545",中国建设银行(高新分理处),[],[],四川省,[],[],2,028-87851690;028-87851405,金融保险服务;银行;中国建设银行,160106
凌云路41号,简阳市,[],[],[],成都市,[],B0FFFZYMS7,[],"104.542769,30.408439",中国建设银行(简阳支行),[],[],四川省,[],[],2,028-26155158,金融保险服务;银行;中国建设银行,160106
东大街76-84号,郫都区,[],[],[],成都市,[],B001C7U3WO,[],"103.887991,30.807600",中国建设银行(郫都支行),[],[],四川省,[],[],2,028-87864039;028-87864368,金融保险服务;银行;中国建设银行,160106
紫杉路82号(神仙树南路紫荆名苑11栋综合楼),武侯区,[],[],[],成都市,[],B001C7UTYF,[],"104.048398,30.614444",中国建设银行(神仙树南路支行),[],[],四川省,[],[],2,028-85195752;028-85130836,金融保险服务;银行;中国建设银行,160106
狮子山街道静沙南路29号53-71,锦江区,[],[],[],成都市,[],B0FFFYKETY,[],"104.114996,30.619365",中国建设银行(成都沙河支行),[],[],四川省,[],[],2,028-84497973,金融保险服务;银行;中国建设银行,160106
夏家巷2-4号,青白江区,[],[],[],成都市,[],B001C7U27M,[],"104.247744,30.880502",中国建设银行(青白江教育街支行),[],[],四川省,[],[],2,028-83668100,金融保险服务;银行;中国建设银行,160106
军民街附近,都江堰市,[],[],[],成都市,[],B0FFFTDRGA,[],"103.686488,31.037428",中国建设银行24小时自助银行(军民街),[],[],四川省,[],[],2,[],金融保险服务;自动提款机;中国建设银行ATM,160303
龙泉街办佳美路331号,龙泉驿区,[],[],[],成都市,[],B0FFFACK17,[],"104.253951,30.543575",中国建设银行(东山支行),[],[],四川省,[],[],2,028-84611428;028-84856413,金融保险服务;银行;中国建设银行,160106
石家碾东路203-211号,青白江区,[],[],[],成都市,[],B001C806RO,[],"104.262643,30.887058",中国建设银行(石家碾储蓄所),[],[],四川省,[],[],2,028-83695365,金融保险服务;银行;中国建设银行,160106
和美东路29号(富丽东方斜对面),成华区,[],[],[],成都市,[],B0FFGZJA6X,[],"104.154233,30.629126",中国建设银行(成都东客站支行),[],[],四川省,[],[],2,028-69853488,金融保险服务;银行;中国建设银行,160106
茶店子街道金瑞路148号,金牛区,[],[],[],成都市,[],B001C8OL6D,[],"104.010243,30.707118",中国建设银行(成都迎宾支行),[],[],四川省,[],[],2,028-87507353,金融保险服务;银行;中国建设银行,160106
天目路69号,郫都区,[],[],[],成都市,[],B0FFFVNGYN,[],"103.976216,30.732085",中国建设银行(天目路储蓄所),[],[],四川省,[],[],2,028-62537716,金融保险服务;银行;中国建设银行,160106
五津北路261号附6号,新津区,[],[],[],成都市,[],B0FFGNI4NI,[],"103.813730,30.423464",中国建设银行(新津新城支行),[],[],四川省,[],[],2,028-82522011,金融保险服务;银行;中国建设银行,160106
珠江东街153-155,郫都区,[],[],[],成都市,[],B001C0AGAA,[],"103.962172,30.760081",中国建设银行(犀浦支行),[],[],四川省,[],[],2,028-87841903,金融保险服务;银行;中国建设银行,160106
天府三街1007-1011,武侯区,[],[],[],成都市,[],B0FFF9UNSJ,[],"104.043923,30.546448",中国建设银行(荣华南路支行),[],[],四川省,[],[],2,028-85315436,金融保险服务;银行;中国建设银行,160106
东风路7,锦江区,[],[],[],成都市,[],B001C7WQXG,[],"104.089407,30.652693",中国建设银行(成都第七支行),[],[],四川省,[],[],2,028-84462503;028-84472281;95533,金融保险服务;银行;中国建设银行,160106
天府东路1-5号,彭州市,[],[],[],成都市,[],B001C06SRL,[],"103.953165,30.978423",中国建设银行(工业大道支行),[],[],四川省,[],[],2,028-83753741;95533,金融保险服务;银行;中国建设银行,160106
车城西四路125号,龙泉驿区,[],[],[],成都市,[],B0FFFLJW3V,[],"104.175811,30.566584",中国建设银行(车城支行),[],[],四川省,[],[],2,028-88425602,金融保险服务;银行;中国建设银行,160106
大邑大道199号(大邑中学附近),大邑县,[],[],[],成都市,[],B0FFF00DWV,[],"103.526277,30.571658",中国建设银行(大邑翰城支行),[],[],四川省,[],[],2,028-88212825,金融保险服务;银行;中国建设银行,160106
龙城大道82-88号,龙泉驿区,[],[],[],成都市,[],B0FFIRA2D4,[],"104.196576,30.577134",中国建设银行(成都龙泉航天支行),[],[],四川省,[],[],2,028-84854992,金融保险服务;银行;中国建设银行,160106
武科东四路11号附19-20号,武侯区,[],[],[],成都市,[],B0FFF3AC6O,[],"103.988104,30.634936",中国建设银行(成都慧谷支行),[],[],四川省,[],[],2,028-85215238;028-85212690,金融保险服务;银行;中国建设银行,160106
华新下街172-184号,双流区,[],[],[],成都市,[],B001C064KS,[],"104.054748,30.514719",中国建设银行(华新支行),[],[],四川省,[],[],2,028-85620141,金融保险服务;银行;中国建设银行,160106
红光街道红高路88号,郫都区,[],[],[],成都市,[],B0FFFGNITH,[],"103.941291,30.772665",中国建设银行(郫都红光支行),[],[],四川省,[],[],2,028-87813633;028-87813611,金融保险服务;银行;中国建设银行,160106
西源大道2006号电子科技大学清水河校区校内商业街1层,郫都区,[],[],[],成都市,[],B001C8MG3P,[],"103.929716,30.756509",中国建设银行(成都清水河支行),[],[],四川省,[],[],2,028-61830127;95533,金融保险服务;银行;中国建设银行,160106
海昌路67、69号,双流区,[],[],[],成都市,[],B0FFFOVEXY,[],"104.073306,30.491550",中国建设银行(天府新区支行),[],[],四川省,[],[],2,028-85753053;028-62580464,金融保险服务;银行;中国建设银行,160106
华府大道一段836-838号,双流区,[],[],[],成都市,[],B0FFFYJ1AO,[],"104.052204,30.527103",中国建设银行(华府大道支行),[],[],四川省,[],[],2,028-85814750,金融保险服务;银行;中国建设银行,160106
金府路799号,金牛区,[],[],[],成都市,[],B001C8VJUI,[],"104.043231,30.716918",中国建设银行(成都金府国际支行),[],[],四川省,[],[],2,028-81430271,金融保险服务;银行;中国建设银行,160106
东升街道藏卫路南二段118号,双流区,[],[],[],成都市,[],B0FFFABCLS,[],"103.918021,30.561159",中国建设银行(双流棠湖支行),[],[],四川省,[],[],2,028-61905245;028-85813288,金融保险服务;银行;中国建设银行,160106
双建路8号,成华区,[],[],[],成都市,[],B001C7WDKL,[],"104.115066,30.678921",中国建设银行(成都双建路支行),[],[],四川省,[],[],2,[],金融保险服务;银行;中国建设银行,160106
成飞大道117-123号青羊工业总部基地,青羊区,[],[],[],成都市,[],B001C8MVDY,[],"103.961476,30.681711",中国建设银行(成都青羊工业园支行),[],[],四川省,[],[],2,028-85367723,金融保险服务;银行;中国建设银行,160106
合信路107号,郫都区,[],[],[],成都市,[],B0FFFACVRR,[],"103.917859,30.752123",中国建设银行24小时自助银行(合信路),[],[],四川省,[],[],2,[],金融保险服务;自动提款机;中国建设银行ATM,160303
[],双流区,[],[],[],成都市,[],B001C7UWL7,[],"104.061000,30.524218",中国建设银行24小时自助银行(新希望大道),[],[],四川省,[],[],2,[],金融保险服务;自动提款机;中国建设银行ATM,160303
北东街28号,青羊区,[],[],[],成都市,[],B0FFFSJGW9,[],"104.077737,30.671941",中国建设银行24小时自助银行(北东街支行),[],[],四川省,[],[],2,[],金融保险服务;自动提款机;中国建设银行ATM,160303
瑞联路69号附5号,青羊区,[],[],3,成都市,[],B0FFFFLW1Q,[],"103.999767,30.665354",中国建设银行24小时自助银行(成都金河支行),B001C7U6F1,[],四川省,[],[],2,[],金融保险服务;自动提款机;中国建设银行ATM,160303
金泽路155-161,青羊区,[],[],[],成都市,[],B0FFFAATLW,[],"104.002456,30.685254",中国建设银行24小时自助银行(成都西贵金沙支行),[],[],四川省,[],[],2,[],金融保险服务;自动提款机;中国建设银行ATM,160303
大邑大道379号,大邑县,[],[],[],成都市,[],B0FFF5TTF8,[],"103.527510,30.568715",中国建设银行24小时自助银行,[],[],四川省,[],[],2,[],金融保险服务;自动提款机;中国建设银行ATM,160303
龙腾东路34号,武侯区,[],[],202,成都市,[],B001C8VJUL,[],"104.019211,30.652184",中国建设银行24小时自助银行(龙腾路支行),B001C80G85,[],四川省,[],[],2,[],金融保险服务;自动提款机;中国建设银行ATM,160303
朝阳路232-238号,双流区,[],[],3,成都市,[],B001C8OMKE,[],"104.094123,30.559718",中国建设银行24小时自助银行(中和支行),B001C8OMKA,[],四川省,[],[],2,[],金融保险服务;自动提款机;中国建设银行ATM,160303
紫藤路6号附7号,武侯区,[],[],3,成都市,[],B001C7WFR6,[],"104.026959,30.649310",中国建设银行24小时自助银行(紫藤路储蓄所),B001C05MPW,[],四川省,[],[],2,[],金融保险服务;自动提款机;中国建设银行ATM,160303
锦华路一段68号万达广场1F层,锦江区,[],[],201,成都市,[],B0FFGPM74V,[],"104.096784,30.622119",中国建设银行ATM(万达广场),B001C92D7K,[],四川省,[],[],2,[],金融保险服务;自动提款机;中国建设银行ATM,160303
建设路19号,龙泉驿区,[],[],3,成都市,[],B001C8NOV9,[],"104.273774,30.560725",中国建设银行24小时自助银行(龙泉驿马桥支行),B001C8OCJ1,[],四川省,[],[],2,[],金融保险服务;自动提款机;中国建设银行ATM,160303
临河街36号附近,新都区,[],[],[],成都市,[],B001C937UF,[],"104.086270,30.762059",中国建设银行24小时自助银行(振新街),[],[],四川省,[],[],2,[],金融保险服务;自动提款机;中国建设银行ATM,160303
内蒙古大道2号附近,大邑县,[],[],202,成都市,[],B0FFG7IY9O,[],"103.519979,30.574902",中国建设银行ATM(内蒙古大道),B001C8NPND,[],四川省,[],[],2,[],金融保险服务;自动提款机;中国建设银行ATM,160303
潘家街四段718号附近,大邑县,[],[],[],成都市,[],B0FFF5TT24,[],"103.516943,30.570099",中国建设银行ATM(潘家街四段),[],[],四川省,[],[],2,[],金融保险服务;自动提款机;中国建设银行ATM,160303
汇泉南路276号,锦江区,[],[],[],成都市,[],B0FFGXC401,[],"104.106361,30.630114",中国建设银行24小时自助银行(牛沙路储蓄所),[],[],四川省,[],[],2,[],金融保险服务;自动提款机;中国建设银行ATM,160303
滨江路一段24号附近,金堂县,[],[],[],成都市,[],B0FFGIQ8FR,[],"104.428358,30.849976",中国建设银行ATM(滨江路一段),[],[],四川省,[],[],2,[],金融保险服务;自动提款机;中国建设银行ATM,160303
西区大道1704号,郫都区,[],[],3,成都市,[],B001C7TK56,[],"103.929672,30.773933",中国建设银行24小时自助银行(成都西区支行),B001C7TK46,[],四川省,[],[],2,[],金融保险服务;自动提款机;中国建设银行ATM,160303
盛金路163号附近,金牛区,[],[],[],成都市,[],B0FFFV2YU5,[],"104.015466,30.729830",中国建设银行24小时自助银行(盛金路),[],[],四川省,[],[],2,[],金融保险服务;自动提款机;中国建设银行ATM,160303
华林一路29号,成华区,[],[],[],成都市,[],B0FFFPWSJD,[],"104.139705,30.681930",中国建设银行24小时自助银行(东华一路),[],[],四川省,[],[],2,[],金融保险服务;自动提款机;中国建设银行ATM,160303
白马庙街141-149号,温江区,[],[],3,成都市,[],B001C921Q7,[],"103.839413,30.704763",中国建设银行24小时自助银行(白马庙街储蓄所),B001C921Q6,[],四川省,[],[],2,[],金融保险服务;自动提款机;中国建设银行ATM,160303
新希望路7号附7号,武侯区,[],[],[],成都市,[],B001C8RHIB,[],"104.071437,30.616174",中国建设银行(航空路支行),[],[],四川省,[],[],2,028-85352711,金融保险服务;银行;中国建设银行,160106
锦绣路38,武侯区,[],[],[],成都市,[],B001C7VRE6,[],"104.075024,30.624883",中国建设银行(成都棕北支行),[],[],四川省,[],[],2,028-85210149,金融保险服务;银行;中国建设银行,160106
盛隆街8号,武侯区,[],[],[],成都市,[],B001C0AGDF,[],"104.071911,30.622656",中国建设银行(成都领事馆路支行),[],[],四川省,[],[],2,028-85213589,金融保险服务;银行;中国建设银行,160106
菱安路335号1楼,锦江区,[],[],[],成都市,[],B0FFI687RA,[],"104.117211,30.608983",中国建设银行(成都第七支行四川师范大学储蓄所),[],[],四川省,[],[],2,[],金融保险服务;银行;中国建设银行,160106
希望路404号,龙泉驿区,[],[],[],成都市,[],B0FFFGV64I,[],"104.310966,30.606655",中国建设银行24小时自助银行(希望路),[],[],四川省,[],[],2,[],金融保险服务;自动提款机;中国建设银行ATM,160303
新都工业大道西段22附近,新都区,[],[],[],成都市,[],B0FFFAB75R,[],"104.145113,30.806948",中国建设银行24小时自助银行(新都工业大道西段),[],[],四川省,[],[],2,[],金融保险服务;自动提款机;中国建设银行ATM,160303
一杆旗西街163,双流区,[],[],[],成都市,[],B0FFFPNM4N,[],"103.908362,30.574528",中国建设银行24小时自助银行(一杆旗西街),[],[],四川省,[],[],2,[],金融保险服务;自动提款机;中国建设银行ATM,160303
长顺上街2-4号,青羊区,[],[],3,成都市,[],B001C7VRD5,[],"104.056789,30.660803",中国建设银行24小时自助银行(新华支行),B001C7VRD4,[],四川省,[],[],2,[],金融保险服务;自动提款机;中国建设银行ATM,160303
华府大道一段836-838号,双流区,[],[],3,成都市,[],B001C8OP86,[],"104.052298,30.526938",中国建设银行24小时自助银行(华府大道支行),B0FFGFP4OV,[],四川省,[],[],2,[],金融保险服务;自动提款机;中国建设银行ATM,160303
三槐树路2号附6号,锦江区,[],[],[],成都市,[],B001C7WFGJ,[],"104.090786,30.661741",中国建设银行ATM(三槐树路),[],[],四川省,[],[],2,[],金融保险服务;自动提款机;中国建设银行ATM,160303
外南街235号附近,新都区,[],[],[],成都市,[],B0HG5H9SM6,[],"104.163131,30.817071",中国建设银行24小时自助银行,[],[],四川省,[],[],2,[],金融保险服务;自动提款机;中国建设银行ATM,160303
董家湾北街3号附7号,武侯区,[],[],[],成都市,[],B0G27ACTLU,[],"104.030766,30.632371",中国建设银行24小时自助银行(红牌楼分理处),[],[],四川省,[],[],2,[],金融保险服务;自动提款机;中国建设银行ATM,160303
南湖大道317号,双流区,[],[],[],成都市,[],B0FFMEAYP6,[],"104.051323,30.490819",中国建设银行24小时自助银行(南湖大道支行),[],[],四川省,[],[],2,[],金融保险服务;自动提款机;中国建设银行ATM,160303
乐华路582号,武侯区,[],[],[],成都市,[],B0FFMCATWV,[],"104.031278,30.542491",中国建设银行24小时自助银行,[],[],四川省,[],[],2,[],金融保险服务;自动提款机;中国建设银行ATM,160303
石柑路174号,双流区,[],[],[],成都市,[],B0FFLC6MGW,[],"103.928460,30.628896",中国建设银行24小时自助银行,[],[],四川省,[],[],2,[],金融保险服务;自动提款机;中国建设银行ATM,160303
龙江路14号1幢,武侯区,[],[],[],成都市,[],B0FFKT6DWX,[],"104.077204,30.641673",中国建设银行24小时自助银行(龙江路支行),[],[],四川省,[],[],2,[],金融保险服务;自动提款机;中国建设银行ATM,160303
解放路二段237号附1号,金牛区,[],[],[],成都市,[],B0FFK9JKIG,[],"104.083884,30.683092",中国建设银行ATM(解放路一段),[],[],四川省,[],[],2,[],金融保险服务;自动提款机;中国建设银行ATM,160303
汇源北路与通源街交叉口北50米,锦江区,[],[],[],成都市,[],B0FFK6HKO2,[],"104.113019,30.635387",中国建设银行24小时自助银行(成都东大路支行),[],[],四川省,[],[],2,[],金融保险服务;自动提款机;中国建设银行ATM,160303
四川师范大学成龙校区,龙泉驿区,[],[],[],成都市,[],B0FFK48P3C,[],"104.198621,30.566859",中国建设银行ATM(成育路),[],[],四川省,[],[],2,[],金融保险服务;自动提款机;中国建设银行ATM,160303
草堂北路21号附4-5号,青羊区,[],[],3,成都市,[],B0FFJRVDM9,[],"104.029296,30.667362",中国建设银行24小时自助银行(草堂北路储蓄所),B001C054RR,[],四川省,[],[],2,[],金融保险服务;自动提款机;中国建设银行ATM,160303
二环东段426号伊藤洋华堂F1,成华区,[],[],[],成都市,[],B0FFIVK4GR,[],"104.109212,30.672080",中国建设银行ATM(伊藤洋华堂),[],[],四川省,[],[],2,[],金融保险服务;自动提款机;中国建设银行ATM,160303
置信路57号67附近,武侯区,[],[],[],成都市,[],B0FFG7IVXZ,[],"104.013959,30.646907",中国建设银行24小时自助银行(鹭岛国际社区支行),[],[],四川省,[],[],2,[],金融保险服务;自动提款机;中国建设银行ATM,160303
龙港二路与龙港路交叉口北150米,成华区,[],[],[],成都市,[],B0FFG2I3J8,[],"104.169186,30.699994",中国建设银行24小时自助银行(龙港二路),[],[],四川省,[],[],2,[],金融保险服务;自动提款机;中国建设银行ATM,160303
大石西路36号附14号,青羊区,[],[],[],成都市,[],B0FFFZBXL6,[],"104.033600,30.651039",中国建设银行24小时自助银行(大石西路储蓄所),[],[],四川省,[],[],2,[],金融保险服务;自动提款机;中国建设银行ATM,160303
西大街542号附近,彭州市,[],[],[],成都市,[],B0FFFPI7BZ,[],"103.930683,30.981801",中国建设银行24小时自助银行(外西街),[],[],四川省,[],[],2,[],金融保险服务;自动提款机;中国建设银行ATM,160303
东虹路尚东美林二期红旗超市(尚东美林便利店)南行40米处,成华区,[],[],[],成都市,[],B0FFFONHB4,[],"104.153803,30.643753",中国建设银行ATM(东虹路),[],[],四川省,[],[],2,[],金融保险服务;自动提款机;中国建设银行ATM,160303
天府台商开发区,温江区,[],[],3,成都市,[],B001C8N0JJ,[],"103.798903,30.675329",中国建设银行24小时自助银行(温江台商分理处),B001C807U1,[],四川省,[],[],2,[],金融保险服务;自动提款机;中国建设银行ATM,160303
东坡路437-443号,青羊区,[],[],3,成都市,[],B001C7WEIS,[],"103.993284,30.661173",中国建设银行24小时自助银行(东坡路支行),B001C7WEIT,[],四川省,[],[],2,[],金融保险服务;自动提款机;中国建设银行ATM,160303
三强南路二段45,双流区,[],[],[],成都市,[],B001C0AGC3,[],"103.924445,30.564919",中国建设银行24小时自助银行(三强南路二段),[],[],四川省,[],[],2,[],金融保险服务;自动提款机;中国建设银行ATM,160303
天府西路1-7,彭州市,[],[],3,成都市,[],B001C0AGBM,[],"103.941924,30.977789",中国建设银行24小时自助银行(彭州支行城南储蓄所),B001C0AGBL,[],四川省,[],[],2,[],金融保险服务;自动提款机;中国建设银行ATM,160303
莲桂西路174-178号,锦江区,[],[],3,成都市,[],B001C0AG9P,[],"104.093433,30.636627",中国建设银行24小时自助银行(顺江路支行),B001C7TK6X,[],四川省,[],[],2,[],金融保险服务;自动提款机;中国建设银行ATM,160303
万宇路与和韵路交叉口北50米,成华区,[],[],[],成都市,[],B0FFGILAOY,[],"104.158449,30.626558",中国建设银行24小时自助银行(万宇路),[],[],四川省,[],[],2,[],金融保险服务;自动提款机;中国建设银行ATM,160303
育英路181附近,新都区,[],[],[],成都市,[],B0FFFGNRW0,[],"104.187134,30.813632",中国建设银行24小时自助银行(旺府豪庭西南),[],[],四川省,[],[],2,[],金融保险服务;自动提款机;中国建设银行ATM,160303
二江路二段与富民路三段交叉口西50米,双流区,[],[],[],成都市,[],B0FFHGM5KD,[],"104.066183,30.506552",中国建设银行24小时自助银行(富民路三段),[],[],四川省,[],[],2,[],金融保险服务;自动提款机;中国建设银行ATM,160303
南三环路二段1号西北方向70米,锦江区,[],[],[],成都市,[],B0FFFEF3MZ,[],"104.116600,30.598491",中国建设银行ATM(锦江区信访接待中心北),[],[],四川省,[],[],2,[],金融保险服务;自动提款机;中国建设银行ATM,160303
东湖路7号,彭州市,[],[],[],成都市,[],B0FFFPI26B,[],"103.950083,30.988160",中国建设银行24小时自助银行(东湖路),[],[],四川省,[],[],2,[],金融保险服务;自动提款机;中国建设银行ATM,160303
东秀一路218锦绣东方(跳蹬河北路)附近,成华区,[],[],[],成都市,[],B0FFFAC6R3,[],"104.118483,30.659692",中国建设银行ATM(杉板桥南一路),[],[],四川省,[],[],2,[],金融保险服务;自动提款机;中国建设银行ATM,160303
双新南路82号,青羊区,[],[],[],成都市,[],B001C92DUJ,[],"103.998412,30.668784",中国建设银行24小时自助银行(武兴一路),[],[],四川省,[],[],2,[],金融保险服务;自动提款机;中国建设银行ATM,160303
星辉西路16号附9号,金牛区,[],[],[],成都市,[],B001C92DC0,[],"104.073346,30.679201",中国建设银行24小时自助银行(星辉西路),[],[],四川省,[],[],2,[],金融保险服务;自动提款机;中国建设银行ATM,160303
同善桥南街7号附12号,青羊区,[],[],3,成都市,[],B001C7WQYB,[],"104.022618,30.680634",中国建设银行24小时自助银行(战旗支行),B001C7VRE4,[],四川省,[],[],2,[],金融保险服务;自动提款机;中国建设银行ATM,160303
蜀通街102号,金牛区,[],[],[],成都市,[],B001C05TYY,[],"104.031733,30.688045",中国建设银行ATM(蜀通街储蓄所),[],[],四川省,[],[],2,[],金融保险服务;自动提款机;中国建设银行ATM,160303
锦江菲亚特酒店(成都市技师学院东北),大邑县,[],[],[],成都市,[],B001C955ND,[],"103.546805,30.599898",中国建设银行24小时自助银行(芙蓉二巷),[],[],四川省,[],[],2,[],金融保险服务;自动提款机;中国建设银行ATM,160303
天晖路360号附3,武侯区,[],[],[],成都市,[],B0FFF90CNG,[],"104.063620,30.589196",中国建设银行24小时自助银行(天府新城支行),[],[],四川省,[],[],2,[],金融保险服务;自动提款机;中国建设银行ATM,160303
华新下街172-184,双流区,[],[],3,成都市,[],B001C06FX1,[],"104.054742,30.514687",中国建设银行24小时自助银行(华新支行),B001C064KS,[],四川省,[],[],2,[],金融保险服务;自动提款机;中国建设银行ATM,160303
崔家店路262号附16号,成华区,[],[],[],成都市,[],B0FFFT20W0,[],"104.133110,30.661213",中国建设银行24小时自助银行(崔家店路),[],[],四川省,[],[],2,[],金融保险服务;自动提款机;中国建设银行ATM,160303
大安路174东北方向40米,大邑县,[],[],[],成都市,[],B0FFF3ADH3,[],"103.545751,30.555873",中国建设银行24小时自助银行(大新路),[],[],四川省,[],[],2,[],金融保险服务;自动提款机;中国建设银行ATM,160303
都江堰大道,都江堰市,[],[],3,成都市,[],B0FFJ9BQ30,[],"103.646442,30.987860",中国建设银行24小时自助银行(幸福大道支行),B001C7ZWFE,[],四川省,[],[],2,[],金融保险服务;自动提款机;中国建设银行ATM,160303
安靖下街与犀安路交叉口东北50米,郫都区,[],[],[],成都市,[],B0FFGJ1G7P,[],"104.020323,30.766328",中国建设银行24小时自助银行(安靖下街),[],[],四川省,[],[],2,[],金融保险服务;自动提款机;中国建设银行ATM,160303
青羊大道10号附1-4号,青羊区,[],[],3,成都市,[],B001C7WQXM,[],"104.008755,30.658071",中国建设银行24小时自助银行(青羊大道支行),B001C7WQXL,[],四川省,[],[],2,[],金融保险服务;自动提款机;中国建设银行ATM,160303
市东街157号,邛崃市,[],[],3,成都市,[],B001C0AGA4,[],"103.465050,30.412186",中国建设银行ATM,B001C058Y9,[],四川省,[],[],2,[],金融保险服务;自动提款机;中国建设银行ATM,160303
崇庆北路478号,崇州市,[],[],[],成都市,[],B001C955ZV,[],"103.679920,30.642195",中国建设银行24小时自助银行(崇庆北路),[],[],四川省,[],[],2,[],金融保险服务;自动提款机;中国建设银行ATM,160303
龙井北街2-4号,武侯区,[],[],3,成都市,[],B0FFF5U1R5,[],"103.991842,30.604672",中国建设银行24小时自助银行(成都簇桥支行),B001C7VRD8,[],四川省,[],[],2,[],金融保险服务;自动提款机;中国建设银行ATM,160303
南三环路五段188号附4号,武侯区,[],[],[],成都市,[],B001C93K81,[],"104.038126,30.600965",中国建设银行24小时自助银行(美洲北路),[],[],四川省,[],[],2,[],金融保险服务;自动提款机;中国建设银行ATM,160303
神仙树西路3号附23号,武侯区,[],[],[],成都市,[],B001C06X7I,[],"104.046348,30.620123",中国建设银行ATM(神仙树西路),[],[],四川省,[],[],2,[],金融保险服务;自动提款机;中国建设银行ATM,160303
凌云路与金融街交叉口西50米,简阳市,[],[],[],成都市,[],B0FFFZYMPW,[],"104.542593,30.408527",中国建设银行24小时自助银行(简阳支行),[],[],四川省,[],[],2,[],金融保险服务;自动提款机;中国建设银行ATM,160303
新乐中街256号,武侯区,[],[],[],成都市,[],B0FFFCVUJF,[],"104.038945,30.608454",中国建设银行ATM(新乐中街),[],[],四川省,[],[],2,[],金融保险服务;自动提款机;中国建设银行ATM,160303
红牌楼永盛南街2号,武侯区,[],[],3,成都市,[],B001C8MNRT,[],"104.025554,30.638652",中国建设银行24小时自助银行(成都第七支行),B001C8MNRS,[],四川省,[],[],2,[],金融保险服务;自动提款机;中国建设银行ATM,160303
石家碾东路205-211号,青白江区,[],[],3,成都市,[],B001C806RM,[],"104.262749,30.887056",中国建设银行24小时自助银行(成都青白江石家碾支行),B001C806RO,[],四川省,[],[],2,[],金融保险服务;自动提款机;中国建设银行ATM,160303
红星路二段118号,锦江区,[],[],3,成都市,[],B001C7VRCY,[],"104.084202,30.661844",中国建设银行24小时自助银行(成都第三支行),B001C7TK6T,[],四川省,[],[],2,[],金融保险服务;自动提款机;中国建设银行ATM,160303
大华街10号附37号,武侯区,[],[],3,成都市,[],B001C7UK3L,[],"104.014113,30.649984",中国建设银行24小时自助银行(大华街支行),B001C7UK3K,[],四川省,[],[],2,[],金融保险服务;自动提款机;中国建设银行ATM,160303
高升桥北街9号,武侯区,[],[],3,成都市,[],B001C0AGB9,[],"104.039020,30.637604",中国建设银行24小时自助银行(罗浮世家支行),B001C0AGB8,[],四川省,[],[],2,[],金融保险服务;自动提款机;中国建设银行ATM,160303
海昌路63-69,双流区,[],[],[],成都市,[],B0FFFZBT97,[],"104.073166,30.491444",中国建设银行24小时自助银行(成都天府新区支行),[],[],四川省,[],[],2,[],金融保险服务;自动提款机;中国建设银行ATM,160303
崇阳镇唐安西路13号,崇州市,[],[],3,成都市,[],B0FFF6FIGG,[],"103.678783,30.632255",中国建设银行ATM(蔡家碾储蓄所),B001C7VRCE,[],四川省,[],[],2,[],金融保险服务;自动提款机;中国建设银行ATM,160303
五福桥东路229号附30-32,金牛区,[],[],[],成都市,[],B0FFF5TSGY,[],"104.065481,30.712182",中国建设银行24小时自助银行(五福桥分理处),[],[],四川省,[],[],2,[],金融保险服务;自动提款机;中国建设银行ATM,160303
五友路,简阳市,[],[],[],成都市,[],B03400N9YS,[],"104.553178,30.387062",中国建设银行24小时自助银行,[],[],四川省,[],[],2,[],金融保险服务;自动提款机;中国建设银行ATM,160303
天娇路74号附210附近,郫都区,[],[],[],成都市,[],B0FFFVD6KW,[],"103.920231,30.753101",中国建设银行24小时自助银行(天骄路),[],[],四川省,[],[],2,[],金融保险服务;自动提款机;中国建设银行ATM,160303
[],金牛区,[],[],3,成都市,[],B001C8O4SX,[],"104.058004,30.683133",中国建设银行24小时自助银行(铁二院储蓄所),B001C8O71P,[],四川省,[],[],2,[],金融保险服务;自动提款机;中国建设银行ATM,160303
杨桥路与腾飞一路交叉口西北50米,双流区,[],[],[],成都市,[],B0FFGQ7STK,[],"103.969465,30.532189",中国建设银行24小时自助银行(杨桥路),[],[],四川省,[],[],2,[],金融保险服务;自动提款机;中国建设银行ATM,160303
繁江北路4号,新都区,[],[],[],成都市,[],B0FFFQ1XWE,[],"104.018882,30.874373",中国建设银行24小时自助银行(新繁支行),[],[],四川省,[],[],2,[],金融保险服务;自动提款机;中国建设银行ATM,160303
东濠沟街北段260号,大邑县,[],[],[],成都市,[],B0FFFFKOCF,[],"103.524299,30.592143",中国建设银行24小时自助银行(棉花街),[],[],四川省,[],[],2,[],金融保险服务;自动提款机;中国建设银行ATM,160303
宁夏街234号,青羊区,[],[],201,成都市,[],B0FFJT1EHA,[],"104.057919,30.673316",中国建设银行ATM(百盛购物中心),B001C7RPK8,[],四川省,[],[],2,[],金融保险服务;自动提款机;中国建设银行ATM,160303
云龙南路与云龙路交叉口西南50米,成华区,[],[],[],成都市,[],B0FFFYKCEF,[],"104.108102,30.700900",中国建设银行ATM(云龙路),[],[],四川省,[],[],2,[],金融保险服务;自动提款机;中国建设银行ATM,160303
黄金东一路93附近,金牛区,[],[],[],成都市,[],B0FFFS6ANY,[],"103.997252,30.705077",中国建设银行ATM(黄金东一路),[],[],四川省,[],[],2,[],金融保险服务;自动提款机;中国建设银行ATM,160303
智达二路596号,武侯区,[],[],[],成都市,[],B0FFFPUUBR,[],"103.986642,30.607037",中国建设银行24小时自助银行(成都中海锦城支行),[],[],四川省,[],[],2,[],金融保险服务;自动提款机;中国建设银行ATM,160303
羊子山路68号(东立国际广场4栋一单元),成华区,[],[],202,成都市,[],B0FFFZTWAY,[],"104.095574,30.701865",中国建设银行24小时自助银行,B0FFGTMXAD,[],四川省,[],[],2,[],金融保险服务;自动提款机;中国建设银行ATM,160303
牡丹街662号附近,锦江区,[],[],[],成都市,[],B0FFF3AE1G,[],"104.142277,30.598046",中国建设银行ATM(牡丹街),[],[],四川省,[],[],2,[],金融保险服务;自动提款机;中国建设银行ATM,160303
天久北巷114-116,武侯区,[],[],[],成都市,[],B001C93K7H,[],"104.076039,30.593177",中国建设银行24小时自助银行(天府长城支行),[],[],四川省,[],[],2,[],金融保险服务;自动提款机;中国建设银行ATM,160303
城通路与盛和二路交叉口西北100米,武侯区,[],[],[],成都市,[],B0FFGYORGA,[],"104.057086,30.603431",中国建设银行24小时自助银行(成都南站支行),[],[],四川省,[],[],2,[],金融保险服务;自动提款机;中国建设银行ATM,160303
东城根中街138附2-7,青羊区,[],[],3,成都市,[],B001C7WQXJ,[],"104.060853,30.666675",中国建设银行24小时自助银行(成都第一支行),B001C7WQXI,[],四川省,[],[],2,[],金融保险服务;自动提款机;中国建设银行ATM,160303
蜀汉路289号,金牛区,[],[],3,成都市,[],B001C7WBV6,[],"104.020157,30.688948",中国建设银行24小时自助银行(蜀汉路分理处),B001C0AGC5,[],四川省,[],[],2,[],金融保险服务;自动提款机;中国建设银行ATM,160303
南街145-159号,邛崃市,[],[],3,成都市,[],B0FFF5TZ78,[],"103.460718,30.409563",中国建设银行24小时自助银行(邛崃支行),B001C0AGDG,[],四川省,[],[],2,[],金融保险服务;自动提款机;中国建设银行ATM,160303
瑞通路80附近,新津区,[],[],[],成都市,[],B0FFFACO1O,[],"103.817546,30.419144",中国建设银行24小时自助银行(瑞通路),[],[],四川省,[],[],2,[],金融保险服务;自动提款机;中国建设银行ATM,160303
机场东二路机场集团大楼附楼1层附近,双流区,[],[],[],成都市,[],B001C7YGLC,[],"103.963500,30.568330",中国建设银行24小时自助银行(双流机场支行),[],[],四川省,[],[],2,[],金融保险服务;自动提款机;中国建设银行ATM,160303
紫荆北路12号附1号,武侯区,[],[],3,成都市,[],B001C92E0Z,[],"104.053371,30.619616",中国建设银行24小时自助银行(紫荆北路支行),B001C92E10,[],四川省,[],[],2,[],金融保险服务;自动提款机;中国建设银行ATM,160303
群和街22号,青羊区,[],[],[],成都市,[],B001C92BHO,[],"104.020088,30.666234",中国建设银行ATM(清江南街),[],[],四川省,[],[],2,[],金融保险服务;自动提款机;中国建设银行ATM,160303
杨祠街151号,崇州市,[],[],[],成都市,[],B001C956TH,[],"103.664283,30.625490",中国建设银行24小时自助银行,[],[],四川省,[],[],2,[],金融保险服务;自动提款机;中国建设银行ATM,160303
朝阳大道13-16号,蒲江县,[],[],[],成都市,[],B0FFF2KKWH,[],"103.506323,30.188335",中国建设银行24小时自助银行,[],[],四川省,[],[],2,[],金融保险服务;自动提款机;中国建设银行ATM,160303
皇经楼西街131号,锦江区,[],[],[],成都市,[],B0FFF5TRON,[],"104.106928,30.592009",中国建设银行24小时自助银行,[],[],四川省,[],[],2,[],金融保险服务;自动提款机;中国建设银行ATM,160303
武成大街5号,锦江区,[],[],[],成都市,[],B001C7WFH1,[],"104.090058,30.657612",中国建设银行24小时自助银行(武成大街储蓄所),[],[],四川省,[],[],2,[],金融保险服务;自动提款机;中国建设银行ATM,160303
金强步行街1-3,温江区,[],[],3,成都市,[],B001C0AGB4,[],"103.837091,30.693502",中国建设银行24小时自助银行(柳城干道支行),B001C0AGB3,[],四川省,[],[],2,[],金融保险服务;自动提款机;中国建设银行ATM,160303
川大路二段四川大学江安校区附近,双流区,[],[],[],成都市,[],B0FFG0YBIC,[],"103.992545,30.553348",中国建设银行24小时自助银行,[],[],四川省,[],[],2,[],金融保险服务;自动提款机;中国建设银行ATM,160303
成龙大道一段9号卓锦城二期22栋1层2-8号附近,锦江区,[],[],3,成都市,[],B001C8OE2C,[],"104.131570,30.598971",中国建设银行24小时自助银行(汽车城支行),B001C95BB8,[],四川省,[],[],2,[],金融保险服务;自动提款机;中国建设银行ATM,160303
大石东路152号附近,武侯区,[],[],[],成都市,[],B0FFG0YXJT,[],"104.045690,30.651562",中国建设银行24小时自助银行(芳邻路),[],[],四川省,[],[],2,[],金融保险服务;自动提款机;中国建设银行ATM,160303
佳美路331号,龙泉驿区,[],[],[],成都市,[],B0FFFACK1E,[],"104.253917,30.543535",中国建设银行24小时自助银行(东山支行),[],[],四川省,[],[],2,[],金融保险服务;自动提款机;中国建设银行ATM,160303
青华路38号附16号,青羊区,[],[],[],成都市,[],B0FFGCEPZV,[],"104.024095,30.662492",中国建设银行24小时自助银行(青华路),[],[],四川省,[],[],2,[],金融保险服务;自动提款机;中国建设银行ATM,160303
蜀兴东街6号之15-17,金牛区,[],[],[],成都市,[],B001C92CJA,[],"104.029969,30.684934",中国建设银行24小时自助银行,[],[],四川省,[],[],2,[],金融保险服务;自动提款机;中国建设银行ATM,160303
瑞通路80号-附2号附近,新津区,[],[],[],成都市,[],B0GR64YT8V,[],"103.817736,30.419240",中国建设银行,[],[],四川省,[],[],2,[],金融保险服务;银行;中国建设银行,160106
[],彭州市,[],[],[],成都市,[],B0GR3OME8W,[],"103.950083,30.988160",中国建设银行,[],[],四川省,[],[],2,[],金融保险服务;银行;中国建设银行,160106
芙蓉横街7东北100米,大邑县,[],[],[],成都市,[],B0FFLNSZ1M,[],"103.546805,30.599898",中国建设银行,[],[],四川省,[],[],2,[],金融保险服务;银行;中国建设银行,160106
[],青白江区,[],[],[],成都市,[],B0FFLMCURP,[],"104.252865,30.887153",中国建设银行,[],[],四川省,[],[],2,[],金融保险服务;银行;中国建设银行,160106
交通路,双流区,[],[],[],成都市,[],B0FFL7J8ID,[],"103.876842,30.582811",中国建设银行,[],[],四川省,[],[],2,[],金融保险服务;银行;中国建设银行,160106
[],双流区,[],[],[],成都市,[],B0FFL22YB6,[],"104.087755,30.553492",中国建设银行(华路街),[],[],四川省,[],[],2,[],金融保险服务;银行;中国建设银行,160106
龙江路14号1栋1楼5号,武侯区,[],[],[],成都市,[],B0FFKMK1Q7,[],"104.077194,30.641650",中国建设银行(龙江路支行),[],[],四川省,[],[],2,95533;18602829821,金融保险服务;银行;中国建设银行,160106
铁军路152号,都江堰市,[],[],[],成都市,[],B0FFJKRJPB,[],"103.610671,30.960454",中国建设银行(万达城支行),[],[],四川省,[],[],2,[],金融保险服务;银行;中国建设银行,160106
毗河东路25号附近,新都区,[],[],[],成都市,[],B0FFJE0Z9B,[],"104.150439,30.790201",中国建设银行,[],[],四川省,[],[],2,[],金融保险服务;银行;中国建设银行,160106
草池街道天府国际机场商务楼,简阳市,[],[],[],成都市,[],B0FFIXEIZJ,[],"104.405075,30.316810",中国建设银行,[],[],四川省,[],[],2,028-26155107,金融保险服务;银行;中国建设银行,160106
文华路23号附9号,金牛区,[],[],[],成都市,[],B0FFG3QNUJ,[],"104.032171,30.675291",中国建设银行成都第五支行金罗路储蓄所,[],[],四川省,[],[],2,028-87787332,金融保险服务;银行;中国建设银行,160106
橡树林路58号,锦江区,[],[],[],成都市,[],B0FFFAB7AF,[],"104.093497,30.624784",中国建设银行24小时自助银行(三官堂支行),[],[],四川省,[],[],2,[],金融保险服务;自动提款机;中国建设银行ATM,160303
人民北路二段21号,金牛区,[],[],3,成都市,[],B0FFITY96F,[],"104.073022,30.692033",中国建设银行24小时自助银行(成都火车北站支行),B001C7WDR8,[],四川省,[],[],2,[],金融保险服务;自动提款机;中国建设银行ATM,160303
十二桥路39号附近,金牛区,[],[],[],成都市,[],B0FFFZ0MX3,[],"104.042045,30.666319",中国建设银行ATM(成都中医药大学附属医院),[],[],四川省,[],[],2,[],金融保险服务;自动提款机;中国建设银行ATM,160303
建设北路一段99号,成华区,[],[],3,成都市,[],B001C7WDWE,[],"104.090828,30.670723",中国建设银行24小时自助银行(成都一号桥支行),B001C7WDWD,[],四川省,[],[],2,[],金融保险服务;自动提款机;中国建设银行ATM,160303
一品天下大街399号附20号,金牛区,[],[],[],成都市,[],B0FFHG6OCV,[],"104.026169,30.698429",中国建设银行24小时自助银行,[],[],四川省,[],[],2,[],金融保险服务;自动提款机;中国建设银行ATM,160303
三槐树路85号附17号,锦江区,[],[],[],成都市,[],B0FFG0ZDGZ,[],"104.087740,30.663591",中国建设银行24小时自助银行(三槐树路),[],[],四川省,[],[],2,[],金融保险服务;自动提款机;中国建设银行ATM,160303
花牌坊街,金牛区,[],[],[],成都市,[],B001C8VXJF,[],"104.047076,30.678966",中国建设银行24小时自助银行(花牌坊街),[],[],四川省,[],[],2,[],金融保险服务;自动提款机;中国建设银行ATM,160303
抚琴西路128号附近,金牛区,[],[],[],成都市,[],B001C7TSNE,[],"104.035763,30.678083",中国建设银行ATM(抚琴西路支行),[],[],四川省,[],[],2,[],金融保险服务;自动提款机;中国建设银行ATM,160303
长益东二路233号,武侯区,[],[],[],成都市,[],B0FFFACIQW,[],"104.027452,30.623884",中国建设银行ATM(长益西二路),[],[],四川省,[],[],2,[],金融保险服务;自动提款机;中国建设银行ATM,160303
[],武侯区,[],[],[],成都市,[],B0FFGFLCMQ,[],"104.043558,30.603272",中国建设银行ATM,[],[],四川省,[],[],2,[],金融保险服务;自动提款机;中国建设银行ATM,160303
董郎路127号,龙泉驿区,[],[],[],成都市,[],B0FFG7GVZY,[],"104.272949,30.569035",中国建设银行ATM(春秋家院西),[],[],四川省,[],[],2,[],金融保险服务;自动提款机;中国建设银行ATM,160303
晋阳路278号,武侯区,[],[],[],成都市,[],B0FFFABGL0,[],"103.998298,30.650358",中国建设银行24小时自助银行(晋阳路),[],[],四川省,[],[],2,[],金融保险服务;自动提款机;中国建设银行ATM,160303
锦华路三段27,双流区,[],[],[],成都市,[],B0FFFGYQB5,[],"103.984267,30.576367",中国建设银行24小时自助银行(锦华路三段),[],[],四川省,[],[],2,[],金融保险服务;自动提款机;中国建设银行ATM,160303
蜀通街29号之2-3号,金牛区,[],[],[],成都市,[],B0FFG34ZOY,[],"104.028757,30.684634",中国建设银行24小时自助银行(蜀通街),[],[],四川省,[],[],2,[],金融保险服务;自动提款机;中国建设银行ATM,160303
逸都路6号伊藤洋华堂1层,武侯区,[],[],201,成都市,[],B0FFG17K43,[],"104.020817,30.646150",中国建设银行ATM(伊藤洋华堂),B0FFF0DTTF,[],四川省,[],[],2,[],金融保险服务;自动提款机;中国建设银行ATM,160303
双林路228号附15-19号,成华区,[],[],[],成都市,[],B0FFFACABP,[],"104.102710,30.656244",中国建设银行24小时自助银行(成都双林支行),[],[],四川省,[],[],2,[],金融保险服务;自动提款机;中国建设银行ATM,160303
祥和里7,成华区,[],[],[],成都市,[],B0FFFABBXL,[],"104.098498,30.656676",中国建设银行ATM,[],[],四川省,[],[],2,[],金融保险服务;自动提款机;中国建设银行ATM,160303
武阳中路54号,新津区,[],[],3,成都市,[],B0FFF5TQAH,[],"103.813794,30.411405",中国建设银行24小时自助银行(武阳中路储蓄所),B001C7UXXT,[],四川省,[],[],2,[],金融保险服务;自动提款机;中国建设银行ATM,160303
[],青羊区,[],[],[],成都市,[],B001C92EDV,[],"104.072574,30.677526",中国建设银行24小时自助银行(大安西路),[],[],四川省,[],[],2,[],金融保险服务;自动提款机;中国建设银行ATM,160303
东秀二路219号附2,成华区,[],[],[],成都市,[],B001C92CHJ,[],"104.120341,30.659054",中国建设银行ATM(东秀二路),[],[],四川省,[],[],2,[],金融保险服务;自动提款机;中国建设银行ATM,160303
吉祥街1号附5-8,青羊区,[],[],3,成都市,[],B001C7WQY3,[],"104.055918,30.667975",中国建设银行24小时自助银行(锦城支行),B001C7WQY2,[],四川省,[],[],2,[],金融保险服务;自动提款机;中国建设银行ATM,160303
高升桥东路22号附10号,武侯区,[],[],3,成都市,[],B001C7USKP,[],"104.040322,30.632581",中国建设银行24小时自助银行(高升东路支行),B001C06IOX,[],四川省,[],[],2,[],金融保险服务;自动提款机;中国建设银行ATM,160303
西安南路69号附11号,金牛区,[],[],202,成都市,[],B001C7UFKM,[],"104.047086,30.666263",中国建设银行24小时自助银行(西安南路分理处),B001C7X8Y5,[],四川省,[],[],2,[],金融保险服务;自动提款机;中国建设银行ATM,160303
双丰中路256号-附28号,武侯区,[],[],[],成都市,[],B0FFGCERGG,[],"104.017943,30.640286",中国建设银行24小时自助银行(双丰东路),[],[],四川省,[],[],2,[],金融保险服务;自动提款机;中国建设银行ATM,160303
成华大道新鸿路237号,成华区,[],[],3,成都市,[],B001C7UNGD,[],"104.106842,30.661964",中国建设银行24小时自助银行(新鸿支行),B001C7UNGC,[],四川省,[],[],2,[],金融保险服务;自动提款机;中国建设银行ATM,160303
八里小区新风路1号圣合苑,成华区,[],[],[],成都市,[],B001C06DNT,[],"104.111892,30.684701",中国建设银行24小时自助银行(桃蹊路),[],[],四川省,[],[],2,[],金融保险服务;自动提款机;中国建设银行ATM,160303
厚诚路8成都海峡茶城4栋101,新都区,[],[],[],成都市,[],B0FFFHBG8S,[],"104.146360,30.780719",中国建设银行24小时自助银行(厚诚路),[],[],四川省,[],[],2,[],金融保险服务;自动提款机;中国建设银行ATM,160303
君平大道与西较场口交叉口北100米,邛崃市,[],[],[],成都市,[],B0FFGIY08M,[],"103.459972,30.421888",中国建设银行24小时自助银行(城北支行),[],[],四川省,[],[],2,[],金融保险服务;自动提款机;中国建设银行ATM,160303
围城北路中段与箭道街交叉口北50米,大邑县,[],[],[],成都市,[],B0FFGI1DDD,[],"103.522134,30.589777",中国建设银行ATM(箭道街),[],[],四川省,[],[],2,[],金融保险服务;自动提款机;中国建设银行ATM,160303
朝阳大道上段129,蒲江县,[],[],[],成都市,[],B0FFF5WOTE,[],"103.511177,30.191686",中国建设银行24小时自助银行(朝阳大道),[],[],四川省,[],[],2,[],金融保险服务;自动提款机;中国建设银行ATM,160303
棉花街289号,邛崃市,[],[],[],成都市,[],B0FFF5TW7O,[],"103.464801,30.418019",中国建设银行24小时自助银行(棉花街),[],[],四川省,[],[],2,[],金融保险服务;自动提款机;中国建设银行ATM,160303
飞虎路119号,蒲江县,[],[],[],成都市,[],B0FFF3AEXE,[],"103.519450,30.196584",中国建设银行24小时自助银行(蒲江朝阳大道支行),[],[],四川省,[],[],2,[],金融保险服务;自动提款机;中国建设银行ATM,160303
双桥路170号附5号,成华区,[],[],[],成都市,[],B0FFFWHRGU,[],"104.106242,30.650063",中国建设银行24小时自助银行(双桥路),[],[],四川省,[],[],2,[],金融保险服务;自动提款机;中国建设银行ATM,160303
华路街45号,双流区,[],[],[],成都市,[],B0FFFOE7EY,[],"104.087754,30.553510",中国建设银行24小时自助银行(华路街),[],[],四川省,[],[],2,[],金融保险服务;自动提款机;中国建设银行ATM,160303
驿都东路1140-1144号,龙泉驿区,[],[],3,成都市,[],B001C7VRCP,[],"104.261861,30.560841",中国建设银行24小时自助银行(成都经济技术开发区支行),B001C7VRDJ,[],四川省,[],[],2,[],金融保险服务;自动提款机;中国建设银行ATM,160303
红建路北段391号老交警队旁边,简阳市,[],[],[],成都市,[],B0FFFFMB1Q,[],"104.554623,30.390470",中国建设银行24小时自助银行(红建路支行),[],[],四川省,[],[],2,[],金融保险服务;自动提款机;中国建设银行ATM,160303
成德街与西江东路交叉口南50米,龙泉驿区,[],[],[],成都市,[],B001C8MSFF,[],"104.233177,30.650682",中国建设银行24小时自助银行(西江东路),[],[],四川省,[],[],2,[],金融保险服务;自动提款机;中国建设银行ATM,160303
世纪城路天府软件园A5座,武侯区,[],[],202,成都市,[],B0FFH20NE0,[],"104.070992,30.550950",中国建设银行24小时自助银行(成都高新支行),B001C93C46,[],四川省,[],[],2,[],金融保险服务;自动提款机;中国建设银行ATM,160303
府城大道西段520附近,武侯区,[],[],[],成都市,[],B0FFG58ZWN,[],"104.052393,30.589843",中国建设银行ATM,[],[],四川省,[],[],2,[],金融保险服务;自动提款机;中国建设银行ATM,160303
盛华北路266号,武侯区,[],[],[],成都市,[],B0FFFODRVJ,[],"104.053022,30.555323",中国建设银行24小时自助银行(盛华北路),[],[],四川省,[],[],2,[],金融保险服务;自动提款机;中国建设银行ATM,160303
蜀鑫路与金福路交叉口东北50米,青羊区,[],[],[],成都市,[],B0FFHUI9QP,[],"103.988508,30.678291",中国建设银行24小时自助银行(蜀鑫路支行),[],[],四川省,[],[],2,[],金融保险服务;自动提款机;中国建设银行ATM,160303
蜀州北路47-53号,崇州市,[],[],3,成都市,[],B001C8OECG,[],"103.669587,30.633160",中国建设银行24小时自助银行(蜀州北路支行),B001C06VLU,[],四川省,[],[],2,[],金融保险服务;自动提款机;中国建设银行ATM,160303
正东中街69-71,双流区,[],[],3,成都市,[],B001C8OB1S,[],"104.060477,30.502642",中国建设银行24小时自助银行(华阳支行),B001C8OC3A,[],四川省,[],[],2,[],金融保险服务;自动提款机;中国建设银行ATM,160303
聚荟街377-381,武侯区,[],[],[],成都市,[],B0FFGFXD17,[],"103.996647,30.624880",中国建设银行24小时自助银行(尚品广场支行),[],[],四川省,[],[],2,[],金融保险服务;自动提款机;中国建设银行ATM,160303
翠风路408号,锦江区,[],[],[],成都市,[],B0FFGFJRID,[],"104.089216,30.604121",中国建设银行ATM(翠风路),[],[],四川省,[],[],2,[],金融保险服务;自动提款机;中国建设银行ATM,160303
红建路南段3号附近,简阳市,[],[],[],成都市,[],B0FFJHJ1OZ,[],"104.558160,30.383674",中国建设银行ATM,[],[],四川省,[],[],2,[],金融保险服务;自动提款机;中国建设银行ATM,160303
三强北路二段88号附近,双流区,[],[],[],成都市,[],B0FFFXX0A2,[],"103.933627,30.574619",中国建设银行ATM(三强北路二段),[],[],四川省,[],[],2,[],金融保险服务;自动提款机;中国建设银行ATM,160303
南街311号,邛崃市,[],[],3,成都市,[],B001C7VRDW,[],"103.459959,30.407507",中国建设银行24小时自助银行(文庙街储蓄所),B001C7TK8P,[],四川省,[],[],2,[],金融保险服务;自动提款机;中国建设银行ATM,160303
蜚虹路365-367号,邛崃市,[],[],[],成都市,[],B0FFFADMPE,[],"103.475494,30.417132",中国建设银行24小时自助银行(君平大道支行),[],[],四川省,[],[],2,[],金融保险服务;自动提款机;中国建设银行ATM,160303
龙都南路35号,龙泉驿区,[],[],[],成都市,[],B0FFFAD4X3,[],"104.261623,30.564665",中国建设银行24小时自助银行(佳园东南),[],[],四川省,[],[],2,[],金融保险服务;自动提款机;中国建设银行ATM,160303
[],郫都区,[],[],[],成都市,[],B0FFF00CXP,[],"103.930569,30.776196",中国建设银行ATM(尚华路),[],[],四川省,[],[],2,[],金融保险服务;自动提款机;中国建设银行ATM,160303
世纪大道324号附近,崇州市,[],[],[],成都市,[],B0FFG2U382,[],"103.696046,30.635201",中国建设银行ATM(长城路),[],[],四川省,[],[],2,[],金融保险服务;自动提款机;中国建设银行ATM,160303
华都大道东一段与梓潼一街交叉口东北100米,郫都区,[],[],[],成都市,[],B0FFHMZHCQ,[],"103.985733,30.749658",中国建设银行24小时自助银行(合能四季城2期西),[],[],四川省,[],[],2,[],金融保险服务;自动提款机;中国建设银行ATM,160303
中和大道二段2号,双流区,[],[],[],成都市,[],B0FFG8PY7Z,[],"104.086904,30.548190",中国建设银行24小时自助银行(中和大道支行),[],[],四川省,[],[],2,[],金融保险服务;自动提款机;中国建设银行ATM,160303
滨江路二段232号,金堂县,[],[],[],成都市,[],B0FFFV4L7S,[],"104.404222,30.859098",中国建设银行ATM(滨江路二段),[],[],四川省,[],[],2,[],金融保险服务;自动提款机;中国建设银行ATM,160303
通锦路288号附46,都江堰市,[],[],[],成都市,[],B0FFF3A67W,[],"103.643653,30.975460",中国建设银行24小时自助银行(通锦路),[],[],四川省,[],[],2,[],金融保险服务;自动提款机;中国建设银行ATM,160303
213国道附近,郫都区,[],[],202,成都市,[],B0FFFCSBLN,[],"103.976496,30.756368",中国建设银行ATM(国宁东路),B0FFFEVXVO,[],四川省,[],[],2,[],金融保险服务;自动提款机;中国建设银行ATM,160303
顺城街27号,双流区,[],[],3,成都市,[],B001C7VRDS,[],"103.922932,30.574334",中国建设银行24小时自助银行(双流分行),B001C7VRDR,[],四川省,[],[],2,[],金融保险服务;自动提款机;中国建设银行ATM,160303
燕鲁公所街与红星路二段交叉口西北50米,锦江区,[],[],[],成都市,[],B0FFHRN7DQ,[],"104.083830,30.661616",中国建设银行成都市第三支行停车场(出入口),[],[],四川省,[],[],2,[],金融保险服务;银行;中国建设银行,160106
新河路8号中铁大厦,青白江区,[],[],202,成都市,[],B001C7U2OD,[],"104.256394,30.885433",中国建设银行24小时自助银行(成都青白江支行人民广场储蓄所),B001C7U2OA,[],四川省,[],[],2,[],金融保险服务;自动提款机;中国建设银行ATM,160303
解放西街7号附12号,金牛区,[],[],[],成都市,[],B0FFGZMTZP,[],"104.084131,30.688691",中国建设银行24小时自助银行(华安路),[],[],四川省,[],[],2,[],金融保险服务;自动提款机;中国建设银行ATM,160303
丽都路16号附3号,武侯区,[],[],3,成都市,[],B001C8O4SS,[],"104.032218,30.624756",中国建设银行24小时自助银行(丽都路支行),B001C8O3FB,[],四川省,[],[],2,[],金融保险服务;自动提款机;中国建设银行ATM,160303
紫瑞大道166号附8号,武侯区,[],[],[],成都市,[],B0FFFGYR32,[],"104.043294,30.611884",中国建设银行24小时自助银行(紫瑞大道),[],[],四川省,[],[],2,[],金融保险服务;自动提款机;中国建设银行ATM,160303
[],彭州市,[],[],[],成都市,[],B0HGPUV2XB,[],"103.933019,30.988266",中国建设银行,[],[],四川省,[],[],2,[],金融保险服务;银行;中国建设银行,160106
广场西路与健民路交叉路口西北侧,蒲江县,[],[],[],成都市,[],B0HB1XGWC1,[],"103.512818,30.190659",中国建设银行,[],[],四川省,[],[],2,[],金融保险服务;银行;中国建设银行,160106
华金大道二段与芳邻路交叉口东南100米,青白江区,[],[],[],成都市,[],B0FFG0Z8PR,[],"104.262399,30.882811",中国建设银行24小时自助银行(芳邻路),[],[],四川省,[],[],2,[],金融保险服务;自动提款机;中国建设银行ATM,160303
二环路东三段40号国美电器(万年场商城店)附近,成华区,[],[],3,成都市,[],B001C7Y8HW,[],"104.115595,30.651072",中国建设银行24小时自助银行(双庆路支行),B001C055WS,[],四川省,[],[],2,[],金融保险服务;自动提款机;中国建设银行ATM,160303
蓝岸街5号,金牛区,[],[],[],成都市,[],B0FFG3NSDG,[],"103.979886,30.717399",中国建设银行24小时自助银行(蓝岸街),[],[],四川省,[],[],2,[],金融保险服务;自动提款机;中国建设银行ATM,160303
状元街191号,新都区,[],[],[],成都市,[],B0FFFSKQ3I,[],"104.153163,30.824460",中国建设银行24小时自助银行(状元街),[],[],四川省,[],[],2,[],金融保险服务;自动提款机;中国建设银行ATM,160303
提督街86-88号,青羊区,[],[],3,成都市,[],B001C7VRD7,[],"104.073477,30.659446",中国建设银行24小时自助银行(岷江支行),B001C7VRD6,[],四川省,[],[],2,[],金融保险服务;自动提款机;中国建设银行ATM,160303
树蓓巷35-43,金牛区,[],[],[],成都市,[],B0FFGQLKOU,[],"104.090573,30.684983",中国建设银行24小时自助银行(李家沱储蓄所),[],[],四川省,[],[],2,[],金融保险服务;自动提款机;中国建设银行ATM,160303
紫荆东路38号附4号,武侯区,[],[],[],成都市,[],B0FFG7H1ZI,[],"104.055927,30.612841",中国建设银行24小时自助银行(紫荆东路),[],[],四川省,[],[],2,[],金融保险服务;自动提款机;中国建设银行ATM,160303
肖家河沿街7号附1号,武侯区,[],[],[],成都市,[],B001C7USUI,[],"104.045687,30.628217",中国建设银行ATM(肖家河沿街),[],[],四川省,[],[],2,[],金融保险服务;自动提款机;中国建设银行ATM,160303
乡农市街59号附17号,金牛区,[],[],3,成都市,[],B001C7UDRJ,[],"104.043289,30.684473",中国建设银行24小时自助银行(金牛支行),B001C7UDRI,[],四川省,[],[],2,[],金融保险服务;自动提款机;中国建设银行ATM,160303
抚琴西路244-246号,金牛区,[],[],3,成都市,[],B001C7UCH7,[],"104.033100,30.680236",中国建设银行24小时自助银行(抚琴西路支行),B001C05CUY,[],四川省,[],[],2,[],金融保险服务;自动提款机;中国建设银行ATM,160303
人民中路一段28号成都房地产大厦,青羊区,[],[],202,成都市,[],B001C7U8YK,[],"104.065330,30.664877",中国建设银行24小时自助银行(后子门支行),B001C7U8Y9,[],四川省,[],[],2,[],金融保险服务;自动提款机;中国建设银行ATM,160303
东大街芷泉段11号,锦江区,[],[],3,成都市,[],B001C0AGA5,[],"104.087048,30.648641",中国建设银行24小时自助银行(东门大桥支行),B001C7XYVJ,[],四川省,[],[],2,[],金融保险服务;自动提款机;中国建设银行ATM,160303
金仙桥路7号,金牛区,[],[],3,成都市,[],B001C0AG92,[],"104.052802,30.677298",中国建设银行24小时自助银行(金仙桥支行),B001C0AG91,[],四川省,[],[],2,[],金融保险服务;自动提款机;中国建设银行ATM,160303
岷江街与岷江南三巷交叉口东北150米,郫都区,[],[],[],成都市,[],B0FFGLDLOX,[],"103.956100,30.761483",中国建设银行24小时自助银行(犀城旺座西北),[],[],四川省,[],[],2,[],金融保险服务;自动提款机;中国建设银行ATM,160303
临邛镇司马大道,邛崃市,[],[],3,成都市,[],B001C7ZZZL,[],"103.458330,30.401639",中国建设银行24小时自助银行(司马大道支行),B001C7ZZZK,[],四川省,[],[],2,[],金融保险服务;自动提款机;中国建设银行ATM,160303
喜树街758附近,锦江区,[],[],[],成都市,[],B0FFFT4UWH,[],"104.144759,30.593591",中国建设银行24小时自助银行(喜树街),[],[],四川省,[],[],2,[],金融保险服务;自动提款机;中国建设银行ATM,160303
鱼凫路52号,温江区,[],[],[],成都市,[],B0FFFAD2W2,[],"103.836213,30.703219",中国建设银行24小时自助银行(鱼凫路),[],[],四川省,[],[],2,[],金融保险服务;自动提款机;中国建设银行ATM,160303
滨河北街110附近,龙泉驿区,[],[],[],成都市,[],B0FFFACUXE,[],"104.279983,30.560459",中国建设银行24小时自助银行(滨河北街),[],[],四川省,[],[],2,[],金融保险服务;自动提款机;中国建设银行ATM,160303
涧槽北街2-8,双流区,[],[],[],成都市,[],B001C95CX8,[],"103.910113,30.567440",中国建设银行24小时自助银行(新城支行),[],[],四川省,[],[],2,[],金融保险服务;自动提款机;中国建设银行ATM,160303
洗面桥东二街,武侯区,[],[],[],成都市,[],B0FFI11DTE,[],"104.056186,30.636237",中国建设银行24小时自助银行(小天西街储蓄所),[],[],四川省,[],[],2,[],金融保险服务;自动提款机;中国建设银行ATM,160303
太升北路64号附1,青羊区,[],[],[],成都市,[],B0FFFVDL6H,[],"104.083091,30.672330",中国建设银行24小时自助银行(曹家巷支行),[],[],四川省,[],[],2,[],金融保险服务;自动提款机;中国建设银行ATM,160303
金沙路16号民苑公寓一楼,金牛区,[],[],[],成都市,[],B001C063FF,[],"104.035836,30.683401",中国建设银行ATM(营通街),[],[],四川省,[],[],2,[],金融保险服务;自动提款机;中国建设银行ATM,160303
四川外国语学院成都学院内,都江堰市,[],[],[],成都市,[],B0FFHOT2G7,[],"103.577626,30.827728",中国建设银行ATM,[],[],四川省,[],[],2,[],金融保险服务;自动提款机;中国建设银行ATM,160303
商业街69号附7号,青羊区,[],[],[],成都市,[],B001C067YO,[],"104.056990,30.664677",中国建设银行ATM(商业街),[],[],四川省,[],[],2,[],金融保险服务;自动提款机;中国建设银行ATM,160303
辰居路285附近,崇州市,[],[],[],成都市,[],B001C956CQ,[],"103.674123,30.636874",中国建设银行24小时自助银行(辰居路支行),[],[],四川省,[],[],2,[],金融保险服务;自动提款机;中国建设银行ATM,160303
驷马桥路23号附8号(水畔经典小区),成华区,[],[],[],成都市,[],B0FFGCNHMO,[],"104.095876,30.695240",中国建设银行24小时自助银行(驷马桥路),[],[],四川省,[],[],2,[],金融保险服务;自动提款机;中国建设银行ATM,160303
佳宏路29附近,锦江区,[],[],[],成都市,[],B0FFG7GX4C,[],"104.126459,30.617468",中国建设银行24小时自助银行(佳宏路),[],[],四川省,[],[],2,[],金融保险服务;自动提款机;中国建设银行ATM,160303
青江北路95号,青白江区,[],[],[],成都市,[],B0FFG0Z9CZ,[],"104.257672,30.880394",中国建设银行24小时自助银行(青江北路),[],[],四川省,[],[],2,[],金融保险服务;自动提款机;中国建设银行ATM,160303
星灿街107号,青羊区,[],[],[],成都市,[],B0FFF304LA,[],"103.961082,30.687503",中国建设银行24小时自助银行(星灿街),[],[],四川省,[],[],2,[],金融保险服务;自动提款机;中国建设银行ATM,160303
沙堰街238号附25,武侯区,[],[],[],成都市,[],B001C92H6Q,[],"104.004150,30.657981",中国建设银行ATM,[],[],四川省,[],[],2,[],金融保险服务;自动提款机;中国建设银行ATM,160303
三强东路二段73,双流区,[],[],[],成都市,[],B001C9233P,[],"103.933597,30.565452",中国建设银行24小时自助银行(新秀花园东南),[],[],四川省,[],[],2,[],金融保险服务;自动提款机;中国建设银行ATM,160303
锦东路430号,锦江区,[],[],[],成都市,[],B001C929N4,[],"104.102591,30.641012",中国建设银行ATM(锦东路),[],[],四川省,[],[],2,[],金融保险服务;自动提款机;中国建设银行ATM,160303
迎宾路61-65号,都江堰市,[],[],3,成都市,[],B001C0AGDA,[],"103.635412,30.984393",中国建设银行24小时自助银行(迎宾路支行),B001C068MF,[],四川省,[],[],2,[],金融保险服务;自动提款机;中国建设银行ATM,160303
武侯大道顺江段和武兴一路的交叉口附近,武侯区,[],[],[],成都市,[],B0FFFQT7SP,[],"103.995510,30.628651",中国建设银行24小时自助银行(武兴一路),[],[],四川省,[],[],2,[],金融保险服务;自动提款机;中国建设银行ATM,160303
大源街35-37号附近,武侯区,[],[],[],成都市,[],B0FFG7IWGU,[],"104.032424,30.551938",中国建设银行24小时自助银行(双源社区145号院东南),[],[],四川省,[],[],2,[],金融保险服务;自动提款机;中国建设银行ATM,160303
白衣下街与白衣中街交叉口北150米,双流区,[],[],[],成都市,[],B0FFG77MRZ,[],"103.914224,30.581161",中国建设银行24小时自助银行(翰林风华南),[],[],四川省,[],[],2,[],金融保险服务;自动提款机;中国建设银行ATM,160303
[],青羊区,[],[],[],成都市,[],B001C7XYV4,[],"103.987705,30.677693",中国建设银行ATM(蜀鑫路),[],[],四川省,[],[],2,[],金融保险服务;自动提款机;中国建设银行ATM,160303
迎晖路194号,成华区,[],[],[],成都市,[],B001C05873,[],"104.128039,30.635881",中国建设银行ATM(迎晖路),[],[],四川省,[],[],2,[],金融保险服务;自动提款机;中国建设银行ATM,160303
四道街7号附2号,青羊区,[],[],[],成都市,[],B0FFG0Z1SR,[],"104.055195,30.671713",中国建设银行24小时自助银行(四道街),[],[],四川省,[],[],2,[],金融保险服务;自动提款机;中国建设银行ATM,160303
文庙西街1号附9号,青羊区,[],[],[],成都市,[],B001C92DVV,[],"104.056672,30.652220",中国建设银行24小时自助银行(文庙前街),[],[],四川省,[],[],2,[],金融保险服务;自动提款机;中国建设银行ATM,160303
清溪东路80号附9号,青羊区,[],[],[],成都市,[],B001C929DO,[],"104.027115,30.677335",中国建设银行ATM(清溪东路),[],[],四川省,[],[],2,[],金融保险服务;自动提款机;中国建设银行ATM,160303
二环路西二段10号附4号,青羊区,[],[],[],成都市,[],B0FFG3534X,[],"104.022330,30.666401",中国建设银行ATM(盛世草堂东北),[],[],四川省,[],[],2,[],金融保险服务;自动提款机;中国建设银行ATM,160303
金彭西路360-362号,彭州市,[],[],[],成都市,[],B0FFFPA4GM,[],"103.933008,30.988287",中国建设银行24小时自助银行(金彭西路),[],[],四川省,[],[],2,[],金融保险服务;自动提款机;中国建设银行ATM,160303
光荣北路与文家东巷交叉口西南100米,金牛区,[],[],[],成都市,[],B0FFGFP1X2,[],"104.046570,30.686572",中国建设银行24小时自助银行(光荣北路),[],[],四川省,[],[],2,[],金融保险服务;自动提款机;中国建设银行ATM,160303
华油路6号附30号,成华区,[],[],[],成都市,[],B0FFFAAV8L,[],"104.094364,30.678615",中国建设银行24小时自助银行(华安路),[],[],四川省,[],[],2,[],金融保险服务;自动提款机;中国建设银行ATM,160303
二仙桥东三路1(成都理工大学),成华区,[],[],[],成都市,[],B0FFFZJ9NS,[],"104.148691,30.672679",中国建设银行ATM(银杏路),[],[],四川省,[],[],2,[],金融保险服务;自动提款机;中国建设银行ATM,160303
犀安路999号西南交通大学犀浦校区菁华路附近,郫都区,[],[],[],成都市,[],B0FFFCVSZO,[],"103.983147,30.760625",中国建设银行24小时自助银行(西南交大新校区储蓄所),[],[],四川省,[],[],2,[],金融保险服务;自动提款机;中国建设银行ATM,160303
洞子口路158号附16号,金牛区,[],[],[],成都市,[],B0FFG257OG,[],"104.053076,30.722785",中国建设银行24小时自助银行(中环路洞子口路段),[],[],四川省,[],[],2,[],金融保险服务;自动提款机;中国建设银行ATM,160303
十里大道1段769号,金堂县,[],[],[],成都市,[],B0FFG6570M,[],"104.412062,30.859817",中国建设银行ATM(雅典园西),[],[],四川省,[],[],2,[],金融保险服务;自动提款机;中国建设银行ATM,160303
中环路高攀东路段37号附近,武侯区,[],[],[],成都市,[],B0FFGDCFDQ,[],"104.082016,30.607483",中国建设银行ATM,[],[],四川省,[],[],2,[],金融保险服务;自动提款机;中国建设银行ATM,160303
赵镇复兴街54号,金堂县,[],[],3,成都市,[],B001C7U3CS,[],"104.437834,30.854972",中国建设银行24小时自助银行(金堂支行),B001C0AGAP,[],四川省,[],[],2,[],金融保险服务;自动提款机;中国建设银行ATM,160303
静康路与静沙南路交叉口南100米,锦江区,[],[],[],成都市,[],B0FFFCLLTR,[],"104.115013,30.619242",中国建设银行24小时自助银行(沙河支行),[],[],四川省,[],[],2,[],金融保险服务;自动提款机;中国建设银行ATM,160303
东星大道2号,邛崃市,[],[],[],成都市,[],B0FFG7IYS5,[],"103.465681,30.405377",中国建设银行24小时自助银行(东星大道),[],[],四川省,[],[],2,[],金融保险服务;自动提款机;中国建设银行ATM,160303
人民路18-19号,邛崃市,[],[],3,成都市,[],B0FFF5TZ9C,[],"103.461903,30.413769",中国建设银行24小时自助银行(鼓楼支行),B001C06U7S,[],四川省,[],[],2,[],金融保险服务;自动提款机;中国建设银行ATM,160303
五丁路9号附1号,金牛区,[],[],3,成都市,[],B001C7WQXV,[],"104.065252,30.683883",中国建设银行24小时自助银行(成都铁道支行),B001C7WQXU,[],四川省,[],[],2,[],金融保险服务;自动提款机;中国建设银行ATM,160303
仁和街103-113,武侯区,[],[],[],成都市,[],B001C93K6B,[],"104.030902,30.581670",中国建设银行24小时自助银行,[],[],四川省,[],[],2,[],金融保险服务;自动提款机;中国建设银行ATM,160303
万象南路143号,武侯区,[],[],[],成都市,[],B0FFH9V9GF,[],"104.050036,30.578711",中国建设银行24小时自助银行(成都城南支行),[],[],四川省,[],[],2,[],金融保险服务;自动提款机;中国建设银行ATM,160303
净居寺路18号,锦江区,[],[],[],成都市,[],B0FFFAAW4B,[],"104.105180,30.623079",中国建设银行ATM(净居寺路),[],[],四川省,[],[],2,[],金融保险服务;自动提款机;中国建设银行ATM,160303
电信南街28号,武侯区,[],[],202,成都市,[],B001C8OKIZ,[],"104.061365,30.636678",中国建设银行24小时自助银行(小学路),B001C8VG70,[],四川省,[],[],2,[],金融保险服务;自动提款机;中国建设银行ATM,160303
二环路北一段10号凯德广场(沙湾店)F1层,金牛区,[],[],201,成都市,[],B001C7WC9E,[],"104.045951,30.693150",中国建设银行ATM(金沙路储蓄所),B001C8P4N9,[],四川省,[],[],2,[],金融保险服务;自动提款机;中国建设银行ATM,160303
盛华南路122号,武侯区,[],[],[],成都市,[],B0FFF3AE9P,[],"104.053664,30.548653",中国建设银行24小时自助银行(复地・雍湖湾东南),[],[],四川省,[],[],2,[],金融保险服务;自动提款机;中国建设银行ATM,160303
朗润路3号附22号,金牛区,[],[],[],成都市,[],B0FFF3AA3E,[],"104.062038,30.727193",中国建设银行24小时自助银行(朗润路),[],[],四川省,[],[],2,[],金融保险服务;自动提款机;中国建设银行ATM,160303
东升街道星空路999号双流万达广场F1,双流区,[],[],202,成都市,[],B0FFHK9SWR,[],"103.926936,30.597553",中国建设银行24小时自助银行(万达广场),B0FFGHQETT,[],四川省,[],[],2,[],金融保险服务;自动提款机;中国建设银行ATM,160303
海桐街412-416号附近,锦江区,[],[],[],成都市,[],B0FFG0YSN4,[],"104.132299,30.608421",中国建设银行24小时自助银行,[],[],四川省,[],[],2,[],金融保险服务;自动提款机;中国建设银行ATM,160303
武青东四路10-7号附近,武侯区,[],[],[],成都市,[],B0FFGFUQH1,[],"103.986781,30.638950",中国建设银行ATM(武青东四路),[],[],四川省,[],[],2,[],金融保险服务;自动提款机;中国建设银行ATM,160303
静安路3号附68号,新都区,[],[],[],成都市,[],B0FFFGNP67,[],"104.179586,30.813776",中国建设银行24小时自助银行(静安路),[],[],四川省,[],[],2,[],金融保险服务;自动提款机;中国建设银行ATM,160303
日月大道一段,青羊区,[],[],[],成都市,[],B0FFFE1Q72,[],"103.961795,30.676246",中国建设银行ATM,[],[],四川省,[],[],2,[],金融保险服务;自动提款机;中国建设银行ATM,160303
两河路西段273号,温江区,[],[],[],成都市,[],B001C92BVV,[],"103.835654,30.685664",中国建设银行24小时自助银行(两河路西段),[],[],四川省,[],[],2,[],金融保险服务;自动提款机;中国建设银行ATM,160303
迎春路三段130号,双流区,[],[],[],成都市,[],B001C91Z20,[],"103.919692,30.579588",中国建设银行24小时自助银行(迎春路三段),[],[],四川省,[],[],2,[],金融保险服务;自动提款机;中国建设银行ATM,160303
江安中路295号,都江堰市,[],[],[],成都市,[],B001C91YP2,[],"103.626242,30.983927",中国建设银行24小时自助银行(中山北路),[],[],四川省,[],[],2,[],金融保险服务;自动提款机;中国建设银行ATM,160303
成都市郫都区一环路东南段234号,郫都区,[],[],[],成都市,[],B001C8OBWN,[],"103.884344,30.807288",中国建设银行24小时自助银行(望丛中路),[],[],四川省,[],[],2,[],金融保险服务;自动提款机;中国建设银行ATM,160303
圣谕亭巷241号,新都区,[],[],[],成都市,[],B001C8NS49,[],"104.164047,30.827030",中国建设银行24小时自助银行,[],[],四川省,[],[],2,[],金融保险服务;自动提款机;中国建设银行ATM,160303
武侯大道双楠段60-附8号附近,武侯区,[],[],[],成都市,[],B0FFGFJN6M,[],"104.014283,30.636087",中国建设银行24小时自助银行(武侯大道双楠段),[],[],四川省,[],[],2,[],金融保险服务;自动提款机;中国建设银行ATM,160303
顺城街252号顺吉大厦1层建行,青羊区,[],[],202,成都市,[],B0FFFQ68QA,[],"104.071024,30.663928",中国建设银行24小时自助银行(体育场路分理处),B001C7SZV4,[],四川省,[],[],2,[],金融保险服务;自动提款机;中国建设银行ATM,160303
蓉北商贸大道一段13附近,金牛区,[],[],202,成都市,[],B0FFFAC5YT,[],"104.065974,30.702957",中国建设银行24小时自助银行(赛云台西一路),B001C8MMXC,[],四川省,[],[],2,[],金融保险服务;自动提款机;中国建设银行ATM,160303
东光街11号附19号,锦江区,[],[],[],成都市,[],B0FFFCLM3G,[],"104.103833,30.617960",中国建设银行ATM(东光街),[],[],四川省,[],[],2,[],金融保险服务;自动提款机;中国建设银行ATM,160303
金科苑路43号,金牛区,[],[],[],成都市,[],B0FFFFUCAD,[],"103.987467,30.711606",中国建设银行24小时自助银行(金科苑路),[],[],四川省,[],[],2,[],金融保险服务;自动提款机;中国建设银行ATM,160303
永兴西路与飞跃街交叉口东南50米,郫都区,[],[],[],成都市,[],B0FFIOVYNX,[],"103.825530,30.853053",中国建设银行ATM,[],[],四川省,[],[],2,[],金融保险服务;自动提款机;中国建设银行ATM,160303
经天西路69号附近,锦江区,[],[],[],成都市,[],B001C920Q7,[],"104.104835,30.597238",中国建设银行24小时自助银行,[],[],四川省,[],[],2,[],金融保险服务;自动提款机;中国建设银行ATM,160303
东打铜街85号冠城广场,青羊区,[],[],202,成都市,[],B001C7WQXZ,[],"104.071289,30.668970",中国建设银行24小时自助银行(冠城广场支行),B0FFH0JQLM,[],四川省,[],[],2,[],金融保险服务;自动提款机;中国建设银行ATM,160303
新风路191号,成华区,[],[],[],成都市,[],B0FFG352PH,[],"104.106924,30.689808",中国建设银行ATM(世家・东部时空西南),[],[],四川省,[],[],2,[],金融保险服务;自动提款机;中国建设银行ATM,160303
中环路金府路段777号41栋附近,金牛区,[],[],[],成都市,[],B0FFFPQG12,[],"104.043163,30.716856",中国建设银行24小时自助银行(成都金府国际支行),[],[],四川省,[],[],2,[],金融保险服务;自动提款机;中国建设银行ATM,160303
金罗路8号,金牛区,[],[],3,成都市,[],B001C7YQ5P,[],"104.032132,30.675244",中国建设银行24小时自助银行(金罗路支行),B001C06BCI,[],四川省,[],[],2,[],金融保险服务;自动提款机;中国建设银行ATM,160303
上同仁路与观音阁前街交叉口西北50米,青羊区,[],[],[],成都市,[],B0FFG06SML,[],"104.052540,30.672935",中国建设银行24小时自助银行(观音阁前街),[],[],四川省,[],[],2,[],金融保险服务;自动提款机;中国建设银行ATM,160303
西月城街28号,青羊区,[],[],3,成都市,[],B001C7WCQP,[],"104.052927,30.674840",中国建设银行24小时自助银行(西月城支行),B001C7WCQO,[],四川省,[],[],2,[],金融保险服务;自动提款机;中国建设银行ATM,160303
犀安路999号西南交通大学犀浦校区附近,郫都区,[],[],[],成都市,[],B0FFFCQWDZ,[],"103.979048,30.766348",中国建设银行ATM,[],[],四川省,[],[],2,[],金融保险服务;自动提款机;中国建设银行ATM,160303
长柏路283号,龙泉驿区,[],[],[],成都市,[],B0FFFAB0X7,[],"104.267800,30.552560",中国建设银行24小时自助银行,[],[],四川省,[],[],2,[],金融保险服务;自动提款机;中国建设银行ATM,160303
学院路东段与育英路交叉口西南100米,新都区,[],[],[],成都市,[],B0FFFVKELE,[],"104.180645,30.802927",中国建设银行24小时自助银行(育英路),[],[],四川省,[],[],2,[],金融保险服务;自动提款机;中国建设银行ATM,160303
云影路2号附8号,武侯区,[],[],3,成都市,[],B001C8VJS8,[],"104.018671,30.646245",中国建设银行24小时自助银行(云影路储蓄所),B001C92GES,[],四川省,[],[],2,[],金融保险服务;自动提款机;中国建设银行ATM,160303
科华北路66号,武侯区,[],[],[],成都市,[],B001C7UR1X,[],"104.076439,30.621508",中国建设银行ATM(棕南俊园东南),[],[],四川省,[],[],2,[],金融保险服务;自动提款机;中国建设银行ATM,160303
政通东路,温江区,[],[],[],成都市,[],B0HGC5HGNP,[],"103.865445,30.677919",中国建设银行24小时自助银行,[],[],四川省,[],[],2,[],金融保险服务;自动提款机;中国建设银行ATM,160303
锦华路二段122号,双流区,[],[],[],成都市,[],B0GUNOJSTA,[],"103.986583,30.569548",中国建设银行24小时自助银行(航空港支行),[],[],四川省,[],[],2,[],金融保险服务;自动提款机;中国建设银行ATM,160303
汇川街166-1栋附近,金牛区,[],[],[],成都市,[],B0G3O7AZ3F,[],"103.981969,30.720533",中国建设银行24小时自助银行(中海国际社区支行),[],[],四川省,[],[],2,[],金融保险服务;自动提款机;中国建设银行ATM,160303
槐树店一路,成华区,[],[],[],成都市,[],B0G1N95NVC,[],"104.134665,30.645894",中国建设银行24小时自助银行(成都鲁能城支行),[],[],四川省,[],[],2,[],金融保险服务;自动提款机;中国建设银行ATM,160303
蓉都大道天河路与承顺街交叉路口往北约200米,新都区,[],[],[],成都市,[],B0FFMHLO79,[],"104.132625,30.781349",中国建设银行ATM,[],[],四川省,[],[],2,[],金融保险服务;自动提款机;中国建设银行ATM,160303
蜀信东路2号,郫都区,[],[],[],成都市,[],B0FFMD6N0B,[],"103.894073,30.795770",中国建设银行24小时自助银行(鹃城支行),[],[],四川省,[],[],2,[],金融保险服务;自动提款机;中国建设银行ATM,160303
锦江大道与海棠路交叉路口往南约50米(合能锦城),锦江区,[],[],[],成都市,[],B0FFM8RC3T,[],"104.142118,30.595219",中国建设银行24小时自助银行(锦江大道),[],[],四川省,[],[],2,[],金融保险服务;自动提款机;中国建设银行ATM,160303
健民路77号,蒲江县,[],[],[],成都市,[],B0FFM5MOCR,[],"103.512827,30.190708",中国建设银行ATM,[],[],四川省,[],[],2,[],金融保险服务;自动提款机;中国建设银行ATM,160303
国学巷37号四川大学华西医院第六住院大楼F1,武侯区,[],[],[],成都市,[],B0FFLM1CQJ,[],"104.060677,30.640772",中国建设银行ATM,[],[],四川省,[],[],2,[],金融保险服务;自动提款机;中国建设银行ATM,160303
国学巷37号四川大学华西医院华西妇产儿童医院F1,武侯区,[],[],[],成都市,[],B0FFLLAHLZ,[],"104.065838,30.639120",中国建设银行ATM,[],[],四川省,[],[],2,[],金融保险服务;自动提款机;中国建设银行ATM,160303
永兴路411号东南70米,温江区,[],[],[],成都市,[],B0FFLKJBY6,[],"103.851134,30.682558",中国建设银行24小时自助银行(政通路分理处),[],[],四川省,[],[],2,[],金融保险服务;自动提款机;中国建设银行ATM,160303
双楠大道白衣上街177号城南优品道广场F1,双流区,[],[],202,成都市,[],B0FFLJ2HJN,[],"103.912974,30.597156",中国建设银行24小时自助银行(白衣支行),B0FFG1OEDK,[],四川省,[],[],2,[],金融保险服务;自动提款机;中国建设银行ATM,160303
民智巷,成华区,[],[],[],成都市,[],B0FFLF0JBD,[],"104.153816,30.682341",中国建设银行24小时自助银行,[],[],四川省,[],[],2,[],金融保险服务;自动提款机;中国建设银行ATM,160303
顺兴路与万顺路一段交叉路口西北侧(中信城右岸2期),双流区,[],[],[],成都市,[],B0FFL62GEJ,[],"104.026490,30.492824",中国建设银行ATM(成都万顺支行),[],[],四川省,[],[],2,[],金融保险服务;自动提款机;中国建设银行ATM,160303
应龙南一路,双流区,[],[],[],成都市,[],B0FFL549XF,[],"104.086613,30.532847",中国建设银行24小时自助银行(新川支行),[],[],四川省,[],[],2,[],金融保险服务;自动提款机;中国建设银行ATM,160303
永和大道,崇州市,[],[],[],成都市,[],B0FFL1IXNG,[],"103.765909,30.650557",中国建设银行ATM,[],[],四川省,[],[],2,[],金融保险服务;自动提款机;中国建设银行ATM,160303
天仁路259号附6号,武侯区,[],[],[],成都市,[],B0FFL1H1FY,[],"104.071750,30.601243",中国建设银行24小时自助银行,[],[],四川省,[],[],2,[],金融保险服务;自动提款机;中国建设银行ATM,160303
长顺路2段18号附近,双流区,[],[],[],成都市,[],B0FFL187QY,[],"103.933760,30.569038",中国建设银行24小时自助银行,[],[],四川省,[],[],2,[],金融保险服务;自动提款机;中国建设银行ATM,160303
邑邛故道400号附近,大邑县,[],[],[],成都市,[],B0FFKZWM7J,[],"103.502981,30.575023",中国建设银行24小时自助银行,[],[],四川省,[],[],2,[],金融保险服务;自动提款机;中国建设银行ATM,160303
南环街59号附近,邛崃市,[],[],[],成都市,[],B0FFKZ4B6X,[],"103.460162,30.404384",中国建设银行ATM,[],[],四川省,[],[],2,[],金融保险服务;自动提款机;中国建设银行ATM,160303
龙城大道82-88号附近,龙泉驿区,[],[],[],成都市,[],B0FFKYO5TJ,[],"104.196573,30.577031",中国建设银行24小时自助银行(龙泉航天支行),[],[],四川省,[],[],2,[],金融保险服务;自动提款机;中国建设银行ATM,160303
铁军路152号,都江堰市,[],[],[],成都市,[],B0FFKYFPAJ,[],"103.610503,30.960357",中国建设银行24小时自助银行(万达城支行),[],[],四川省,[],[],2,[],金融保险服务;自动提款机;中国建设银行ATM,160303
凤祥大道1429号,青白江区,[],[],[],成都市,[],B0FFKWYOCD,[],"104.280463,30.885370",中国建设银行24小时自助银行,[],[],四川省,[],[],2,[],金融保险服务;自动提款机;中国建设银行ATM,160303
芙蓉西路384号,锦江区,[],[],[],成都市,[],B0FFKWCHPH,[],"104.145764,30.606373",中国建设银行24小时自助银行(绿地中心支行),[],[],四川省,[],[],2,[],金融保险服务;自动提款机;中国建设银行ATM,160303
吉泰路与天府五街交叉口西北100米,武侯区,[],[],[],成都市,[],B0FFKVZKMS,[],"104.059973,30.538365",中国建设银行24小时自助银行(吉泰路支行),[],[],四川省,[],[],2,[],金融保险服务;自动提款机;中国建设银行ATM,160303
建设北路三段168-附6-8号附近,成华区,[],[],[],成都市,[],B0FFKVBFJW,[],"104.118268,30.678017",中国建设银行24小时自助银行(建设北路三段),[],[],四川省,[],[],2,[],金融保险服务;自动提款机;中国建设银行ATM,160303
彩虹大道南段与景环路交叉路口往东约100米,都江堰市,[],[],[],成都市,[],B0FFKUK31I,[],"103.655538,30.984548",中国建设银行24小时自助银行(都江堰支行),[],[],四川省,[],[],2,[],金融保险服务;自动提款机;中国建设银行ATM,160303
中环路洞子口路段与凤凰北路交叉口东100米,成华区,[],[],[],成都市,[],B0FFK8AR7M,[],"104.071721,30.716444",中国建设银行24小时自助银行,[],[],四川省,[],[],2,[],金融保险服务;自动提款机;中国建设银行ATM,160303
马鞍东路与马鞍南街交叉路口往西约100米,金牛区,[],[],[],成都市,[],B0FFK86853,[],"104.087842,30.674423",中国建设银行24小时自助银行,[],[],四川省,[],[],2,[],金融保险服务;自动提款机;中国建设银行ATM,160303
光华北五路78号,青羊区,[],[],[],成都市,[],B0FFK2CC4P,[],"103.956942,30.674417",中国建设银行24小时自助银行(成都颐城支行),[],[],四川省,[],[],2,[],金融保险服务;自动提款机;中国建设银行ATM,160303
东寺北二路1,双流区,[],[],[],成都市,[],B0FFK2BVI7,[],"104.076525,30.502841",中国建设银行24小时自助银行(梓州大道支行),[],[],四川省,[],[],2,[],金融保险服务;自动提款机;中国建设银行ATM,160303
168乡道与171乡道交叉口东南200米,简阳市,[],[],[],成都市,[],B0FFK00FR3,[],"104.400980,30.327344",中国建设银行24小时自助银行,[],[],四川省,[],[],2,[],金融保险服务;自动提款机;中国建设银行ATM,160303
警校路二段546附近,双流区,[],[],[],成都市,[],B0FFJSHD15,[],"104.014961,30.520042",中国建设银行ATM,[],[],四川省,[],[],2,[],金融保险服务;自动提款机;中国建设银行ATM,160303
万石路西100米,金牛区,[],[],[],成都市,[],B0FFJG1B92,[],"104.100744,30.768817",中国建设银行ATM,[],[],四川省,[],[],2,[],金融保险服务;自动提款机;中国建设银行ATM,160303
贝森路31号附1、2,青羊区,[],[],[],成都市,[],B0FFISXJMM,[],"104.003556,30.669502",中国建设银行24小时自助银行(贝森路支行),[],[],四川省,[],[],2,[],金融保险服务;自动提款机;中国建设银行ATM,160303
学苑东路与崇庆南路交叉口南150米,崇州市,[],[],[],成都市,[],B0FFI7VRPZ,[],"103.679090,30.614202",中国建设银行ATM(崇州传媒点),[],[],四川省,[],[],2,[],金融保险服务;自动提款机;中国建设银行ATM,160303
大新路与邬柏路交叉口西150米,大邑县,[],[],[],成都市,[],B0FFHNSU4N,[],"103.614067,30.520322",中国建设银行24小时自助银行,[],[],四川省,[],[],2,[],金融保险服务;自动提款机;中国建设银行ATM,160303
百锦路与龙井北街交叉口东50米,武侯区,[],[],[],成都市,[],B0FFG0ZE8Y,[],"103.992449,30.608862",中国建设银行24小时自助银行(百锦路),[],[],四川省,[],[],2,[],金融保险服务;自动提款机;中国建设银行ATM,160303
菱安路337-339,锦江区,[],[],[],成都市,[],B0FFFXUW7D,[],"104.117234,30.609113",中国建设银行24小时自助银行(四川师范大学储蓄所),[],[],四川省,[],[],2,[],金融保险服务;自动提款机;中国建设银行ATM,160303
致强环街与致强路交叉口西北50米,成华区,[],[],[],成都市,[],B0FFFV37OX,[],"104.112759,30.702717",中国建设银行ATM(致强路),[],[],四川省,[],[],2,[],金融保险服务;自动提款机;中国建设银行ATM,160303
泉水东路9号附66号,金牛区,[],[],[],成都市,[],B0FFFSRRBP,[],"104.061808,30.723916",中国建设银行ATM(泉水东路),[],[],四川省,[],[],2,[],金融保险服务;自动提款机;中国建设银行ATM,160303
万春东路24号附5号,温江区,[],[],[],成都市,[],B0FFFABDTV,[],"103.841777,30.701818",中国建设银行24小时自助银行(万春东路),[],[],四川省,[],[],2,[],金融保险服务;自动提款机;中国建设银行ATM,160303
东光小区东怡街1号附11号老邻居,锦江区,[],[],[],成都市,[],B0FFFABD4M,[],"104.100622,30.616427",中国建设银行ATM(东光南一巷),[],[],四川省,[],[],2,[],金融保险服务;自动提款机;中国建设银行ATM,160303
简城镇政府街45-47号(正中街与政府街交叉口),简阳市,[],[],[],成都市,[],B03400N8UQ,[],"104.546831,30.390484",中国建设银行24小时自助银行(简阳支行),[],[],四川省,[],[],2,[],金融保险服务;自动提款机;中国建设银行ATM,160303
简城镇政府街45-47号(正中街与政府街交叉口),简阳市,[],[],3,成都市,[],B034000R6M,[],"104.550550,30.391328",中国建设银行24小时自助银行(四川省分行),B034000ML8,[],四川省,[],[],2,[],金融保险服务;自动提款机;中国建设银行ATM,160303
东昌路25-29号,成华区,[],[],3,成都市,[],B001C8OT7I,[],"104.106607,30.713800",中国建设银行24小时自助银行(东昌路支行),B001C8OT6X,[],四川省,[],[],2,[],金融保险服务;自动提款机;中国建设银行ATM,160303
桐梓林路4号附24-27号,武侯区,[],[],3,成都市,[],B001C80SCC,[],"104.060888,30.611210",中国建设银行24小时自助银行(桐梓林支行),B001C80O8M,[],四川省,[],[],2,[],金融保险服务;自动提款机;中国建设银行ATM,160303
星河路90号附1号,金牛区,[],[],3,成都市,[],B001C7YPHM,[],"104.047176,30.707250",中国建设银行24小时自助银行(星辰支行),B001C7YPH6,[],四川省,[],[],2,[],金融保险服务;自动提款机;中国建设银行ATM,160303
二仙桥东三路1号附4号,成华区,[],[],[],成都市,[],B0FFGZMK6O,[],"104.138923,30.673655",中国建设银行ATM,[],[],四川省,[],[],2,[],金融保险服务;自动提款机;中国建设银行ATM,160303
长兴路107,武侯区,[],[],[],成都市,[],B001C92COF,[],"104.083396,30.611565",中国建设银行ATM,[],[],四川省,[],[],2,[],金融保险服务;自动提款机;中国建设银行ATM,160303
[],双流区,[],[],[],成都市,[],B0FFG7GVKJ,[],"104.046019,30.508049",中国建设银行ATM(华贵苑西),[],[],四川省,[],[],2,[],金融保险服务;自动提款机;中国建设银行ATM,160303
站北路38号站北分专柜,成华区,[],[],[],成都市,[],B0FFG34XMW,[],"104.075490,30.702953",中国建设银行24小时自助银行(站北路),[],[],四川省,[],[],2,[],金融保险服务;自动提款机;中国建设银行ATM,160303
双荆路8号附110号,成华区,[],[],[],成都市,[],B0FFGA6ML0,[],"104.091272,30.712612",中国建设银行ATM(双荆路),[],[],四川省,[],[],2,[],金融保险服务;自动提款机;中国建设银行ATM,160303
倪家桥路6号,武侯区,[],[],3,成都市,[],B001C7US8C,[],"104.062107,30.624723",中国建设银行24小时自助银行(倪家桥路储蓄所),B001C06T3K,[],四川省,[],[],2,[],金融保险服务;自动提款机;中国建设银行ATM,160303
建设路2号附19号,成华区,[],[],3,成都市,[],B001C8MGY6,[],"104.108264,30.670882",中国建设银行24小时自助银行(成都建设路支行),B001C8MGY5,[],四川省,[],[],2,[],金融保险服务;自动提款机;中国建设银行ATM,160303
正通路555号,双流区,[],[],[],成都市,[],B001C95CWB,[],"103.896009,30.578856",中国建设银行24小时自助银行(正通路),[],[],四川省,[],[],2,[],金融保险服务;自动提款机;中国建设银行ATM,160303
蜀西路55号,金牛区,[],[],[],成都市,[],B0FFF2IJYA,[],"103.998332,30.708152",中国建设银行24小时自助银行(蜀西路),[],[],四川省,[],[],2,[],金融保险服务;自动提款机;中国建设银行ATM,160303
中坝街76-78号,青羊区,[],[],[],成都市,[],B0FFF5TZLI,[],"103.976502,30.671394",中国建设银行24小时自助银行(苏坡支行),[],[],四川省,[],[],2,[],金融保险服务;自动提款机;中国建设银行ATM,160303
成汉中路107号,武侯区,[],[],[],成都市,[],B001C94P7G,[],"104.054641,30.594647",中国建设银行24小时自助银行(南城都汇支行),[],[],四川省,[],[],2,[],金融保险服务;自动提款机;中国建设银行ATM,160303
西南市街110号,彭州市,[],[],[],成都市,[],B0FFFPLXBT,[],"103.939320,30.982258",中国建设银行24小时自助银行(西南市街),[],[],四川省,[],[],2,[],金融保险服务;自动提款机;中国建设银行ATM,160303
南环路137附近,邛崃市,[],[],[],成都市,[],B0FFF3AEMM,[],"103.455303,30.405925",中国建设银行24小时自助银行,[],[],四川省,[],[],2,[],金融保险服务;自动提款机;中国建设银行ATM,160303
学府大道279号,金堂县,[],[],[],成都市,[],B0FFFAD2BP,[],"104.460177,30.847563",中国建设银行ATM(学府大道),[],[],四川省,[],[],2,[],金融保险服务;自动提款机;中国建设银行ATM,160303
下街384附近,郫都区,[],[],3,成都市,[],B001C92BGF,[],"103.974023,30.751688",中国建设银行24小时自助银行(郫都区支行高新分理处),B001C92BGG,[],四川省,[],[],2,[],金融保险服务;自动提款机;中国建设银行ATM,160303
大田坎街162号附32-34号,锦江区,[],[],3,成都市,[],B001C7Y9V7,[],"104.103119,30.643229",中国建设银行24小时自助银行(蜀都花园支行),B001C7Y8F8,[],四川省,[],[],2,[],金融保险服务;自动提款机;中国建设银行ATM,160303
城隍东巷52号四号区,青羊区,[],[],[],成都市,[],B0FFI05BI2,[],"104.071300,30.671870",中国建设银行24小时自助银行,[],[],四川省,[],[],2,[],金融保险服务;自动提款机;中国建设银行ATM,160303
人民中路二段86号,青羊区,[],[],3,成都市,[],B0FFHEOHMQ,[],"104.067578,30.672505",中国建设银行24小时自助银行(成都第五支行),B001C05N8I,[],四川省,[],[],2,[],金融保险服务;自动提款机;中国建设银行ATM,160303
肖家村二巷53-57号,金牛区,[],[],[],成都市,[],B0FFG1W9Q9,[],"104.075297,30.688298",中国建设银行24小时自助银行(成都人民北路支行),[],[],四川省,[],[],2,[],金融保险服务;自动提款机;中国建设银行ATM,160303
莲桂南路1附近,锦江区,[],[],[],成都市,[],B0FFG0YO2J,[],"104.096414,30.629251",中国建设银行24小时自助银行(莲桂南路),[],[],四川省,[],[],2,[],金融保险服务;自动提款机;中国建设银行ATM,160303
光荣西路67号(兴隆大厦),金牛区,[],[],202,成都市,[],B0FFG01H51,[],"104.042636,30.691084",中国建设银行24小时自助银行(兴隆大厦),B001C0A7A2,[],四川省,[],[],2,[],金融保险服务;自动提款机;中国建设银行ATM,160303
桃蹊路8号,成华区,[],[],[],成都市,[],B0FFFACCWE,[],"104.106281,30.680618",中国建设银行24小时自助银行(成都桃蹊路支行),[],[],四川省,[],[],2,[],金融保险服务;自动提款机;中国建设银行ATM,160303
永顺路274附近,武侯区,[],[],[],成都市,[],B0FFFAC492,[],"104.020775,30.635222",中国建设银行24小时自助银行(永顺路),[],[],四川省,[],[],2,[],金融保险服务;自动提款机;中国建设银行ATM,160303
交大路256号附6-7号,金牛区,[],[],3,成都市,[],B001C92H5D,[],"104.038378,30.708994",中国建设银行24小时自助银行(交大路支行),B001C92H5E,[],四川省,[],[],2,[],金融保险服务;自动提款机;中国建设银行ATM,160303
四圣祠南街8号附10,锦江区,[],[],[],成都市,[],B001C92BPF,[],"104.087075,30.658696",中国建设银行24小时自助银行(四圣祠南街),[],[],四川省,[],[],2,[],金融保险服务;自动提款机;中国建设银行ATM,160303
金瑞路148号,金牛区,[],[],3,成都市,[],B001C8OQIM,[],"104.010135,30.707167",中国建设银行24小时自助银行(成都迎宾支行),B001C8OL6D,[],四川省,[],[],2,[],金融保险服务;自动提款机;中国建设银行ATM,160303
董家湾北街3号附4-8号,武侯区,[],[],3,成都市,[],B001C80S9Y,[],"104.030866,30.632285",中国建设银行ATM(董家湾北街),B001C80QWX,[],四川省,[],[],2,[],金融保险服务;自动提款机;中国建设银行ATM,160303
海椒市街56号之附1-6号,锦江区,[],[],3,成都市,[],B001C7WQY5,[],"104.100311,30.636495",中国建设银行24小时自助银行(成都莲花新区支行),B001C0AGB0,[],四川省,[],[],2,[],金融保险服务;自动提款机;中国建设银行ATM,160303
晨辉路1号,锦江区,[],[],3,成都市,[],B001C7WGHM,[],"104.099779,30.610759",中国建设银行24小时自助银行(金象花园储蓄所),B001C7UR9F,[],四川省,[],[],2,[],金融保险服务;自动提款机;中国建设银行ATM,160303
二仙桥东三路1号,成华区,[],[],[],成都市,[],B001C80DL4,[],"104.140733,30.674740",中国建设银行ATM(怡东国际酒店东),[],[],四川省,[],[],2,[],金融保险服务;自动提款机;中国建设银行ATM,160303
人民南路三段17号附1号,武侯区,[],[],3,成都市,[],B001C7WQXT,[],"104.066801,30.638810",中国建设银行24小时自助银行(成都第九支行),B001C7WQXS,[],四川省,[],[],2,[],金融保险服务;自动提款机;中国建设银行ATM,160303
沙湾路262号附5-8号,金牛区,[],[],3,成都市,[],B001C7WQXR,[],"104.050878,30.689506",中国建设银行ATM(沙湾支行),B001C0AG9C,[],四川省,[],[],2,[],金融保险服务;自动提款机;中国建设银行ATM,160303
花月中街84号,双流区,[],[],[],成都市,[],B0FFG7GVAE,[],"103.914826,30.577974",中国建设银行24小时自助银行(百盛苑一期西南),[],[],四川省,[],[],2,[],金融保险服务;自动提款机;中国建设银行ATM,160303
邑新大道192附近,大邑县,[],[],[],成都市,[],B0FFF5TT3R,[],"103.531400,30.570230",中国建设银行ATM(潘家街四段),[],[],四川省,[],[],2,[],金融保险服务;自动提款机;中国建设银行ATM,160303
新蒲路与花语路交叉口西100米,蒲江县,[],[],[],成都市,[],B0FFJD622Z,[],"103.633135,30.273836",中国建设银行24小时自助银行,[],[],四川省,[],[],2,[],金融保险服务;自动提款机;中国建设银行ATM,160303
西体北路西200米,金牛区,[],[],[],成都市,[],B0FFGE09SL,[],"104.057979,30.683198",中国建设银行24h自助银行服务,[],[],四川省,[],[],2,[],金融保险服务;自动提款机;中国建设银行ATM,160303
静安路5号四川师范大学,锦江区,[],[],[],成都市,[],B0FFIBAIZN,[],"104.123738,30.611207",中国建设银行24小时自助银行(弦歌路),[],[],四川省,[],[],2,[],金融保险服务;自动提款机;中国建设银行ATM,160303
普吉南路90,武侯区,[],[],[],成都市,[],B0FFG8JLPU,[],"104.007064,30.639928",中国建设银行24小时自助银行(晋吉南路),[],[],四川省,[],[],2,[],金融保险服务;自动提款机;中国建设银行ATM,160303
苏坡中路11号-附2附近,青羊区,[],[],[],成都市,[],B0FFFACJQ1,[],"103.984333,30.669469",中国建设银行ATM(苏坡中路),[],[],四川省,[],[],2,[],金融保险服务;自动提款机;中国建设银行ATM,160303
沙堰西二街290号,武侯区,[],[],[],成都市,[],B001C90NXH,[],"103.995798,30.651485",中国建设银行ATM(沙堰西二街),[],[],四川省,[],[],2,[],金融保险服务;自动提款机;中国建设银行ATM,160303
洪山北路243号,成华区,[],[],[],成都市,[],B001C8P698,[],"104.095708,30.708570",中国建设银行24小时自助银行(洪山北路),[],[],四川省,[],[],2,[],金融保险服务;自动提款机;中国建设银行ATM,160303
西街106号(崇州市崇阳白蚁防治所西),崇州市,[],[],[],成都市,[],B001C7TK8W,[],"103.670179,30.629381",中国建设银行24小时自助银行(西街),[],[],四川省,[],[],2,[],金融保险服务;自动提款机;中国建设银行ATM,160303
新希望路7号附7号,武侯区,[],[],3,成都市,[],B001C8RHI5,[],"104.071376,30.616125",中国建设银行24小时自助银行(航空路支行),B001C8RHIB,[],四川省,[],[],2,[],金融保险服务;自动提款机;中国建设银行ATM,160303
上南大街4号,青羊区,[],[],3,成都市,[],B001C80SBX,[],"104.063267,30.651947",中国建设银行24小时自助银行(成都第八支行),B001C8MR07,[],四川省,[],[],2,[],金融保险服务;自动提款机;中国建设银行ATM,160303
一环路南一段24号四川大学望江校区,武侯区,[],[],3,成都市,[],B001C7WGMX,[],"104.083467,30.628528",中国建设银行24小时自助银行(成都川大支行),B001C7WGMW,[],四川省,[],[],2,[],金融保险服务;自动提款机;中国建设银行ATM,160303
天顺路92-96,武侯区,[],[],3,成都市,[],B001C7URMW,[],"104.071201,30.590434",中国建设银行24小时自助银行(兴南支行),B001C7YL9I,[],四川省,[],[],2,[],金融保险服务;自动提款机;中国建设银行ATM,160303
海科路东段99成都师范学院内,温江区,[],[],[],成都市,[],B0FFFGUKZG,[],"103.829084,30.676738",中国建设银行24小时自助银行(榕环东路),[],[],四川省,[],[],2,[],金融保险服务;自动提款机;中国建设银行ATM,160303
建设路2号,温江区,[],[],[],成都市,[],B001C924SH,[],"103.847209,30.700327",中国建设银行24小时自助银行(太平街),[],[],四川省,[],[],2,[],金融保险服务;自动提款机;中国建设银行ATM,160303
金沙路169号,金牛区,[],[],[],成都市,[],B0FFF5U4PU,[],"104.046979,30.690595",中国建设银行24小时自助银行(金沙路储蓄所),[],[],四川省,[],[],2,[],金融保险服务;自动提款机;中国建设银行ATM,160303
清江东路55号附3号,青羊区,[],[],[],成都市,[],B001C0AGBV,[],"104.026860,30.669044",中国建设银行24小时自助银行(清江路储蓄所),[],[],四川省,[],[],2,[],金融保险服务;自动提款机;中国建设银行ATM,160303
成飞大道117-123号青羊工业总部基地,青羊区,[],[],3,成都市,[],B001C8R7UE,[],"103.961559,30.681873",中国建设银行24小时自助银行(成都青羊工业园支行),B001C8MVDY,[],四川省,[],[],2,[],金融保险服务;自动提款机;中国建设银行ATM,160303
国学巷37号四川大学华西医院,武侯区,[],[],[],成都市,[],B0FFHXEA1G,[],"104.059339,30.641764",中国建设银行24小时自助银行(四川大学华西医院第三住院大楼东北),[],[],四川省,[],[],2,[],金融保险服务;自动提款机;中国建设银行ATM,160303
洪山北路99号附2,成华区,[],[],[],成都市,[],B0FFGFZKLU,[],"104.094321,30.705679",中国建设银行24小时自助银行(成都仙湖支行),[],[],四川省,[],[],2,[],金融保险服务;自动提款机;中国建设银行ATM,160303
欧鹏大道279号,龙泉驿区,[],[],[],成都市,[],B0FFG7IWKG,[],"104.274358,30.554698",中国建设银行24小时自助银行(东村综合楼小区东北),[],[],四川省,[],[],2,[],金融保险服务;自动提款机;中国建设银行ATM,160303
藏卫路北四段63,双流区,[],[],[],成都市,[],B0FFG7GVB0,[],"103.926374,30.572484",中国建设银行24小时自助银行(白鹤小区西),[],[],四川省,[],[],2,[],金融保险服务;自动提款机;中国建设银行ATM,160303
二环路北1段111号西南交通大学九里校区,金牛区,[],[],[],成都市,[],B0FFG34Z4F,[],"104.049139,30.697407",中国建设银行24小时自助银行(银桂桥社区东北),[],[],四川省,[],[],2,[],金融保险服务;自动提款机;中国建设银行ATM,160303
一环路南一段24号四川大学望江校区,武侯区,[],[],[],成都市,[],B0FFFYKCBH,[],"104.080050,30.633426",中国建设银行ATM(北园路),[],[],四川省,[],[],2,[],金融保险服务;自动提款机;中国建设银行ATM,160303
一环路西一段19号成都体育学院,武侯区,[],[],[],成都市,[],B0FFFTBW4H,[],"104.045555,30.646501",中国建设银行ATM(章武街),[],[],四川省,[],[],2,[],金融保险服务;自动提款机;中国建设银行ATM,160303
合欢树街753附近,锦江区,[],[],[],成都市,[],B0FFFCU0VK,[],"104.127437,30.602993",中国建设银行24小时自助银行(合欢树街),[],[],四川省,[],[],2,[],金融保险服务;自动提款机;中国建设银行ATM,160303
国学巷37号华西医院第一住院部1层,武侯区,[],[],202,成都市,[],B0FFFABF5F,[],"104.060449,30.641855",中国建设银行ATM(成都华西支行),B0FFF5W5XV,[],四川省,[],[],2,[],金融保险服务;自动提款机;中国建设银行ATM,160303
荷塘中街1号,双流区,[],[],[],成都市,[],B0FFFAB454,[],"103.924395,30.563172",中国建设银行24小时自助银行(新秀花园东南),[],[],四川省,[],[],2,[],金融保险服务;自动提款机;中国建设银行ATM,160303
培华东路与建设南街交叉口东南100米,成华区,[],[],[],成都市,[],B001C80I0K,[],"104.107711,30.667086",中国建设银行24小时自助银行(星辉西路),[],[],四川省,[],[],2,[],金融保险服务;自动提款机;中国建设银行ATM,160303
宏济新路337号,锦江区,[],[],3,成都市,[],B001C7VRDQ,[],"104.096594,30.640490",中国建设银行24小时自助银行(蜀光新城支行),B001C7VRDP,[],四川省,[],[],2,[],金融保险服务;自动提款机;中国建设银行ATM,160303
一环路西一段130号附1号,武侯区,[],[],3,成都市,[],B001C0AG8S,[],"104.040753,30.650177",中国建设银行24小时自助银行(百花潭支行),B001C0AG8R,[],四川省,[],[],2,[],金融保险服务;自动提款机;中国建设银行ATM,160303
走马街68号附5号,锦江区,[],[],[],成都市,[],B0FFFV83LZ,[],"104.075826,30.653281",中国建设银行24小时自助银行(成都春熙支行),[],[],四川省,[],[],2,[],金融保险服务;自动提款机;中国建设银行ATM,160303
创业路52号,龙泉驿区,[],[],[],成都市,[],B0FFG0YMZH,[],"104.180834,30.651328",中国建设银行24小时自助银行(创业路),[],[],四川省,[],[],2,[],金融保险服务;自动提款机;中国建设银行ATM,160303
蜀金路50号附1号,青羊区,[],[],[],成都市,[],B0FFG1SR6O,[],"104.003932,30.681055",中国建设银行ATM,[],[],四川省,[],[],2,[],金融保险服务;自动提款机;中国建设银行ATM,160303
东北市街86号,彭州市,[],[],[],成都市,[],B0FFFPA8KR,[],"103.945257,30.985851",中国建设银行ATM,[],[],四川省,[],[],2,[],金融保险服务;自动提款机;中国建设银行ATM,160303
银杏路(成都理工大学),成华区,[],[],[],成都市,[],B0FFFCLKVS,[],"104.143833,30.670509",中国建设银行ATM(银杏路),[],[],四川省,[],[],2,[],金融保险服务;自动提款机;中国建设银行ATM,160303
光华大道三段1588号合生汇(光华大道三段)L1层,温江区,[],[],202,成都市,[],B0FFFPV4HS,[],"103.863952,30.686119",中国建设银行ATM(合生汇),B0FFMAP2XK,[],四川省,[],[],2,[],金融保险服务;自动提款机;中国建设银行ATM,160303
建设路17号附1号,龙泉驿区,[],[],[],成都市,[],B001C8OCJ1,[],"104.273894,30.560647",中国建设银行(成都驿马桥支行),[],[],四川省,[],[],2,028-84853346,金融保险服务;银行;中国建设银行,160106
芙蓉西路390号,锦江区,[],[],[],成都市,[],B0FFIV11KI,[],"104.145778,30.606356",中国建设银行(绿地中心支行),[],[],四川省,[],[],2,028-61195337;95533,金融保险服务;银行;中国建设银行,160106
政通西路107号附近,温江区,[],[],[],成都市,[],B0FFITL3PA,[],"103.851124,30.682567",中国建设银行(成都温江政通路支行),[],[],四川省,[],[],2,028-82759032;028-82781727,金融保险服务;银行;中国建设银行,160106
电子路新城花园二幢1楼8号,新都区,[],[],[],成都市,[],B001C7ZYF0,[],"104.174134,30.810405",中国建设银行(新城花园支行),[],[],四川省,[],[],2,028-89398343,金融保险服务;银行;中国建设银行,160106
东昌路25-29号,成华区,[],[],[],成都市,[],B001C8OT6X,[],"104.106568,30.713887",中国建设银行(成都东昌路支行),[],[],四川省,[],[],2,028-83293227,金融保险服务;银行;中国建设银行,160106
郫都区西大街318-324号,郫都区,[],[],[],成都市,[],B001C7ZXGH,[],"103.882513,30.813553",中国建设银行(郫都望丛支行),[],[],四川省,[],[],2,028-61775207,金融保险服务;银行;中国建设银行,160106
花都大道819号附9号,新都区,[],[],[],成都市,[],B0FFF005B1,[],"104.056238,30.760818",中国建设银行(新都大丰支行),[],[],四川省,[],[],2,028-83910213,金融保险服务;银行;中国建设银行,160106
金强步行街1-3,温江区,[],[],[],成都市,[],B001C0AGB3,[],"103.837049,30.693477",中国建设银行(柳城干道支行),[],[],四川省,[],[],2,028-82711644;95533,金融保险服务;银行;中国建设银行,160106
东坡路437-443号,青羊区,[],[],[],成都市,[],B001C7WEIT,[],"103.993408,30.661061",中国建设银行(东坡路支行),[],[],四川省,[],[],2,028-81720057,金融保险服务;银行;中国建设银行,160106
唐安西路13号,崇州市,[],[],[],成都市,[],B001C7VRCE,[],"103.678721,30.632232",中国建设银行(崇州蔡家碾支行),[],[],四川省,[],[],2,028-82276683,金融保险服务;银行;中国建设银行,160106
驿都东路1140-1144号,龙泉驿区,[],[],[],成都市,[],B001C7VRDJ,[],"104.26213,30.560871",中国建设银行(成都经济技术开发区支行),[],[],四川省,[],[],2,028-84856413;028-84852601,金融保险服务;银行;中国建设银行,160106
顺城街27号,双流区,[],[],[],成都市,[],B001C7VRDR,[],"103.922910,30.574464",中国建设银行(双流支行),[],[],四川省,[],[],2,028-85824848,金融保险服务;银行;中国建设银行,160106
世纪城路211-216号,武侯区,[],[],[],成都市,[],B001C8MQ13,[],"104.074784,30.559920",中国建设银行(新会展支行),[],[],四川省,[],[],2,028-85307381,金融保险服务;银行;中国建设银行,160106
梓州大道7100号怡馨家园35号楼1层,双流区,[],[],[],成都市,[],B0FFIWI7ZQ,[],"104.076541,30.502848",中国建设银行(成都梓州大道支行),[],[],四川省,[],[],2,028-69418785,金融保险服务;银行;中国建设银行,160106
和韵路197号,成华区,[],[],[],成都市,[],B0FFGILAHT,[],"104.158523,30.626646",中国建设银行(锦绣城支行),[],[],四川省,[],[],2,028-84421107,金融保险服务;银行;中国建设银行,160106
列维士路564号,新都区,[],[],[],成都市,[],B0FFF4LQIQ,[],"104.020553,30.854401",中国建设银行(香江支行),[],[],四川省,[],[],2,028-83080710,金融保险服务;银行;中国建设银行,160106
郫筒镇北大街393号(创艺无限旁边),郫都区,[],[],[],成都市,[],B001C7TK6E,[],"103.892905,30.813619",中国建设银行(郫都鹃城支行),[],[],四川省,[],[],2,028-87864051,金融保险服务;银行;中国建设银行,160106
五福桥东路229号附30-32,金牛区,[],[],[],成都市,[],B0FFG65OIX,[],"104.065530,30.712148",中国建设银行(五福桥分理处),[],[],四川省,[],[],2,028-83136362;028-83136360,金融保险服务;银行;中国建设银行,160106
成龙大道一段9号卓锦城二期22栋1层2-8号,锦江区,[],[],[],成都市,[],B001C95BB8,[],"104.131567,30.598953",中国建设银行(汽车城支行),[],[],四川省,[],[],2,028-84775546,金融保险服务;银行;中国建设银行,160106
赵镇十里大道一段323-327号,金堂县,[],[],[],成都市,[],B001C8MG19,[],"104.421244,30.857016",中国建设银行(金堂水城花园支行),[],[],四川省,[],[],2,028-84936577,金融保险服务;银行;中国建设银行,160106
簇锦北路55-57号,武侯区,[],[],[],成都市,[],B001C7VRD8,[],"103.991824,30.604695",中国建设银行(成都簇桥支行),[],[],四川省,[],[],2,028-85012839;028-95533,金融保险服务;银行;中国建设银行,160106
金阳路79号附14-15号,青羊区,[],[],[],成都市,[],B001C7UBXC,[],"104.005638,30.679176",中国建设银行(成都金阳支行),[],[],四川省,[],[],2,028-81713890;028-81713785,金融保险服务;银行;中国建设银行,160106
喜树街736号附近,锦江区,[],[],[],成都市,[],B0FFIR9FLT,[],"104.142172,30.595272",中国建设银行(锦江大道支行),[],[],四川省,[],[],2,028-86915687;028-86915661,金融保险服务;银行;中国建设银行,160106
白马庙街141-149号,温江区,[],[],[],成都市,[],B001C921Q6,[],"103.839536,30.704793",中国建设银行(白马庙街支行),[],[],四川省,[],[],2,028-82742582;028-82748960,金融保险服务;银行;中国建设银行,160106
蜀西路46附近,金牛区,[],[],[],成都市,[],B0FFFE94Q9,[],"103.990187,30.715200",中国建设银行(成都蜀西路支行),[],[],四川省,[],[],2,028-61340823,金融保险服务;银行;中国建设银行,160106
涧槽北街2-8,双流区,[],[],[],成都市,[],B001C95CX7,[],"103.910115,30.567438",中国建设银行(新城支行),[],[],四川省,[],[],2,028-62580126,金融保险服务;银行;中国建设银行,160106
智达二路596号,武侯区,[],[],[],成都市,[],B0FFFE1O4O,[],"103.986513,30.607185",中国建设银行(中海锦城支行),[],[],四川省,[],[],2,028-87444523,金融保险服务;银行;中国建设银行,160106
青羊大道10号附1-4号,青羊区,[],[],[],成都市,[],B001C7WQXL,[],"104.008921,30.658027",中国建设银行(青羊大道支行),[],[],四川省,[],[],2,028-87362742;028-87348431;95533,金融保险服务;银行;中国建设银行,160106
中和大道二段2号,双流区,[],[],[],成都市,[],B0FFFE9OSN,[],"104.086921,30.548176",中国建设银行(中和大道分理处),[],[],四川省,[],[],2,028-85973739,金融保险服务;银行;中国建设银行,160106
迎宾路65-69号,都江堰市,[],[],[],成都市,[],B0FFIMZJY9,[],"103.635303,30.984440",中国建设银行(迎宾路支行),[],[],四川省,[],[],2,028-87203276,金融保险服务;银行;中国建设银行,160106
五津东路151号附10-12,新津区,[],[],[],成都市,[],B001C7Y49X,[],"103.817829,30.414532",中国建设银行(新津五津东路支行),[],[],四川省,[],[],2,028-82523617,金融保险服务;银行;中国建设银行,160106
高新区盛邦街19号,武侯区,[],[],[],成都市,[],B0FFFYM3BI,[],"104.055878,30.555640",中国建设银行(华府西苑支行),[],[],四川省,[],[],2,028-83167160;028-83167553,金融保险服务;银行;中国建设银行,160106
聚荟街377-381,武侯区,[],[],[],成都市,[],B0FFH8B1S7,[],"103.996702,30.624906",中国建设银行(尚品广场支行),[],[],四川省,[],[],2,95533,金融保险服务;银行;中国建设银行,160106
武城大街1号(三洲佳润娇子苑2号门北侧),锦江区,[],[],[],成都市,[],B0FFFFRN3H,[],"104.089998,30.657654",中国建设银行(玉双路支行),[],[],四川省,[],[],2,028-86585110,金融保险服务;银行;中国建设银行,160106
童子街2号附1-附4,青羊区,[],[],[],成都市,[],B001C7WQXF,[],"104.078075,30.666108",中国建设银行(成都第六支行),[],[],四川省,[],[],2,028-86621516;028-86613151;028-95533,金融保险服务;银行;中国建设银行,160106
金耀路162-168,金牛区,[],[],[],成都市,[],B0FFG352C0,[],"104.011758,30.710913",中国建设银行(金域支行),[],[],四川省,[],[],2,028-61364756,金融保险服务;银行;中国建设银行,160106
高新孵化园天府大道北段1480号德商国际B座103-104号德商国际1层,武侯区,[],[],202,成都市,[],B001C80F4V,[],"104.060363,30.575066",中国建设银行(益州支行),B0FFF2MB5C,[],四川省,[],[],2,028-85325387;028-85111496,金融保险服务;银行;中国建设银行,160106
新成仁路沙河段晨辉路1号,锦江区,[],[],[],成都市,[],B001C7UR9F,[],"104.099786,30.610693",中国建设银行(金象花园支行),[],[],四川省,[],[],2,028-85951831;95533,金融保险服务;银行;中国建设银行,160106
南街311号,邛崃市,[],[],[],成都市,[],B001C7TK8P,[],"103.459938,30.407541",中国建设银行(文庙街储蓄所),[],[],四川省,[],[],2,[],金融保险服务;银行;中国建设银行,160106
星河路90号附1号,金牛区,[],[],[],成都市,[],B001C7YPH6,[],"104.046945,30.707279",中国建设银行(星辰路储蓄所),[],[],四川省,[],[],2,028-87625936,金融保险服务;银行;中国建设银行,160106
世纪城路天府软件园A5座,武侯区,[],[],202,成都市,[],B001C8OAXC,[],"104.070998,30.550935",中国建设银行(高新支行),B001C93C46,[],四川省,[],[],2,028-85342190;028-85342178,金融保险服务;银行;中国建设银行,160106
团结街2-8号,彭州市,[],[],[],成都市,[],B001C0AGBJ,[],"103.943540,30.988763",中国建设银行(城北储蓄所),[],[],四川省,[],[],2,028-83874773,金融保险服务;银行;中国建设银行,160106
彩虹大道南段15号金融中心,都江堰市,[],[],202,成都市,[],B0FFIW1FSN,[],"103.655599,30.984712",中国建设银行(都江堰支行),B0FFJI0PSQ,[],四川省,[],[],2,028-61926591,金融保险服务;银行;中国建设银行,160106
丽都路16号附3号,武侯区,[],[],[],成都市,[],B001C8O3FB,[],"104.032213,30.624752",中国建设银行(成都丽都路支行),[],[],四川省,[],[],2,028-85096821,金融保险服务;银行;中国建设银行,160106
光华大道三段1818号珠江国际花园,温江区,[],[],[],成都市,[],B001C8R6CD,[],"103.857478,30.687554",中国建设银行(温江光华支行),[],[],四川省,[],[],2,028-82740330;028-82746357,金融保险服务;银行;中国建设银行,160106
锦里西路6号附1号,青羊区,[],[],[],成都市,[],B001C0AGAT,[],"104.051838,30.653065",中国建设银行(锦里西路支行),[],[],四川省,[],[],2,028-86136163;95533,金融保险服务;银行;中国建设银行,160106
大东街151-155号,崇州市,[],[],[],成都市,[],B001C0AG9X,[],"103.677044,30.628824",中国建设银行(崇州支行),[],[],四川省,[],[],2,028-82202769,金融保险服务;银行;中国建设银行,160106
盛安街356号,武侯区,[],[],[],成都市,[],B0FFIB4LKU,[],"104.047761,30.558282",中国建设银行(峰度天下支行),[],[],四川省,[],[],2,028-85320241;95533,金融保险服务;银行;中国建设银行,160106
成汉中路107,武侯区,[],[],[],成都市,[],B001C94P7F,[],"104.054757,30.594534",中国建设银行(南城都汇支行),[],[],四川省,[],[],2,028-84248631,金融保险服务;银行;中国建设银行,160106
琉璃路655号附1号,锦江区,[],[],[],成都市,[],B001C80N54,[],"104.094259,30.613830",中国建设银行(翡翠城储蓄所),[],[],四川省,[],[],2,[],金融保险服务;银行;中国建设银行,160106
花都大道607号,温江区,[],[],[],成都市,[],B0FFF5MAFO,[],"103.862157,30.695947",中国建设银行(花都大道支行),[],[],四川省,[],[],2,028-61709022,金融保险服务;银行;中国建设银行,160106
清江西路58-68号,青羊区,[],[],[],成都市,[],B001C80J0W,[],"104.003295,30.674614",中国建设银行(金沙祥域储蓄所),[],[],四川省,[],[],2,028-61333251,金融保险服务;银行;中国建设银行,160106
奎光路4、8,都江堰市,[],[],[],成都市,[],B001C7U0ET,[],"103.619562,30.988369",中国建设银行(奎光路支行),[],[],四川省,[],[],2,028-87266284,金融保险服务;银行;中国建设银行,160106
吉祥街1-11号,青羊区,[],[],[],成都市,[],B001C7WQY2,[],"104.055984,30.667975",中国建设银行(成都锦城支行),[],[],四川省,[],[],2,028-86162191;028-86162652,金融保险服务;银行;中国建设银行,160106
龙腾东路34号(中海大厦东侧30米),武侯区,[],[],[],成都市,[],B001C8VB3N,[],"104.019218,30.652171",中国建设银行(龙腾路支行),[],[],四川省,[],[],2,028-86032845,金融保险服务;银行;中国建设银行,160106
崇阳镇辰居路230号3栋1层6-14号,崇州市,[],[],[],成都市,[],B001C956CR,[],"103.674123,30.636874",中国建设银行(辰居路储蓄所),[],[],四川省,[],[],2,028-82275476,金融保险服务;银行;中国建设银行,160106
洗面桥东二街,武侯区,[],[],[],成都市,[],B0FFI11DTD,[],"104.055986,30.636353",中国建设银行(小天西街支行),[],[],四川省,[],[],2,028-86138967;028-86642956,金融保险服务;银行;中国建设银行,160106
少陵路19号附2号,武侯区,[],[],[],成都市,[],B001C0AGC4,[],"104.031913,30.647427",中国建设银行(成都少陵路支行),[],[],四川省,[],[],2,028-85057130;95533,金融保险服务;银行;中国建设银行,160106
交大路256号附6-7号,金牛区,[],[],[],成都市,[],B001C92H5E,[],"104.038290,30.709110",中国建设银行(成都交大路支行),[],[],四川省,[],[],2,028-87607072,金融保险服务;银行;中国建设银行,160106
万象南路143-145,武侯区,[],[],[],成都市,[],B0FFH2CNB6,[],"104.050039,30.578728",中国建设银行(成都城南支行),[],[],四川省,[],[],2,028-62696731,金融保险服务;银行;中国建设银行,160106
兆景路450号,武侯区,[],[],[],成都市,[],B0FFGFXPYK,[],"103.989937,30.622492",中国建设银行(保利花园支行),[],[],四川省,[],[],2,028-69280397,金融保险服务;银行;中国建设银行,160106
五津北路5-9号,新津区,[],[],[],成都市,[],B001C7VRDZ,[],"103.812231,30.414966",中国建设银行(新津支行),[],[],四川省,[],[],2,028-82522011,金融保险服务;银行;中国建设银行,160106
中和大道三段267-273,双流区,[],[],202,成都市,[],B0FFG74T8G,[],"104.094565,30.550531",中国建设银行(成都中和新城支行),B0FFFPGGYE,[],四川省,[],[],2,028-85616530;15882110682,金融保险服务;银行;中国建设银行,160106
通锦路3号,金牛区,[],[],202,成都市,[],B001C8O71P,[],"104.058005,30.683189",中国建设银行(通锦支行),B0FFFACO3N,[],四川省,[],[],2,028-87678637;95533,金融保险服务;银行;中国建设银行,160106
永丰路21号附3-7,武侯区,[],[],[],成都市,[],B001C7URU3,[],"104.050181,30.630666",中国建设银行(成都武侯支行),[],[],四川省,[],[],2,028-85137873;95533,金融保险服务;银行;中国建设银行,160106
雄州大道南段523号附近,简阳市,[],[],[],成都市,[],B0FFFTXIOI,[],"104.537474,30.410793",中国建设银行,[],[],四川省,[],[],2,028-26155188,金融保险服务;银行;中国建设银行,160106
机场东二路机场集团大楼附楼1层,双流区,[],[],[],成都市,[],B001C7YGLB,[],"103.963431,30.568353",中国建设银行(双流机场支行),[],[],四川省,[],[],2,028-85207801,金融保险服务;银行;中国建设银行,160106
蜀兴中街141,金牛区,[],[],[],成都市,[],B0FFFABHO6,[],"104.027542,30.687198",中国建设银行(蜀兴中街支行),[],[],四川省,[],[],2,028-87577195;028-87535319;95533,金融保险服务;银行;中国建设银行,160106
大石西路36号附13-15室,青羊区,[],[],[],成都市,[],B0FFHTU36O,[],"104.033536,30.651019",中国建设银行(大石西路支行),[],[],四川省,[],[],2,028-87018066;95533,金融保险服务;银行;中国建设银行,160106
盛和二路86-96号,武侯区,[],[],[],成都市,[],B0FFGYOQRV,[],"104.057442,30.603466",中国建设银行(南站分理处),[],[],四川省,[],[],2,028-85320691,金融保险服务;银行;中国建设银行,160106
武阳中路54,新津区,[],[],[],成都市,[],B001C7UXXT,[],"103.813768,30.411326",中国建设银行(武阳中路储蓄所),[],[],四川省,[],[],2,028-82523550;028-82522011,金融保险服务;银行;中国建设银行,160106
光华北三路149-153,青羊区,[],[],[],成都市,[],B0FFFODE38,[],"103.963151,30.672116",中国建设银行(光华支行),[],[],四川省,[],[],2,028-85276745,金融保险服务;银行;中国建设银行,160106
南大街与繁江南路交叉口东南50米,彭州市,[],[],[],成都市,[],B0FFFPLXFQ,[],"103.941392,30.973034",中国建设银行24小时自助银行(南大街),[],[],四川省,[],[],2,[],金融保险服务;自动提款机;中国建设银行ATM,160303
湖畔路北段天府菁蓉中心B区10号楼附近,双流区,[],[],[],成都市,[],B0FFI00E9F,[],"104.080576,30.403359",中国建设银行24小时自助银行,[],[],四川省,[],[],2,[],金融保险服务;自动提款机;中国建设银行ATM,160303
欣然一街11号,成华区,[],[],[],成都市,[],B001C8MYBC,[],"104.105359,30.684824",中国建设银行(府青路支行),[],[],四川省,[],[],2,028-61280150,金融保险服务;银行;中国建设银行,160106
西航港街道锦华路二段122-130号,双流区,[],[],[],成都市,[],B0FFMAC66N,[],"103.986552,30.569678",中国建设银行(双流航空港支行),[],[],四川省,[],[],2,028-85726360,金融保险服务;银行;中国建设银行,160106
蜀信东路2号,郫都区,[],[],[],成都市,[],B0FFK11NU2,[],"103.893994,30.795946",中国建设银行(郫都鹃城支行),[],[],四川省,[],[],2,028-87864051,金融保险服务;银行;中国建设银行,160106
一环路西二段4-10号,青羊区,[],[],[],成都市,[],B001C8RVW1,[],"104.040488,30.660191",中国建设银行(青羊支行),[],[],四川省,[],[],2,028-87784937;028-87741787,金融保险服务;银行;中国建设银行,160106
贝森路31号附1-3号,青羊区,[],[],[],成都市,[],B001C7UCO2,[],"104.003511,30.669513",中国建设银行(贝森路储蓄所),[],[],四川省,[],[],2,028-81703917;95533,金融保险服务;银行;中国建设银行,160106
通盈街302号,锦江区,[],[],[],成都市,[],B0FFFE1OQ1,[],"104.106399,30.630195",中国建设银行(成都牛沙路支行),[],[],四川省,[],[],2,028-83396692,金融保险服务;银行;中国建设银行,160106
置信路57号附72号郑连锅一楼,武侯区,[],[],[],成都市,[],B0FFHPVDQY,[],"104.013961,30.646879",中国建设银行(鹭岛国际社区分理处),[],[],四川省,[],[],2,028-87060132,金融保险服务;银行;中国建设银行,160106
南湖大道313、315、317号,双流区,[],[],[],成都市,[],B0FFLJCIEC,[],"104.051323,30.490829",中国建设银行南湖大道支行,[],[],四川省,[],[],2,028-85220668;028-85222558,金融保险服务;银行;银行,160100
黄苑街228-230号,金牛区,[],[],[],成都市,[],B0FFKV8L8G,[],"104.009510,30.688692",中国建设银行(金沙国际支行),[],[],四川省,[],[],2,028-87521253,金融保险服务;银行;中国建设银行,160106
[],武侯区,[],[],[],成都市,[],B0FFKDKLXH,[],"104.077612,30.623984",中国建设银行(成都磨子桥支行),[],[],四川省,[],[],2,028-85210619,金融保险服务;银行;中国建设银行,160106
培中路73号,青羊区,[],[],[],成都市,[],B0FFHQ5FF6,[],"103.976341,30.671290",建设银行支行（苏坡支行）,[],[],四川省,[],[],2,028-87360374,金融保险服务;银行;中国建设银行|生活服务;生活服务场所;生活服务场所,160106|070000
天府二街139号中国水电大厦1层,武侯区,[],[],202,成都市,[],B0FFF05GQ4,[],"104.065512,30.550601",中国建设银行(南延线支行),B001C802XK,[],四川省,[],[],2,028-65518979,金融保险服务;银行;中国建设银行,160106
苏坡立交桥蜀鑫路167号1幢1层惠健身清波社区,青羊区,[],[],[],成都市,[],B0FFH9NI80,[],"103.988508,30.678190",中国建设银行(蜀鑫路储蓄所),[],[],四川省,[],[],2,[],金融保险服务;银行;中国建设银行,160106
圣灯路151号,成华区,[],[],[],成都市,[],B001C8OTDD,[],"104.124070,30.672681",中国建设银行(成都东区支行),[],[],四川省,[],[],2,028-83121996,金融保险服务;银行;中国建设银行,160106
北东街28号,青羊区,[],[],[],成都市,[],B001C0AG8T,[],"104.077723,30.671918",中国建设银行(成都北东街支行),[],[],四川省,[],[],2,028-86912763;028-86911611,金融保险服务;银行;中国建设银行,160106
柳城大道西段,温江区,[],[],[],成都市,[],B001C8MZWN,[],"103.828654,30.690853",中国建设银行(成都温江银城花园支行),[],[],四川省,[],[],2,028-82743587;028-82743632,金融保险服务;银行;中国建设银行,160106
建和路69-73,成华区,[],[],[],成都市,[],B001C80BZV,[],"104.112265,30.672399",中国建设银行(龙湖三千里支行),[],[],四川省,[],[],2,028-84296671,金融保险服务;银行;中国建设银行,160106
二环路西一段90号附1-附2号,武侯区,[],[],[],成都市,[],B001C06LTU,[],"104.024732,30.643628",中国建设银行(成都双楠支行),[],[],四川省,[],[],2,028-85061943,金融保险服务;银行;中国建设银行,160106
花都大道西段与锦泉街交叉口南50米,温江区,[],[],[],成都市,[],B001C8VJUB,[],"103.861734,30.695962",中国建设银行24小时自助银行(成都温江花都大道支行),[],[],四川省,[],[],2,[],金融保险服务;自动提款机;中国建设银行ATM,160303
太升北路64号附1号,青羊区,[],[],[],成都市,[],B0FFFVDL6F,[],"104.083159,30.672310",中国建设银行(成都曹家巷支行),[],[],四川省,[],[],2,028-83314177;028-83341608,金融保险服务;银行;中国建设银行,160106
帘官公所街2号附1号,青羊区,[],[],3,成都市,[],B001C7UATQ,[],"104.081308,30.666741",中国建设银行24小时自助银行(成都第二支行),B001C7Y4U4,[],四川省,[],[],2,[],金融保险服务;自动提款机;中国建设银行ATM,160303
紫藤路6号附7号,武侯区,[],[],[],成都市,[],B001C05MPW,[],"104.026973,30.649400",中国建设银行(紫藤路支行),[],[],四川省,[],[],2,028-87016716;95533,金融保险服务;银行;中国建设银行,160106
航港路2159号,双流区,[],[],[],成都市,[],B0FFJL3DU3,[],"103.912952,30.597073",中国建设银行(双流白衣支行),[],[],四川省,[],[],2,028-85823017,金融保险服务;银行;中国建设银行,160106
成南高速公路,金堂县,[],[],311,成都市,[],B0FFG7IV1A,[],"104.566316,30.686338",淮口服务区中国建设银行ATM,B001C7X6N3,[],四川省,[],[],2,[],金融保险服务;自动提款机;中国建设银行ATM,160303
金仙桥路7号,金牛区,[],[],[],成都市,[],B001C0AG91,[],"104.052614,30.677200",中国建设银行(金仙桥支行),[],[],四川省,[],[],2,028-87670772;028-87655613;028-87677924,金融保险服务;银行;中国建设银行,160106
望丛中路728号,郫都区,[],[],[],成都市,[],B0FFFABSR5,[],"103.888512,30.800138",中国建设银行24小时自助银行(望丛中路),[],[],四川省,[],[],2,[],金融保险服务;自动提款机;中国建设银行ATM,160303
西桥路与西江路交叉口西北50米,崇州市,[],[],[],成都市,[],B0FFGB5XIL,[],"103.647391,30.627454",中国建设银行24小时自助银行(西桥路),[],[],四川省,[],[],2,[],金融保险服务;自动提款机;中国建设银行ATM,160303
红牌楼永盛南街2号,武侯区,[],[],[],成都市,[],B001C8MNRS,[],"104.025458,30.638520",中国建设银行(人防路支行),[],[],四川省,[],[],2,028-85086282;95533,金融保险服务;银行;中国建设银行,160106
迎宾大道一段102号(金阳丽景东),金堂县,[],[],[],成都市,[],B0FFGILDQX,[],"104.407811,30.851595",中国建设银行24小时自助银行(金堂迎宾支行),[],[],四川省,[],[],2,[],金融保险服务;自动提款机;中国建设银行ATM,160303
桃蹊路8号,成华区,[],[],[],成都市,[],B001C92ANS,[],"104.106079,30.680530",中国建设银行(成都桃蹊路支行),[],[],四川省,[],[],2,028-83270917;028-62495355,金融保险服务;银行;中国建设银行,160106
二仙桥东三路1号附4号,成华区,[],[],[],成都市,[],B0G2OLIHXA,[],"104.138993,30.673603",中国建设银行(成都理工大学支行),[],[],四川省,[],[],2,028-84075665,金融保险服务;银行;中国建设银行,160106
天府西路1-7,彭州市,[],[],202,成都市,[],B0FFG7LYKM,[],"103.941931,30.977813",中国建设银行(城南支行),B0FFF9LUYM,[],四川省,[],[],2,028-83704810,金融保险服务;银行;中国建设银行,160106
新沙路与益民街交叉口西50米,大邑县,[],[],[],成都市,[],B0FFGA6DAY,[],"103.740966,30.525252",中国建设银行24小时自助银行,[],[],四川省,[],[],2,[],金融保险服务;自动提款机;中国建设银行ATM,160303
北泉路824-826号,龙泉驿区,[],[],[],成都市,[],B0FFH60P2A,[],"104.243949,30.570479",中国建设银行(艺锦湾支行),[],[],四川省,[],[],2,028-84859031,金融保险服务;银行;中国建设银行,160106
新都街道马超东路380号,新都区,[],[],[],成都市,[],B0FFFE4KG2,[],"104.183810,30.809406",中国建设银行(新都国际广场支行),[],[],四川省,[],[],2,028-83974504,金融保险服务;银行;中国建设银行,160106
安靖街道西南交通大学犀浦校区内,郫都区,[],[],[],成都市,[],B0FFFCVSZS,[],"103.983167,30.760572",中国建设银行(西南交大新校区支行),[],[],四川省,[],[],2,028-66365855,金融保险服务;银行;中国建设银行,160106
灵龙路238-240号,龙泉驿区,[],[],3,成都市,[],B001C7UUJS,[],"104.179666,30.652470",中国建设银行24小时自助银行(十陵支行),B001C7UUJR,[],四川省,[],[],2,[],金融保险服务;自动提款机;中国建设银行ATM,160303
灵龙路238-240号,龙泉驿区,[],[],[],成都市,[],B001C7UUJR,[],"104.179654,30.652474",中国建设银行(十陵分理处),[],[],四川省,[],[],2,[],金融保险服务;银行;中国建设银行,160106
西岭大道166号,大邑县,[],[],[],成都市,[],B0FFF3AAX3,[],"103.536548,30.588129",中国建设银行ATM(西岭大道),[],[],四川省,[],[],2,[],金融保险服务;自动提款机;中国建设银行ATM,160303
正东上街1-9号,双流区,[],[],[],成都市,[],B001C0586M,[],"104.055644,30.505476",中国建设银行(成都正东支行),[],[],四川省,[],[],2,028-85726853,金融保险服务;银行;中国建设银行,160106
菁华路37号,青白江区,[],[],[],成都市,[],B0FFFAD8ZN,[],"104.269287,30.883534",中国建设银行24小时自助银行(菁华路),[],[],四川省,[],[],2,[],金融保险服务;自动提款机;中国建设银行ATM,160303
东大街芷泉段11号,锦江区,[],[],[],成都市,[],B001C7XYVJ,[],"104.087101,30.648645",中国建设银行(成都东门支行),[],[],四川省,[],[],2,028-84421491;028-84458482,金融保险服务;银行;中国建设银行,160106
上南街227-229号,崇州市,[],[],[],成都市,[],B001C057ZX,[],"103.673145,30.624261",中国建设银行(崇州支行上南街储蓄所),[],[],四川省,[],[],2,028-82201841,金融保险服务;银行;中国建设银行,160106
芳草西二街19号,武侯区,[],[],[],成都市,[],B0FFK4WNRD,[],"104.050684,30.627451",中国建设银行(玉林支行),[],[],四川省,[],[],2,028-85152457;028-85156761,金融保险服务;银行;中国建设银行,160106
迎宾大道一段102号,金堂县,[],[],[],成都市,[],B0FFGF67OK,[],"104.407797,30.851757",中国建设银行(金堂迎宾支行),[],[],四川省,[],[],2,95533;028-68382900,金融保险服务;银行;中国建设银行,160106
天府四街2802号(乐华路交叉口),武侯区,[],[],[],成都市,[],B0FFK0MN4D,[],"104.031284,30.542543",中国建设银行(成都天府四街支行),[],[],四川省,[],[],2,028-60191053,金融保险服务;银行;中国建设银行,160106
通源街130-132号,锦江区,[],[],[],成都市,[],B0FFI6T55E,[],"104.113197,30.635490",中国建设银行(成都东大路支行),[],[],四川省,[],[],2,028-67832686;028-67832631,金融保险服务;银行;中国建设银行,160106
紫荆北路12号附1号,武侯区,[],[],[],成都市,[],B001C92E10,[],"104.053337,30.619620",中国建设银行(紫荆北路支行),[],[],四川省,[],[],2,028-85133570;028-85228840;95533,金融保险服务;银行;中国建设银行,160106
莲桂西路174号,锦江区,[],[],[],成都市,[],B001C7TK6X,[],"104.093588,30.636684",中国建设银行(顺江路分理处),[],[],四川省,[],[],2,028-84530628,金融保险服务;银行;中国建设银行,160106
汇川街166-1栋附104-107号,金牛区,[],[],[],成都市,[],B0FFJ9619Q,[],"103.981966,30.720508",中国建设银行(成都中海国际社区支行),[],[],四川省,[],[],2,028-87585410;028-87585402,金融保险服务;银行;银行,160100
柳城镇东大街1号,温江区,[],[],[],成都市,[],B001C7VRDU,[],"103.836324,30.698608",中国建设银行(温江支行),[],[],四川省,[],[],2,028-82722481,金融保险服务;银行;中国建设银行,160106
都江堰大道,都江堰市,[],[],[],成都市,[],B0FFJ9BQ2Z,[],"103.646402,30.987869",中国建设银行(都江堰幸福大道支行),[],[],四川省,[],[],2,028-87131115;028-87133642,金融保险服务;银行;中国建设银行,160106
灌口镇蒲阳路615号(宁江厂家属区对面),都江堰市,[],[],[],成都市,[],B001C8ON5W,[],"103.635605,31.005589",中国建设银行(蒲阳干道支行),[],[],四川省,[],[],2,028-87117064,金融保险服务;银行;中国建设银行,160106
洞子口路819号附15号,金牛区,[],[],[],成都市,[],B001C954X6,[],"104.067355,30.711014",中国建设银行24小时自助银行(五块石路),[],[],四川省,[],[],2,[],金融保险服务;自动提款机;中国建设银行ATM,160303
正东街159附1,新津区,[],[],3,成都市,[],B001C7UXXU,[],"103.814575,30.408070",中国建设银行24小时自助银行(正东街),B001C7UXXT,[],四川省,[],[],2,[],金融保险服务;自动提款机;中国建设银行ATM,160303
蜀龙大道中段751号,新都区,[],[],3,成都市,[],B001C7ZYF1,[],"104.174333,30.810563",中国建设银行24小时自助银行(新城花园分理处),B001C7ZYF0,[],四川省,[],[],2,[],金融保险服务;自动提款机;中国建设银行ATM,160303
滨江东路103附近,新都区,[],[],[],成都市,[],B0FFFQ20SA,[],"104.023186,30.876894",中国建设银行24小时自助银行(东环路),[],[],四川省,[],[],2,[],金融保险服务;自动提款机;中国建设银行ATM,160303
红建路北段391号,简阳市,[],[],[],成都市,[],B03400MYHJ,[],"104.554794,30.390423",中国建设银行(红建路支行),[],[],四川省,[],[],2,028-26155185,金融保险服务;银行;中国建设银行,160106
青江东路210号,青白江区,[],[],[],成都市,[],B001C06NEA,[],"104.259749,30.878000",中国建设银行(青白江支行),[],[],四川省,[],[],2,028-83304042,金融保险服务;银行;中国建设银行,160106
大华街10号附37号,武侯区,[],[],[],成都市,[],B001C7UK3K,[],"104.014156,30.649976",中国建设银行(大华街支行),[],[],四川省,[],[],2,028-87062313;95533,金融保险服务;银行;中国建设银行,160106
鸡市巷与弥牟中街交叉口南50米,青白江区,[],[],[],成都市,[],B0FFGB3CN9,[],"104.204020,30.882883",中国建设银行24小时自助银行(三西路),[],[],四川省,[],[],2,[],金融保险服务;自动提款机;中国建设银行ATM,160303
人民中路二段86号,青羊区,[],[],[],成都市,[],B001C05N8I,[],"104.067456,30.672455",中国建设银行(成都第五支行),[],[],四川省,[],[],2,028-86201976;95533,金融保险服务;银行;中国建设银行,160106
双水碾街道洪山北路99号,成华区,[],[],[],成都市,[],B0FFG2YREL,[],"104.094013,30.705576",中国建设银行(成都仙湖支行),[],[],四川省,[],[],2,028-69330883,金融保险服务;银行;中国建设银行,160106
澄平街201附近,大邑县,[],[],[],成都市,[],B0FFFPLVBR,[],"103.618971,30.515486",中国建设银行24小时自助银行(邬柏路),[],[],四川省,[],[],2,[],金融保险服务;自动提款机;中国建设银行ATM,160303
青路二段25号协信中心写字楼1层,成华区,[],[],202,成都市,[],B0FFFABBHI,[],"104.099456,30.681615",中国建设银行(成都电子科技大学东院支行),B0FFHS4RF2,[],四川省,[],[],2,028-81149633,金融保险服务;银行;中国建设银行,160106
建设路2号附20号,成华区,[],[],[],成都市,[],B001C8MGY5,[],"104.108232,30.670915",中国建设银行(成都建设路支行),[],[],四川省,[],[],2,028-84257519;95533,金融保险服务;银行;中国建设银行,160106
董家湾北街3号附7号,武侯区,[],[],[],成都市,[],B001C80QWX,[],"104.030815,30.632512",中国建设银行(成都红牌楼支行),[],[],四川省,[],[],2,028-61817563,金融保险服务;银行;中国建设银行,160106
人民南路三段17号附1号,武侯区,[],[],[],成都市,[],B001C7WQXS,[],"104.066781,30.638685",中国建设银行(成都第九支行),[],[],四川省,[],[],2,028-85442271,金融保险服务;银行;中国建设银行,160106
建设北路一段99号,成华区,[],[],[],成都市,[],B001C7WDWD,[],"104.090828,30.670723",中国建设银行(成都成华支行),[],[],四川省,[],[],2,95533;028-83335331,金融保险服务;银行;中国建设银行,160106
沙湾路262号附5-8号,金牛区,[],[],[],成都市,[],B001C0AG9C,[],"104.050861,30.689683",中国建设银行(成都沙湾支行),[],[],四川省,[],[],2,028-87659463,金融保险服务;银行;中国建设银行,160106
二环路东三段40号,成华区,[],[],[],成都市,[],B001C055WS,[],"104.115605,30.651072",中国建设银行(成都双庆路支行),[],[],四川省,[],[],2,028-84321455;028-95533,金融保险服务;银行;中国建设银行,160106
文华路,金牛区,[],[],3,成都市,[],B001C06BCI,[],"104.032221,30.675251",中国建设银行(金罗路支行),B001C06JGA,[],四川省,[],[],2,028-87787332;028-95533,金融保险服务;银行;中国建设银行,160106
成汉南路93-97,武侯区,[],[],[],成都市,[],B001C8O932,[],"104.054822,30.585964",中国建设银行(天府新谷支行),[],[],四川省,[],[],2,028-85325668,金融保险服务;银行;中国建设银行,160106
双林路228号附15-19号,成华区,[],[],[],成都市,[],B001C92H0B,[],"104.102833,30.656193",中国建设银行(成都双林支行),[],[],四川省,[],[],2,028-83525570,金融保险服务;银行;中国建设银行,160106
华逸路109号,青白江区,[],[],[],成都市,[],B0FFG71FJ3,[],"104.244709,30.887569",中国建设银行24小时自助银行(华逸路),[],[],四川省,[],[],2,[],金融保险服务;自动提款机;中国建设银行ATM,160303
西月城街28号,青羊区,[],[],[],成都市,[],B001C7WCQO,[],"104.052903,30.674886",中国建设银行(成都西月城支行),[],[],四川省,[],[],2,95533,金融保险服务;银行;中国建设银行,160106
162乡道与183县道交叉口东北200米,简阳市,[],[],[],成都市,[],B0FFHGR8ID,[],"104.494880,30.317095",中国建设银行24小时自助银行,[],[],四川省,[],[],2,[],金融保险服务;自动提款机;中国建设银行ATM,160303
九里堤南路78号附5-9号,金牛区,[],[],[],成都市,[],B001C0AGAV,[],"104.057635,30.692581",中国建设银行(九里堤南路支行),[],[],四川省,[],[],2,028-87642003;028-87676977;028-87642007,金融保险服务;银行;中国建设银行,160106
大田坎街162号附32-34号,锦江区,[],[],[],成都市,[],B001C7Y8F8,[],"104.103049,30.643269",中国建设银行(蜀都花园支行),[],[],四川省,[],[],2,028-84421286;028-84459103,金融保险服务;银行;中国建设银行,160106
武侯祠横街1号附4-5号,武侯区,[],[],[],成都市,[],B001C7WQXO,[],"104.049824,30.644007",中国建设银行(成都南郊支行),[],[],四川省,[],[],2,028-85550250,金融保险服务;银行;中国建设银行,160106
顺城街252号顺吉大厦1层建行,青羊区,[],[],202,成都市,[],B001C7UOAU,[],"104.070992,30.663914",中国建设银行(体育场路分理处),B001C7SZV4,[],四川省,[],[],2,028-86742556;95533,金融保险服务;银行;中国建设银行,160106
新光路5号附14号,武侯区,[],[],[],成都市,[],B001C0AGD1,[],"104.057741,30.615335",中国建设银行(新光路储蓄所),[],[],四川省,[],[],2,028-85139345,金融保险服务;银行;中国建设银行,160106
海椒市街56号之附1-6号,锦江区,[],[],[],成都市,[],B001C0AGB0,[],"104.100306,30.636483",中国建设银行(成都莲花新区支行),[],[],四川省,[],[],2,028-84530780;028-84530781,金融保险服务;银行;中国建设银行,160106
树蓓巷35-43,金牛区,[],[],[],成都市,[],B001C06O9Y,[],"104.090574,30.684992",中国建设银行(李家沱储蓄所),[],[],四川省,[],[],2,028-83391772;028-83396217;95533,金融保险服务;银行;中国建设银行,160106
淮口服务区附近,金堂县,[],[],311,成都市,[],B001C8OFDO,[],"104.566003,30.688629",淮口服务区中国建设银行ATM,B001C7XD68,[],四川省,[],[],2,[],金融保险服务;自动提款机;中国建设银行ATM,160303
万顺路一段290号,双流区,[],[],[],成都市,[],B0FFJDG00T,[],"104.026447,30.492837",中国建设银行(成都万顺支行),[],[],四川省,[],[],2,028-84081312,金融保险服务;银行;中国建设银行,160106
建设路11号,邛崃市,[],[],[],成都市,[],B0FFIBAJ0L,[],"103.461100,30.409257",中国建设银行24小时自助银行(建设路),[],[],四川省,[],[],2,[],金融保险服务;自动提款机;中国建设银行ATM,160303
水杉街566-570,锦江区,[],[],[],成都市,[],B0FFFGYPYS,[],"104.131565,30.605798",中国建设银行(成都海桐支行),[],[],四川省,[],[],2,95533,金融保险服务;银行;中国建设银行,160106
科华北路131号四川大学望江校区体育馆一楼,武侯区,[],[],[],成都市,[],B001C7WGMW,[],"104.083498,30.628476",中国建设银行(成都川大支行),[],[],四川省,[],[],2,028-85412137,金融保险服务;银行;中国建设银行,160106
乡农市街59号附15-17,金牛区,[],[],[],成都市,[],B001C7UDRI,[],"104.043271,30.684425",中国建设银行(成都金牛支行),[],[],四川省,[],[],2,028-87679957;028-87666192,金融保险服务;银行;中国建设银行,160106
郫彭路与湖广馆巷交叉路口往南约50米(三道堰景区),郫都区,[],[],[],成都市,[],B0FFGAA15U,[],"103.916471,30.866555",中国建设银行24小时自助银行(永宁路南一段),[],[],四川省,[],[],2,[],金融保险服务;自动提款机;中国建设银行ATM,160303
赵镇复兴街54号,金堂县,[],[],[],成都市,[],B001C0AGAP,[],"104.437923,30.854830",中国建设银行(金堂支行),[],[],四川省,[],[],2,028-84982439;028-84982440,金融保险服务;银行;中国建设银行,160106
步行街与玉带街交叉口东北50米,邛崃市,[],[],[],成都市,[],B0FFGIKNUR,[],"103.456933,30.399813",中国建设银行24小时自助银行(玉带街),[],[],四川省,[],[],2,[],金融保险服务;自动提款机;中国建设银行ATM,160303
青正街61号,都江堰市,[],[],[],成都市,[],B0FFG0YFXX,[],"103.595278,30.899102",中国建设银行24小时自助银行(青正街东段),[],[],四川省,[],[],2,[],金融保险服务;自动提款机;中国建设银行ATM,160303
瑞联路69号附5号,青羊区,[],[],[],成都市,[],B001C7U6F1,[],"103.999947,30.665170",中国建设银行(光华大道支行),[],[],四川省,[],[],2,028-81704523;028-81710192,金融保险服务;银行;中国建设银行,160106
盛源路26号,都江堰市,[],[],[],成都市,[],B0FFFT7W4J,[],"103.683871,30.945377",中国建设银行24小时自助银行(聚源财富中心东),[],[],四川省,[],[],2,[],金融保险服务;自动提款机;中国建设银行ATM,160303
人民中路一段28号成都房地产大厦,青羊区,[],[],202,成都市,[],B001C7U8YJ,[],"104.065339,30.664842",中国建设银行(后子门支行),B001C7U8Y9,[],四川省,[],[],2,028-86257811;028-86245776,金融保险服务;银行;中国建设银行,160106
西安南路69号附12号,金牛区,[],[],202,成都市,[],B001C7UFKO,[],"104.047114,30.666255",中国建设银行(成都西安南路支行),B001C7X8Y5,[],四川省,[],[],2,028-84458623,金融保险服务;银行;中国建设银行,160106
蜀西路46号附15号,金牛区,[],[],[],成都市,[],B0FFFE5UG5,[],"103.990139,30.715228",中国建设银行24小时自助银行(成都蜀西路支行),[],[],四川省,[],[],2,[],金融保险服务;自动提款机;中国建设银行ATM,160303
红星路二段70号,锦江区,[],[],[],成都市,[],B0FFG0UBOV,[],"104.082864,30.659501",中国建设银行(成都华兴支行),[],[],四川省,[],[],2,028-86966816;028-86966830,金融保险服务;银行;中国建设银行,160106
天府大道18号高新国际广场C座联通大厦1层,武侯区,[],[],[],成都市,[],B001C8O8PM,[],"104.066431,30.592539",中国建设银行(成都科技支行),[],[],四川省,[],[],2,028-82834996,金融保险服务;银行;中国建设银行,160106
武科东四路11号附19-20号,武侯区,[],[],[],成都市,[],B0FFF5TYLD,[],"103.988154,30.634978",中国建设银行24小时自助银行(成都慧谷支行),[],[],四川省,[],[],2,[],金融保险服务;自动提款机;中国建设银行ATM,160303
红星路二段118号,锦江区,[],[],3,成都市,[],B001C7TK6T,[],"104.084162,30.661738",中国建设银行(成都第三支行),B001C096AV,[],四川省,[],[],2,028-86746565;028-86623917,金融保险服务;银行;中国建设银行,160106
西街72-76号,新都区,[],[],[],成都市,[],B001C05EQ9,[],"104.158026,30.826411",中国建设银行(新都西街支行),[],[],四川省,[],[],2,028-83975124;028-83972592,金融保险服务;银行;中国建设银行,160106
成华大道新鸿路237号,成华区,[],[],[],成都市,[],B001C7UNGC,[],"104.107057,30.661951",中国建设银行(新鸿支行),[],[],四川省,[],[],2,028-82945784,金融保险服务;银行;中国建设银行,160106
五丁路9号附1号,金牛区,[],[],[],成都市,[],B001C7WQXU,[],"104.065369,30.683630",中国建设银行(成都铁道支行),[],[],四川省,[],[],2,028-83174373,金融保险服务;银行;中国建设银行,160106
草堂北路21号附4-5号,青羊区,[],[],[],成都市,[],B001C054RR,[],"104.029325,30.667408",中国建设银行(草堂北路支行),[],[],四川省,[],[],2,028-87369040;95533,金融保险服务;银行;中国建设银行,160106
茶店子五里墩路1号,金牛区,[],[],[],成都市,[],B001C0AGAO,[],"104.033421,30.693267",中国建设银行(成都茶店子支行),[],[],四川省,[],[],2,028-87527294,金融保险服务;银行;中国建设银行,160106
大源北二街21号,武侯区,[],[],[],成都市,[],B001C95DJR,[],"104.034460,30.555474",中国建设银行24小时自助银行(双源社区120号院东),[],[],四川省,[],[],2,[],金融保险服务;自动提款机;中国建设银行ATM,160303
花园街108-110号(人民医院旁边),简阳市,[],[],[],成都市,[],B034000R6D,[],"104.547240,30.388740",中国建设银行(花园街支行),[],[],四川省,[],[],2,028-26155179,金融保险服务;银行;中国建设银行,160106
果市巷164号,青白江区,[],[],[],成都市,[],B0FFG0Z8PA,[],"104.268938,30.874701",中国建设银行24小时自助银行(果市巷),[],[],四川省,[],[],2,[],金融保险服务;自动提款机;中国建设银行ATM,160303
蜀汉路289号锦城苑大厦内,金牛区,[],[],202,成都市,[],B001C0AGC5,[],"104.020149,30.688954",中国建设银行(蜀汉路分理处),B0FFFDZ8ZY,[],四川省,[],[],2,028-87578056,金融保险服务;银行;中国建设银行,160106
一环路西一段130号索尔国际2层,武侯区,[],[],[],成都市,[],B001C0AG8R,[],"104.040748,30.650221",中国建设银行(百花潭支行),[],[],四川省,[],[],2,028-87012830;028-85228840,金融保险服务;银行;中国建设银行,160106
犀浦镇西华大学,金牛区,[],[],[],成都市,[],B0FFFX1N2I,[],"103.955105,30.774983",中国建设银行24小时自助银行(犀铁雅居北),[],[],四川省,[],[],2,[],金融保险服务;自动提款机;中国建设银行ATM,160303
双福二路,成华区,[],[],[],成都市,[],B0FFHXQ51D,[],"104.120243,30.643289",中国建设银行(成华中心支行),[],[],四川省,[],[],2,028-83151972,金融保险服务;银行;中国建设银行,160106
成华大道北湖印象小区旁,成华区,[],[],[],成都市,[],B0FFFX4UHK,[],"104.167973,30.715178",中国建设银行ATM(北湖印象南区西),[],[],四川省,[],[],2,[],金融保险服务;自动提款机;中国建设银行ATM,160303
顺城街308号冠城广场1层,青羊区,[],[],202,成都市,[],B001C05TT2,[],"104.071350,30.668938",中国建设银行(冠城广场支行),B0FFH0JQLM,[],四川省,[],[],2,028-86527145,金融保险服务;银行;中国建设银行,160106
吉泰路53、55、57号,武侯区,[],[],[],成都市,[],B0FFK773R8,[],"104.060039,30.538391",中国建设银行(吉泰路支行),[],[],四川省,[],[],2,028-63914651;028-63914265,金融保险服务;银行;中国建设银行,160106
紫瑞街8-10号,新都区,[],[],[],成都市,[],B0FFHC16SV,[],"104.167823,30.827603",中国建设银行(新都东环路支行),[],[],四川省,[],[],2,028-83971144;95533,金融保险服务;银行;中国建设银行,160106
大弯镇新河路8号,青白江区,[],[],[],成都市,[],B001C7U2OC,[],"104.256326,30.885355",中国建设银行(青白江人民广场支行),[],[],四川省,[],[],2,028-83665800,金融保险服务;银行;中国建设银行,160106
一环路南四段新8号附2号,武侯区,[],[],[],成都市,[],B001C7USEF,[],"104.050393,30.635914",中国建设银行(成都衣冠庙支行),[],[],四川省,[],[],2,028-85555604,金融保险服务;银行;中国建设银行,160106
大悦路773号,武侯区,[],[],[],成都市,[],B0FFFACC9U,[],"104.004704,30.629909",中国建设银行(成都大悦路支行),[],[],四川省,[],[],2,[],金融保险服务;银行;中国建设银行,160106
橡树林路34-40号,锦江区,[],[],[],成都市,[],B0FFHGM2AB,[],"104.093486,30.624798",中国建设银行(三官堂支行),[],[],四川省,[],[],2,028-84514017,金融保险服务;银行;中国建设银行,160106
红高路14附近,郫都区,[],[],202,成都市,[],B0FFFGNITL,[],"103.941265,30.772662",中国建设银行24小时自助银行(红光支行),B0FFH2EAJD,[],四川省,[],[],2,[],金融保险服务;自动提款机;中国建设银行ATM,160303
菱安路337号,锦江区,[],[],[],成都市,[],B0FFFY1JY9,[],"104.117176,30.609020",中国建设银行(四川师范大学支行),[],[],四川省,[],[],2,028-84763908;95533,金融保险服务;银行;中国建设银行,160106
西区大道1704号,郫都区,[],[],[],成都市,[],B001C7TK46,[],"103.929744,30.773882",中国建设银行(成都西区支行),[],[],四川省,[],[],2,028-87958170,金融保险服务;银行;中国建设银行,160106
抚琴西路244-246号,金牛区,[],[],[],成都市,[],B001C05CUY,[],"104.033003,30.680242",中国建设银行(抚琴西路支行),[],[],四川省,[],[],2,028-87713239;95533,金融保险服务;银行;中国建设银行,160106
花园街41号,锦江区,[],[],202,成都市,[],B001C7UQBD,[],"104.114303,30.616519",中国建设银行(万科城市花园支行),B0FFFCSKLU,[],四川省,[],[],2,028-84790365,金融保险服务;银行;中国建设银行,160106
肖家村二巷53-57号,金牛区,[],[],202,成都市,[],B0FFG0UA6E,[],"104.075485,30.688326",中国建设银行(人民北路支行),B001C80TAL,[],四川省,[],[],2,028-83183965;95533,金融保险服务;银行;中国建设银行,160106
科园南一路与科园南路交叉口西南50米,武侯区,[],[],[],成都市,[],B0FFGCESNH,[],"104.029965,30.609267",中国建设银行24小时自助银行(科园南一路),[],[],四川省,[],[],2,[],金融保险服务;自动提款机;中国建设银行ATM,160303
蜚虹路365-367号,邛崃市,[],[],[],成都市,[],B001C95E8D,[],"103.475532,30.417110",中国建设银行(君平大道储蓄所),[],[],四川省,[],[],2,[],金融保险服务;银行;中国建设银行,160106
长顺上街2-4号,青羊区,[],[],[],成都市,[],B001C7VRD4,[],"104.056799,30.660603",中国建设银行(成都新华支行),[],[],四川省,[],[],2,028-86636265;028-86261901;028-86636330,金融保险服务;银行;中国建设银行,160106
提督街86-88号,青羊区,[],[],[],成都市,[],B0FFI767XZ,[],"104.073403,30.660019",中国建设银行(成都岷江支行),[],[],四川省,[],[],2,028-86767456;028-86766032,金融保险服务;银行;中国建设银行,160106
银河北街196号,金牛区,[],[],[],成都市,[],B001C8MMZ4,[],"104.041186,30.700875",中国建设银行(锦城名都储蓄所),[],[],四川省,[],[],2,028-61369381;95533,金融保险服务;银行;中国建设银行,160106
人民北路二段21号,金牛区,[],[],[],成都市,[],B001C7WDR8,[],"104.073007,30.692095",中国建设银行(火车北站支行),[],[],四川省,[],[],2,028-83176817;028-83173114,金融保险服务;银行;中国建设银行,160106
倪家桥路6号,武侯区,[],[],[],成都市,[],B001C06T3K,[],"104.061882,30.624728",中国建设银行(成都倪家桥支行),[],[],四川省,[],[],2,028-85582628;95533,金融保险服务;银行;中国建设银行,160106
解放路二段2号附3号,金牛区,[],[],[],成都市,[],B001C7UAG8,[],"104.081880,30.681005",中国建设银行(成都梁家巷支行),[],[],四川省,[],[],2,[],金融保险服务;银行;中国建设银行,160106
花都大道819号附8-11,新都区,[],[],[],成都市,[],B001C8VJSH,[],"104.056169,30.760821",中国建设银行24小时自助银行(大丰支行),[],[],四川省,[],[],2,[],金融保险服务;自动提款机;中国建设银行ATM,160303
二环路西一段90号附1-附2号,武侯区,[],[],3,成都市,[],B001C7UKU2,[],"104.025349,30.644000",中国建设银行ATM,B001C06LTU,[],四川省,[],[],2,[],金融保险服务;自动提款机;中国建设银行ATM,160303
光华大道三段1816号,温江区,[],[],3,成都市,[],B001C8R6CE,[],"103.857351,30.687577",中国建设银行ATM,B001C8R6CD,[],四川省,[],[],2,[],金融保险服务;自动提款机;中国建设银行ATM,160303
金沙路169号,金牛区,[],[],[],成都市,[],B0FFGFOPT4,[],"104.047053,30.690555",中国建设银行(金沙路支行),[],[],四川省,[],[],2,028-87676128;95533,金融保险服务;银行;中国建设银行,160106
上南大街4号,青羊区,[],[],[],成都市,[],B001C8MR07,[],"104.063150,30.651712",中国建设银行(成都第八支行),[],[],四川省,[],[],2,028-86138545;028-86138641;95533,金融保险服务;银行;中国建设银行,160106
临邛镇司马大道供电局1层,邛崃市,[],[],[],成都市,[],B001C7ZZZK,[],"103.458291,30.401665",中国建设银行(邛崃司马大道支行),[],[],四川省,[],[],2,028-88796091,金融保险服务;银行;中国建设银行,160106
高新区天顺路90号,武侯区,[],[],[],成都市,[],B001C7YL9I,[],"104.071184,30.590579",中国建设银行(兴南支行),[],[],四川省,[],[],2,028-85359491,金融保险服务;银行;中国建设银行,160106
蜀州北路47-53号,崇州市,[],[],[],成都市,[],B001C06VLU,[],"103.669586,30.633204",中国建设银行(蜀州北路储蓄所),[],[],四川省,[],[],2,[],金融保险服务;银行;中国建设银行,160106
科华南路泛悦国际1层,武侯区,[],[],[],成都市,[],B0FFIR4JJ6,[],"104.077706,30.612971",中国建设银行(成都蓝天支行),[],[],四川省,[],[],2,028-85260129;95533,金融保险服务;银行;中国建设银行,160106
天目路188附3号附近,郫都区,[],[],[],成都市,[],B0FFFVKJ41,[],"103.976251,30.732149",中国建设银行24小时自助银行(天目路储蓄所),[],[],四川省,[],[],2,[],金融保险服务;自动提款机;中国建设银行ATM,160303
大慈寺路38号锦江区财政局内,锦江区,[],[],[],成都市,[],B0FFFR6ZZJ,[],"104.084033,30.655781",中国建设银行(大慈寺路分理处),[],[],四川省,[],[],2,95533,金融保险服务;银行;中国建设银行,160106
商业街与燃灯路交叉口西北100米,双流区,[],[],[],成都市,[],B0FFFZOBLS,[],"103.876766,30.582959",中国建设银行24小时自助银行(交通路三段),[],[],四川省,[],[],2,[],金融保险服务;自动提款机;中国建设银行ATM,160303
雄州大道南段421,简阳市,[],[],[],成都市,[],B0FFHE3ND1,[],"104.539389,30.408451",中国建设银行24小时自助银行,[],[],四川省,[],[],2,[],金融保险服务;自动提款机;中国建设银行ATM,160303
化工北路1号,青白江区,[],[],[],成都市,[],B001C7YQTA,[],"104.266829,30.876796",中国建设银行ATM,[],[],四川省,[],[],2,[],金融保险服务;自动提款机;中国建设银行ATM,160303
高升桥北街9号,武侯区,[],[],[],成都市,[],B001C0AGB8,[],"104.038995,30.637626",中国建设银行(罗浮世家分理处),[],[],四川省,[],[],2,028-85090513,金融保险服务;银行;中国建设银行,160106
云影路2号附8号,武侯区,[],[],[],成都市,[],B001C92GES,[],"104.018672,30.646317",中国建设银行(云影路支行),[],[],四川省,[],[],2,028-87050511,金融保险服务;银行;中国建设银行,160106
天晖路360号晶科1号1楼,武侯区,[],[],[],成都市,[],B0FFF90CNB,[],"104.063450,30.589079",中国建设银行(天府新城储蓄所),[],[],四川省,[],[],2,028-65294504,金融保险服务;银行;中国建设银行,160106
南丰路与南岸路交叉口西50米,新都区,[],[],[],成都市,[],B0FFGIQD2B,[],"104.061034,30.811261",中国建设银行24小时自助银行,[],[],四川省,[],[],2,[],金融保险服务;自动提款机;中国建设银行ATM,160303
北一环路604号附近,新都区,[],[],[],成都市,[],B0FFHC58FT,[],"104.010004,30.885435",中国建设银行24小时自助银行,[],[],四川省,[],[],2,[],金融保险服务;自动提款机;中国建设银行ATM,160303
希望路88号,新津区,[],[],[],成都市,[],B0FFGN48QZ,[],"103.810732,30.429019",中国建设银行24小时自助银行(希望路),[],[],四川省,[],[],2,[],金融保险服务;自动提款机;中国建设银行ATM,160303
西大街318,郫都区,[],[],3,成都市,[],B001C8MBPU,[],"103.882566,30.813523",中国建设银行24小时自助银行(望丛支行),B001C7ZXGH,[],四川省,[],[],2,[],金融保险服务;自动提款机;中国建设银行ATM,160303
宏济新路337号,锦江区,[],[],[],成都市,[],B001C7VRDP,[],"104.096572,30.640505",中国建设银行(蜀光新城支行),[],[],四川省,[],[],2,028-84531335;95533,金融保险服务;银行;中国建设银行,160106
玉双路5号附22号,成华区,[],[],[],成都市,[],B0FFFQ1YVR,[],"104.095184,30.655518",中国建设银行24小时自助银行(玉双路),[],[],四川省,[],[],2,[],金融保险服务;自动提款机;中国建设银行ATM,160303
华金大道二段771号,青白江区,[],[],[],成都市,[],B0FFFTAQEI,[],"104.243354,30.883489",中国建设银行24小时自助银行(四季・宜家东北),[],[],四川省,[],[],2,[],金融保险服务;自动提款机;中国建设银行ATM,160303
三圣南路与回龙西路交叉口西北100米,彭州市,[],[],[],成都市,[],B0FFFPA6HH,[],"103.958624,30.996550",中国建设银行24小时自助银行(回龙西路),[],[],四川省,[],[],2,[],金融保险服务;自动提款机;中国建设银行ATM,160303
城守东大街走马街59号蓝光大厦1层,锦江区,[],[],202,成都市,[],B001C7UPWP,[],"104.075988,30.653264",中国建设银行(成都春熙支行),B001C05065,[],四川省,[],[],2,028-95533,金融保险服务;银行;中国建设银行,160106
迎宾大道57号,金牛区,[],[],[],成都市,[],B001C93JHY,[],"104.011742,30.710917",中国建设银行24小时自助银行(金域支行),[],[],四川省,[],[],2,[],金融保险服务;自动提款机;中国建设银行ATM,160303
晨曦大道中段与飞云路交叉口东150米,崇州市,[],[],[],成都市,[],B0FFJC6I95,[],"103.717947,30.615256",中国建设银行24小时自助银行,[],[],四川省,[],[],2,[],金融保险服务;自动提款机;中国建设银行ATM,160303
高升桥东路22号附10号,武侯区,[],[],[],成都市,[],B001C06IOX,[],"104.040412,30.632697",中国建设银行(高升东路支行),[],[],四川省,[],[],2,028-85083781,金融保险服务;银行;中国建设银行,160106
大北街62号,蒲江县,[],[],[],成都市,[],B0FFF36ZXD,[],"103.508653,30.199995",中国建设银行24小时自助银行(大北街),[],[],四川省,[],[],2,[],金融保险服务;自动提款机;中国建设银行ATM,160303
鹤山北路3附1,蒲江县,[],[],3,成都市,[],B001C7UYAZ,[],"103.510013,30.194740",中国建设银行24小时自助银行(蒲江支行),B001C7UYDH,[],四川省,[],[],2,[],金融保险服务;自动提款机;中国建设银行ATM,160303
世纪城路216号附1号,武侯区,[],[],3,成都市,[],B001C8MQ14,[],"104.074787,30.559947",中国建设银行24小时自助银行(成都世纪城支行),B001C8MQ13,[],四川省,[],[],2,[],金融保险服务;自动提款机;中国建设银行ATM,160303
学府路北段(海科名城小区北),温江区,[],[],[],成都市,[],B001C7YO4X,[],"103.816460,30.681721",中国建设银行ATM(海科名城北),[],[],四川省,[],[],2,[],金融保险服务;自动提款机;中国建设银行ATM,160303
北京路北段与北泉路交叉口西北100米,龙泉驿区,[],[],[],成都市,[],B0FFGX7MMF,[],"104.243988,30.570501",中国建设银行24小时自助银行(艺锦湾储蓄所),[],[],四川省,[],[],2,[],金融保险服务;自动提款机;中国建设银行ATM,160303
一环路南四段16西南民族大学学生公寓7号楼,武侯区,[],[],202,成都市,[],B001C7Y7P0,[],"104.049166,30.639834",中国建设银行ATM(文翰宾馆东南),B0FFIWHDPY,[],四川省,[],[],2,[],金融保险服务;自动提款机;中国建设银行ATM,160303
藏卫路南二段100号,双流区,[],[],[],成都市,[],B0FFG77YZ7,[],"103.918073,30.561324",中国建设银行24小时自助银行(棠湖支行),[],[],四川省,[],[],2,[],金融保险服务;自动提款机;中国建设银行ATM,160303
东湖北街1-9号,彭州市,[],[],[],成都市,[],B0FFFPHYUB,[],"103.959909,30.987588",中国建设银行24小时自助银行(彭州新城支行),[],[],四川省,[],[],2,[],金融保险服务;自动提款机;中国建设银行ATM,160303
独柏街137号附近,郫都区,[],[],[],成都市,[],B0FFH87UWO,[],"103.916677,30.801727",中国建设银行24小时自助银行,[],[],四川省,[],[],2,[],金融保险服务;自动提款机;中国建设银行ATM,160303
政府北路110附近,青白江区,[],[],[],成都市,[],B001C8068Z,[],"104.252924,30.887073",中国建设银行24小时自助银行(红阳东路),[],[],四川省,[],[],2,[],金融保险服务;自动提款机;中国建设银行ATM,160303
回龙路49号附近,新都区,[],[],[],成都市,[],B0FFH23AGE,[],"104.154602,30.740655",中国建设银行24小时自助银行(回龙路),[],[],四川省,[],[],2,[],金融保险服务;自动提款机;中国建设银行ATM,160303
天勤东街与尚丰路交叉口东南150米,郫都区,[],[],[],成都市,[],B0FFIPOVDZ,[],"103.923615,30.784254",中国建设银行24小时自助银行,[],[],四川省,[],[],2,[],金融保险服务;自动提款机;中国建设银行ATM,160303
湖畔路北段天府菁蓉中心B区10号楼,双流区,[],[],[],成都市,[],B0GRJRNJV3,[],"104.080515,30.403518",中国建设银行(自贸试验区分行),[],[],四川省,[],[],2,028-85858601,金融保险服务;银行;中国建设银行,160106
华阳街道警校路一段23号(地铁5号线警官学院站C2入口旁),双流区,[],[],[],成都市,[],B0G2H7QBA5,[],"104.041122,30.510854",中国建设银行成都警校路支行,[],[],四川省,[],[],2,028-83207432,金融保险服务;银行;中国建设银行,160106
槐树店一路329号,成华区,[],[],[],成都市,[],B0G1BC7X3S,[],"104.134644,30.645894",中国建设银行(成都鲁能城支行),[],[],四川省,[],[],2,028-84330422,金融保险服务;银行;中国建设银行,160106
金阳路176号东北90米,青羊区,[],[],[],成都市,[],B0G17DX9HN,[],"104.003878,30.680929",中国建设银行,[],[],四川省,[],[],2,[],金融保险服务;银行;中国建设银行,160106
九江街道康家堰路二段175号,双流区,[],[],[],成都市,[],B0FFMA91IQ,[],"103.928438,30.628878",中国建设银行(双流九江支行),[],[],四川省,[],[],2,028-85710275,金融保险服务;银行;中国建设银行,160106
"应龙南一路15,17号",双流区,[],[],[],成都市,[],B0FFLH6ZXJ,[],"104.086606,30.532833",中国建设银行股份有限公司成都新川支行,[],[],四川省,[],[],2,028-85516585,金融保险服务;银行;银行,160100
国机西南大厦1层,成华区,[],[],202,成都市,[],B0FFLAKTGB,[],"104.174628,30.688329",中国建设银行(成都龙潭支行),B0FFI84VXV,[],四川省,[],[],2,028-84215067;028-84215063,金融保险服务;银行;中国建设银行,160106
江安路509号,温江区,[],[],[],成都市,[],B0FFKW0PC3,[],"103.883137,30.688084",中国建设银行(江安路支行),[],[],四川省,[],[],2,028-82722076;028-82746575;028-82745756,金融保险服务;银行;中国建设银行,160106
-新都大道西南石油大学,新都区,[],[],[],成都市,[],B0FFJ1J85X,[],"104.179592,30.813718",中国建设银行,[],[],四川省,[],[],2,028-83992382,金融保险服务;银行;中国建设银行,160106
[],武侯区,[],[],[],成都市,[],B0FFIZ13AE,[],"104.071314,30.601180",中国建设银行(成都天仁路支行),[],[],四川省,[],[],2,[],金融保险服务;银行;中国建设银行,160106
建设路35号,龙泉驿区,[],[],[],成都市,[],B001C8T5SB,[],"104.273821,30.560632",中国建设银行,[],[],四川省,[],[],2,[],金融保险服务;银行;中国建设银行,160106
金江路153号附近,武侯区,[],[],[],成都市,[],B0FFFWTNEP,[],"103.962499,30.612268",中国建设银行24小时自助银行(金江路支行),[],[],四川省,[],[],2,[],金融保险服务;自动提款机;中国建设银行ATM,160303
牡丹西路南段137号,彭州市,[],[],[],成都市,[],B0FFFPHZD8,[],"103.956725,30.984952",中国建设银行24小时自助银行(牡丹西路南段),[],[],四川省,[],[],2,[],金融保险服务;自动提款机;中国建设银行ATM,160303
一环路西二段4-10号,青羊区,[],[],[],成都市,[],B0FFFAC41D,[],"104.040470,30.660157",中国建设银行ATM,[],[],四川省,[],[],2,[],金融保险服务;自动提款机;中国建设银行ATM,160303
五津南路1号,新津区,[],[],3,成都市,[],B001C7VRE2,[],"103.812167,30.411850",中国建设银行24小时自助银行,B001C7VRE1,[],四川省,[],[],2,[],金融保险服务;自动提款机;中国建设银行ATM,160303
东御街66号,锦江区,[],[],[],成都市,[],B001C7UQ55,[],"104.067426,30.656253",中国建设银行(金河支行),[],[],四川省,[],[],2,028-86725244;028-86725246,金融保险服务;银行;中国建设银行,160106
君平大道与西较场口交叉口北100米,邛崃市,[],[],[],成都市,[],B0FFGB9LZF,[],"103.460263,30.421976",中国建设银行(城北支行),[],[],四川省,[],[],2,028-88792302,金融保险服务;银行;中国建设银行,160106
东壕沟南段70-74号,大邑县,[],[],3,成都市,[],B001C7UHZR,[],"103.524502,30.584717",中国建设银行24小时自助银行(公园坝支行),B001C7UHZQ,[],四川省,[],[],2,[],金融保险服务;自动提款机;中国建设银行ATM,160303
金府路中段与金府路西段交叉口南150米,温江区,[],[],[],成都市,[],B0FFFPZN15,[],"103.793210,30.681091",中国建设银行24小时自助银行(蓉台大道北段),[],[],四川省,[],[],2,[],金融保险服务;自动提款机;中国建设银行ATM,160303
十二桥路12号,青羊区,[],[],[],成都市,[],B001C7VRCW,[],"104.045031,30.663595",中国建设银行(十二桥支行),[],[],四川省,[],[],2,028-87767894,金融保险服务;银行;中国建设银行,160106
光华村街40号大地新光华广场1层,青羊区,[],[],[],成都市,[],B0FFG0Z2E2,[],"104.014560,30.661790",中国建设银行24小时自助银行(家园路),[],[],四川省,[],[],2,[],金融保险服务;自动提款机;中国建设银行ATM,160303
兴乐北路94号,新都区,[],[],[],成都市,[],B0FFGE04AW,[],"104.192997,30.809942",中国建设银行24小时自助银行(兴乐北路),[],[],四川省,[],[],2,[],金融保险服务;自动提款机;中国建设银行ATM,160303
玉带街185号,龙泉驿区,[],[],[],成都市,[],B0FFFODR2P,[],"104.327791,30.641676",中国建设银行24小时自助银行(玉带街),[],[],四川省,[],[],2,[],金融保险服务;自动提款机;中国建设银行ATM,160303
麓镇大道二段18号14栋附103,双流区,[],[],[],成都市,[],B0FFH89UNH,[],"104.093396,30.481481",中国建设银行24小时自助银行(成都麓山国际支行),[],[],四川省,[],[],2,[],金融保险服务;自动提款机;中国建设银行ATM,160303
鹤山北路3号,蒲江县,[],[],[],成都市,[],B001C7UYDH,[],"103.510053,30.194647",中国建设银行(蒲江支行营业部),[],[],四川省,[],[],2,028-88522535,金融保险服务;银行;中国建设银行,160106
简阳中学附近,简阳市,[],[],[],成都市,[],B03400N8UP,[],"104.548640,30.403327",中国建设银行24小时自助银行,[],[],四川省,[],[],2,[],金融保险服务;自动提款机;中国建设银行ATM,160303
柳城大道西段256号,温江区,[],[],3,成都市,[],B001C8MXB1,[],"103.828776,30.690805",中国建设银行24小时自助银行(银城花园支行),B001C8MZWN,[],四川省,[],[],2,[],金融保险服务;自动提款机;中国建设银行ATM,160303
龙都南路463号,龙泉驿区,[],[],[],成都市,[],B0FFFAD2TT,[],"104.272336,30.571520",中国建设银行24小时自助银行(龙都南路),[],[],四川省,[],[],2,[],金融保险服务;自动提款机;中国建设银行ATM,160303
列维士路562号,新都区,[],[],[],成都市,[],B0FFF02MAS,[],"104.020631,30.854551",中国建设银行24小时自助银行(成都新都香江支行),[],[],四川省,[],[],2,[],金融保险服务;自动提款机;中国建设银行ATM,160303
乌江路290附近,双流区,[],[],[],成都市,[],B0FFFXIGHN,[],"103.912660,30.612534",中国建设银行24小时自助银行(乌江路),[],[],四川省,[],[],2,[],金融保险服务;自动提款机;中国建设银行ATM,160303
琉璃路655号,锦江区,[],[],3,成都市,[],B001C80N55,[],"104.094261,30.613789",中国建设银行24小时自助银行(翡翠城支行),B001C80N54,[],四川省,[],[],2,[],金融保险服务;自动提款机;中国建设银行ATM,160303
二仙桥东三路2号成都理工大学(北门)附近,成华区,[],[],[],成都市,[],B0FFF6B9PS,[],"104.145387,30.676215",中国建设银行ATM(理工学院储蓄所),[],[],四川省,[],[],2,[],金融保险服务;自动提款机;中国建设银行ATM,160303
金桔街附近,金堂县,[],[],[],成都市,[],B0FFFACXHZ,[],"104.448876,30.851534",中国建设银行24小时自助银行(金橘街),[],[],四川省,[],[],2,[],金融保险服务;自动提款机;中国建设银行ATM,160303
太康西路152号,新津区,[],[],[],成都市,[],B0FFF38L9Q,[],"103.809605,30.420158",中国建设银行ATM,[],[],四川省,[],[],2,[],金融保险服务;自动提款机;中国建设银行ATM,160303
朝阳大道200号,蒲江县,[],[],[],成都市,[],B0FFG2Q92V,[],"103.521022,30.196390",中国建设银行(朝阳大道支行),[],[],四川省,[],[],2,028-88522921;95533,金融保险服务;银行;中国建设银行,160106
柳城街道东大街1-5号,温江区,[],[],3,成都市,[],B001C7VRDV,[],"103.836387,30.698753",中国建设银行24小时自助银行(温江支行),B001C7VRDU,[],四川省,[],[],2,[],金融保险服务;自动提款机;中国建设银行ATM,160303
蒲阳路619号,都江堰市,[],[],3,成都市,[],B001C8OLQ6,[],"103.635607,31.005582",中国建设银行24小时自助银行(蒲阳干道支行),B001C8ON5W,[],四川省,[],[],2,[],金融保险服务;自动提款机;中国建设银行ATM,160303
文锦街160号附近,新都区,[],[],[],成都市,[],B0FFG4WFKB,[],"104.069055,30.818126",中国建设银行24小时自助银行(文锦街),[],[],四川省,[],[],2,[],金融保险服务;自动提款机;中国建设银行ATM,160303
长融街28号-9-2-101附近,成华区,[],[],[],成都市,[],B0FFG8YJCN,[],"104.143385,30.654222",中国建设银行ATM(长融街),[],[],四川省,[],[],2,[],金融保险服务;自动提款机;中国建设银行ATM,160303
至善东一路与陈英路交叉口东100米,龙泉驿区,[],[],[],成都市,[],B0FFGLM2I9,[],"104.191012,30.651026",中国建设银行24小时自助银行(陈英路),[],[],四川省,[],[],2,[],金融保险服务;自动提款机;中国建设银行ATM,160303
文井街7号,崇州市,[],[],3,成都市,[],B001C7ZZ0Q,[],"103.662076,30.632308",中国建设银行24小时自助银行(文井街),B001C7ZYZP,[],四川省,[],[],2,[],金融保险服务;自动提款机;中国建设银行ATM,160303
长顺大道一段西100米,双流区,[],[],[],成都市,[],B0FFFW9H5W,[],"104.024527,30.500767",中国建设银行24小时自助银行(双流区协和实验小学西),[],[],四川省,[],[],2,[],金融保险服务;自动提款机;中国建设银行ATM,160303
大安正街5号,锦江区,[],[],[],成都市,[],B0FFG0YXX5,[],"104.083308,30.645680",中国建设银行24小时自助银行(大安正街),[],[],四川省,[],[],2,[],金融保险服务;自动提款机;中国建设银行ATM,160303
新乐路406号,武侯区,[],[],[],成都市,[],B0FFFCT3DR,[],"104.036709,30.608336",中国建设银行ATM(新乐路),[],[],四川省,[],[],2,[],金融保险服务;自动提款机;中国建设银行ATM,160303
一环路东二段7号附4,成华区,[],[],[],成都市,[],B0FFG0YO2V,[],"104.100501,30.667660",中国建设银行24小时自助银行(一环路东二段),[],[],四川省,[],[],2,[],金融保险服务;自动提款机;中国建设银行ATM,160303
水杉街566-570,锦江区,[],[],[],成都市,[],B0FFFYMWCK,[],"104.131502,30.605873",中国建设银行24小时自助银行(海桐支行),[],[],四川省,[],[],2,[],金融保险服务;自动提款机;中国建设银行ATM,160303
车城东七路366号,龙泉驿区,[],[],[],成都市,[],B0FFFACM2E,[],"104.220114,30.517746",中国建设银行ATM(成环路),[],[],四川省,[],[],2,[],金融保险服务;自动提款机;中国建设银行ATM,160303
东湖北街127号,彭州市,[],[],[],成都市,[],B0FFFPI3HA,[],"103.959722,30.985078",中国建设银行24小时自助银行(东湖北街),[],[],四川省,[],[],2,[],金融保险服务;自动提款机;中国建设银行ATM,160303
槐树店路31号附11号,成华区,[],[],[],成都市,[],B0FFFADAAQ,[],"104.140918,30.648927",中国建设银行24小时自助银行(槐树店路),[],[],四川省,[],[],2,[],金融保险服务;自动提款机;中国建设银行ATM,160303
上善南路3号,都江堰市,[],[],[],成都市,[],B001C8OKVG,[],"103.659419,31.012410",中国建设银行24小时自助银行(上善南路),[],[],四川省,[],[],2,[],金融保险服务;自动提款机;中国建设银行ATM,160303
通江街29,新都区,[],[],[],成都市,[],B0FFH21FIF,[],"104.026536,30.818936",中国建设银行24小时自助银行,[],[],四川省,[],[],2,[],金融保险服务;自动提款机;中国建设银行ATM,160303
来龙路与西航港大道交叉口西50米,双流区,[],[],3,成都市,[],B001C8OO1M,[],"103.973109,30.533913",中国建设银行24小时自助银行(西航港支行),B001C8MRA2,[],四川省,[],[],2,[],金融保险服务;自动提款机;中国建设银行ATM,160303
香槟路69号附近,龙泉驿区,[],[],[],成都市,[],B0FFG7GW0J,[],"104.256867,30.535827",中国建设银行24小时自助银行(华怡科尔西南),[],[],四川省,[],[],2,[],金融保险服务;自动提款机;中国建设银行ATM,160303
三西路与货运大道交叉口西北200米,新都区,[],[],[],成都市,[],B0FFFWNBOA,[],"104.127085,30.783389",中国建设银行24小时自助银行(货运大道),[],[],四川省,[],[],2,[],金融保险服务;自动提款机;中国建设银行ATM,160303
翔凤路779号,都江堰市,[],[],[],成都市,[],B0FFF5TTOY,[],"103.643735,30.971124",中国建设银行24小时自助银行(安居路),[],[],四川省,[],[],2,[],金融保险服务;自动提款机;中国建设银行ATM,160303
雄州大道南段466附近,简阳市,[],[],[],成都市,[],B0FFFTL6KB,[],"104.537449,30.410759",中国建设银行24小时自助银行(雄州大道支行),[],[],四川省,[],[],2,[],金融保险服务;自动提款机;中国建设银行ATM,160303
车城东四路99号,龙泉驿区,[],[],[],成都市,[],B0FFF2U21E,[],"104.226670,30.545110",中国建设银行ATM(车城东四路),[],[],四川省,[],[],2,[],金融保险服务;自动提款机;中国建设银行ATM,160303
晋原街道西街49号(大邑食品药品监督管理局东侧),大邑县,[],[],[],成都市,[],B001C7VRC8,[],"103.519394,30.585190",中国建设银行(大邑支行),[],[],四川省,[],[],2,028-88291843,金融保险服务;银行;中国建设银行,160106
机场路成都双流国际机场3F层,双流区,[],[],201,成都市,[],B0FFGF9I8U,[],"103.958323,30.578421",中国建设银行ATM(成都空港大酒店西北),B001C06GIA,[],四川省,[],[],2,[],金融保险服务;自动提款机;中国建设银行ATM,160303
康兮路156号附近,都江堰市,[],[],[],成都市,[],B0FFGM2M1G,[],"103.625445,30.972837",中国建设银行24小时自助银行(康兮路),[],[],四川省,[],[],2,[],金融保险服务;自动提款机;中国建设银行ATM,160303
西航港新街178号附1,双流区,[],[],[],成都市,[],B0FFF3AEU8,[],"104.012379,30.550234",中国建设银行24小时自助银行(金玉满堂西),[],[],四川省,[],[],2,[],金融保险服务;自动提款机;中国建设银行ATM,160303
潘家街三段72号附1号,大邑县,[],[],[],成都市,[],B0FFF3ADIK,[],"103.535903,30.575592",中国建设银行24小时自助银行(潘家街三段),[],[],四川省,[],[],2,[],金融保险服务;自动提款机;中国建设银行ATM,160303
新光路5号附14号,武侯区,[],[],3,成都市,[],B001C7URNW,[],"104.057736,30.615301",中国建设银行24小时自助银行(新光路支行),B001C0AGD1,[],四川省,[],[],2,[],金融保险服务;自动提款机;中国建设银行ATM,160303
滨河路二段580-582,双流区,[],[],[],成都市,[],B0FFF5TQ8R,[],"104.055392,30.522926",中国建设银行24小时自助银行(华新储蓄所),[],[],四川省,[],[],2,[],金融保险服务;自动提款机;中国建设银行ATM,160303
车城西四路125号附1,龙泉驿区,[],[],[],成都市,[],B0FFF2FNBK,[],"104.175852,30.566646",中国建设银行24小时自助银行(车城支行),[],[],四川省,[],[],2,[],金融保险服务;自动提款机;中国建设银行ATM,160303
九里堤南路78号附5-9号,金牛区,[],[],3,成都市,[],B001C7WD8X,[],"104.057480,30.692677",中国建设银行24小时自助银行(九里堤南路支行),B001C0AGAV,[],四川省,[],[],2,[],金融保险服务;自动提款机;中国建设银行ATM,160303
敬成路425号,新都区,[],[],[],成都市,[],B0FFJ93U10,[],"104.067713,30.772199",中国建设银行(新都北星支行),[],[],四川省,[],[],2,028-83971258,金融保险服务;银行;中国建设银行,160106
天缘路一段76-78号,新都区,[],[],[],成都市,[],B0FFFAAUPX,[],"104.152971,30.814421",中国建设银行24小时自助银行(天缘路一段),[],[],四川省,[],[],2,[],金融保险服务;自动提款机;中国建设银行ATM,160303
珠江东街153-155号,郫都区,[],[],3,成都市,[],B001C0AGAB,[],"103.962211,30.760056",中国建设银行24小时自助银行(犀浦支行),B001C0AGAA,[],四川省,[],[],2,[],金融保险服务;自动提款机;中国建设银行ATM,160303
一环路南四段8号附2号,武侯区,[],[],3,成都市,[],B001C92BIZ,[],"104.050302,30.635606",中国建设银行24小时自助银行(衣冠庙支行),B001C7USEF,[],四川省,[],[],2,[],金融保险服务;自动提款机;中国建设银行ATM,160303
花园街41号万科城市花园广场,锦江区,[],[],3,成都市,[],B001C7UQBE,[],"104.114296,30.616536",中国建设银行24小时自助银行(成都万科城市花园支行),B001C7UQBD,[],四川省,[],[],2,[],金融保险服务;自动提款机;中国建设银行ATM,160303
火神庙北一路与火神庙路交叉口西50米,成华区,[],[],[],成都市,[],B0FFGM2L39,[],"104.170180,30.706085",中国建设银行ATM(火神庙西街),[],[],四川省,[],[],2,[],金融保险服务;自动提款机;中国建设银行ATM,160303
天鹅一路33号附9,成华区,[],[],[],成都市,[],B0FFF3ADN2,[],"104.156468,30.638352",中国建设银行ATM(天鹅路),[],[],四川省,[],[],2,[],金融保险服务;自动提款机;中国建设银行ATM,160303
上南街227-229号,崇州市,[],[],3,成都市,[],B001C8NP19,[],"103.673094,30.624327",中国建设银行ATM(上南街储蓄所),B001C057ZX,[],四川省,[],[],2,[],金融保险服务;自动提款机;中国建设银行ATM,160303
车城东一路254附近,龙泉驿区,[],[],[],成都市,[],B001C95E48,[],"104.200493,30.542197",中国建设银行ATM(经开区南三路),[],[],四川省,[],[],2,[],金融保险服务;自动提款机;中国建设银行ATM,160303
大悦路773号,武侯区,[],[],[],成都市,[],B0FFFACC9Z,[],"104.004658,30.629913",中国建设银行24小时自助银行(成都大悦路支行),[],[],四川省,[],[],2,[],金融保险服务;自动提款机;中国建设银行ATM,160303
繁清路508号附2,新都区,[],[],[],成都市,[],B0FFFQ1ZEL,[],"104.005842,30.880014",中国建设银行24小时自助银行(繁清路),[],[],四川省,[],[],2,[],金融保险服务;自动提款机;中国建设银行ATM,160303
牡丹北路146号,彭州市,[],[],[],成都市,[],B0FFFPA829,[],"103.954751,30.990946",中国建设银行24小时自助银行(牡丹北路),[],[],四川省,[],[],2,[],金融保险服务;自动提款机;中国建设银行ATM,160303
潘家街四段268号,大邑县,[],[],[],成都市,[],B0FFF5TTFE,[],"103.523130,30.567865",中国建设银行24小时自助银行(西岭・香槟国际北),[],[],四川省,[],[],2,[],金融保险服务;自动提款机;中国建设银行ATM,160303
天府东路1-5号,彭州市,[],[],3,成都市,[],B001C0AGAC,[],"103.953192,30.978409",中国建设银行24小时自助银行(工业大道支行),B001C06SRL,[],四川省,[],[],2,[],金融保险服务;自动提款机;中国建设银行ATM,160303
建设路1号,邛崃市,[],[],[],成都市,[],B001C0AGDG,[],"103.460766,30.409607",中国建设银行(邛崃支行),[],[],四川省,[],[],2,028-88795913,金融保险服务;银行;中国建设银行,160106
郫温路8号附近,郫都区,[],[],[],成都市,[],B0GUY73I3E,[],"103.879050,30.804283",中国建设银行24小时自助银行(郫温路),[],[],四川省,[],[],2,[],金融保险服务;自动提款机;中国建设银行ATM,160303
斑竹园中利路165号北欧商业广场,新都区,[],[],[],成都市,[],B0FFGY94LP,[],"104.079226,30.811830",中国建设银行ATM(北欧知识城),[],[],四川省,[],[],2,[],金融保险服务;自动提款机;中国建设银行ATM,160303
华丰路180号附1102,金牛区,[],[],[],成都市,[],B0FFFE1USU,[],"104.029406,30.715059",中国建设银行ATM(华丰路),[],[],四川省,[],[],2,[],金融保险服务;自动提款机;中国建设银行ATM,160303
子龙街2号附1号,大邑县,[],[],[],成都市,[],B0FFF3AAI5,[],"103.528876,30.588574",中国建设银行24小时自助银行,[],[],四川省,[],[],2,[],金融保险服务;自动提款机;中国建设银行ATM,160303
欣然一街11号,成华区,[],[],3,成都市,[],B001C8MJW0,[],"104.105408,30.684731",中国建设银行24小时自助银行(府青支行),B001C8MYBC,[],四川省,[],[],2,[],金融保险服务;自动提款机;中国建设银行ATM,160303
勤俭路,都江堰市,[],[],[],成都市,[],B0FFG64T74,[],"103.654253,31.002017",中国建设银行24小时自助银行(彩虹大道北段),[],[],四川省,[],[],2,[],金融保险服务;自动提款机;中国建设银行ATM,160303
府青路二段2号附27号,成华区,[],[],[],成都市,[],B001C92FBI,[],"104.095599,30.678179",中国建设银行24小时自助银行(府青路二段),[],[],四川省,[],[],2,[],金融保险服务;自动提款机;中国建设银行ATM,160303
盛隆街8号附2号,武侯区,[],[],3,成都市,[],B001C7VRE8,[],"104.071918,30.622651",中国建设银行24小时自助银行(领事馆路支行),B001C0AGDF,[],四川省,[],[],2,[],金融保险服务;自动提款机;中国建设银行ATM,160303
正东上街1-9号,双流区,[],[],3,成都市,[],B001C0AGAE,[],"104.055696,30.505578",中国建设银行24小时自助银行(成都华阳支行),B001C0586M,[],四川省,[],[],2,[],金融保险服务;自动提款机;中国建设银行ATM,160303
天府中路182号,彭州市,[],[],[],成都市,[],B0FFFPLV7Q,[],"103.946860,30.977818",中国建设银行24小时自助银行(天府中路),[],[],四川省,[],[],2,[],金融保险服务;自动提款机;中国建设银行ATM,160303
金阳路79号附15号金沙西园花间雅舍7幢22号,青羊区,[],[],202,成都市,[],B001C7UBXD,[],"104.005580,30.679138",中国建设银行24小时自助银行(成都金阳支行),B001C8UIPJ,[],四川省,[],[],2,[],金融保险服务;自动提款机;中国建设银行ATM,160303
长青路和一里阳光街交汇处,郫都区,[],[],[],成都市,[],B0FFFOT7DM,[],"103.897284,30.805688",中国建设银行24小时自助银行(东大街),[],[],四川省,[],[],2,[],金融保险服务;自动提款机;中国建设银行ATM,160303
金阳路1号,青羊区,[],[],3,成都市,[],B001C0AGBT,[],"104.011198,30.676631",中国建设银行24小时自助银行(青羊大道储蓄所),B001C0AGBS,[],四川省,[],[],2,[],金融保险服务;自动提款机;中国建设银行ATM,160303
柳台大道东段555西南财经大学柳林校区,温江区,[],[],[],成都市,[],B0FFFGV33Y,[],"103.823855,30.681932",中国建设银行24小时自助银行(西南财经大学柳林校区校医院北),[],[],四川省,[],[],2,[],金融保险服务;自动提款机;中国建设银行ATM,160303
柳台大道东段67号,温江区,[],[],[],成都市,[],B0FFFABCO0,[],"103.826166,30.689107",中国建设银行ATM(柳城大道西段),[],[],四川省,[],[],2,[],金融保险服务;自动提款机;中国建设银行ATM,160303
儒林路161号附近,新津区,[],[],[],成都市,[],B0FFF5TWSN,[],"103.800804,30.418020",中国建设银行24小时自助银行(儒林路),[],[],四川省,[],[],2,[],金融保险服务;自动提款机;中国建设银行ATM,160303
育仁西路7号,金牛区,[],[],[],成都市,[],B0FFFAB540,[],"104.017502,30.698760",中国建设银行24小时自助银行(育仁西路),[],[],四川省,[],[],2,[],金融保险服务;自动提款机;中国建设银行ATM,160303
正西街与西仓街交叉口西北50米,新津区,[],[],[],成都市,[],B001C7TK6C,[],"103.808625,30.411421",中国建设银行24小时自助银行(西仓街),[],[],四川省,[],[],2,[],金融保险服务;自动提款机;中国建设银行ATM,160303
东大街76-84号,郫都区,[],[],3,成都市,[],B001C7VRE9,[],"103.887563,30.807318",中国建设银行24小时自助银行(郫都区支行),B001C7U3WO,[],四川省,[],[],2,[],金融保险服务;自动提款机;中国建设银行ATM,160303
东大街680附近,郫都区,[],[],[],成都市,[],B001C92BXS,[],"103.896165,30.800304",中国建设银行24小时自助银行(望丛中路),[],[],四川省,[],[],2,[],金融保险服务;自动提款机;中国建设银行ATM,160303
绿茵街60号附近,郫都区,[],[],[],成都市,[],B0FFFVKNQU,[],"103.976118,30.724127",中国建设银行24小时自助银行(绿茵街),[],[],四川省,[],[],2,[],金融保险服务;自动提款机;中国建设银行ATM,160303
江源中路464号,崇州市,[],[],[],成都市,[],B0FFF0071R,[],"103.691164,30.631059",中国建设银行ATM(江源中路),[],[],四川省,[],[],2,[],金融保险服务;自动提款机;中国建设银行ATM,160303
三色路38号,锦江区,[],[],3,成都市,[],B001C8O9O2,[],"104.085546,30.587040",中国建设银行24小时自助银行(成都锦江工业园支行),B001C8O8EP,[],四川省,[],[],2,[],金融保险服务;自动提款机;中国建设银行ATM,160303
发展路89号附1,都江堰市,[],[],[],成都市,[],B0FFG655GP,[],"103.658258,31.001681",中国建设银行24小时自助银行,[],[],四川省,[],[],2,[],金融保险服务;自动提款机;中国建设银行ATM,160303
天乡路二段361号附近,温江区,[],[],[],成都市,[],B0FFGMM46L,[],"103.830206,30.719641",中国建设银行ATM(天乡路二段),[],[],四川省,[],[],2,[],金融保险服务;自动提款机;中国建设银行ATM,160303
杏林路172号附近,邛崃市,[],[],[],成都市,[],B0FFG7IYSP,[],"103.460824,30.401928",中国建设银行24小时自助银行,[],[],四川省,[],[],2,[],金融保险服务;自动提款机;中国建设银行ATM,160303
东荆路1026号附近,成华区,[],[],[],成都市,[],B0FFGH1M39,[],"104.115482,30.716382",中国建设银行24小时自助银行(东荆路),[],[],四川省,[],[],2,[],金融保险服务;自动提款机;中国建设银行ATM,160303
顺清街399号23附近,郫都区,[],[],[],成都市,[],B0FFG0YTNE,[],"103.926002,30.738592",中国建设银行24小时自助银行(顺清街),[],[],四川省,[],[],2,[],金融保险服务;自动提款机;中国建设银行ATM,160303
一环路东五段与宏济新路交叉口东南50米,锦江区,[],[],[],成都市,[],B0FFG7IW3S,[],"104.091471,30.641761",中国建设银行ATM(一环路东五段),[],[],四川省,[],[],2,[],金融保险服务;自动提款机;中国建设银行ATM,160303
红瓦寺街1号,武侯区,[],[],[],成都市,[],B001C929W2,[],"104.084849,30.633155",中国建设银行24小时自助银行(张澜路),[],[],四川省,[],[],2,[],金融保险服务;自动提款机;中国建设银行ATM,160303
枣子巷17附近,金牛区,[],[],3,成都市,[],B001C8O6BF,[],"104.046042,30.669608",中国建设银行24小时自助银行(成都白果林支行),B001C8O63U,[],四川省,[],[],2,[],金融保险服务;自动提款机;中国建设银行ATM,160303
石泉街46号附近,双流区,[],[],[],成都市,[],B0FFFU32WF,[],"103.904671,30.637567",中国建设银行24小时自助银行(九洋大道),[],[],四川省,[],[],2,[],金融保险服务;自动提款机;中国建设银行ATM,160303
成双大道163附近,武侯区,[],[],[],成都市,[],B001C93K35,[],"104.007603,30.610124",中国建设银行ATM(成双大道),[],[],四川省,[],[],2,[],金融保险服务;自动提款机;中国建设银行ATM,160303
锦江大道935号,锦江区,[],[],[],成都市,[],B0FFG0YROU,[],"104.137560,30.590747",中国建设银行24小时自助银行(锦江大道),[],[],四川省,[],[],2,[],金融保险服务;自动提款机;中国建设银行ATM,160303
川建路118号东南方向20米,金牛区,[],[],[],成都市,[],B001C7ZYSE,[],"104.054845,30.732709",中国建设银行ATM(川建路),[],[],四川省,[],[],2,[],金融保险服务;自动提款机;中国建设银行ATM,160303
崇阳街道大东街151号,崇州市,[],[],3,成都市,[],B001C0AG9Y,[],"103.677010,30.628806",中国建设银行24小时自助银行(崇州支行),B001C0AG9X,[],四川省,[],[],2,[],金融保险服务;自动提款机;中国建设银行ATM,160303
商业前街193号,龙泉驿区,[],[],[],成都市,[],B0FFFABVIT,[],"104.266809,30.562769",中国建设银行ATM,[],[],四川省,[],[],2,[],金融保险服务;自动提款机;中国建设银行ATM,160303
天裕街88号,金牛区,[],[],[],成都市,[],B0FFFPWX8A,[],"104.111981,30.762584",中国建设银行24小时自助银行(天裕街),[],[],四川省,[],[],2,[],金融保险服务;自动提款机;中国建设银行ATM,160303
天仁北一街33号,武侯区,[],[],[],成都市,[],B0FFFCOY8P,[],"104.072289,30.603057",中国建设银行24小时自助银行(天和西一街),[],[],四川省,[],[],2,[],金融保险服务;自动提款机;中国建设银行ATM,160303
孟湾东道18号,大邑县,[],[],[],成都市,[],B0FFF5TSXW,[],"103.529807,30.584885",中国建设银行24小时自助银行,[],[],四川省,[],[],2,[],金融保险服务;自动提款机;中国建设银行ATM,160303
夏家巷2-4号,青白江区,[],[],3,成都市,[],B001C7U27N,[],"104.247748,30.880466",中国建设银行24小时自助银行(教育街支行),B001C7U27M,[],四川省,[],[],2,[],金融保险服务;自动提款机;中国建设银行ATM,160303
枣子巷17附近,金牛区,[],[],[],成都市,[],B001C8O63U,[],"104.046145,30.669546",中国建设银行(成都白果林支行),[],[],四川省,[],[],2,028-87713863,金融保险服务;银行;中国建设银行,160106
燃灯寺路11号附17号,武侯区,[],[],[],成都市,[],B001C0AGBW,[],"104.033877,30.643420",中国建设银行(成都燃灯寺支行),[],[],四川省,[],[],2,028-85093931,金融保险服务;银行;中国建设银行,160106
美丽泉街与育英路交叉口东南100米,新都区,[],[],[],成都市,[],B0FFGER1SB,[],"104.183948,30.809522",中国建设银行24小时自助银行(新都国际广场支行),[],[],四川省,[],[],2,[],金融保险服务;自动提款机;中国建设银行ATM,160303
广场路2号,郫都区,[],[],[],成都市,[],B0FFF3A8NE,[],"103.942433,30.773551",中国建设银行24小时自助银行(红光支行),[],[],四川省,[],[],2,[],金融保险服务;自动提款机;中国建设银行ATM,160303
十二桥路12号,青羊区,[],[],3,成都市,[],B001C7WI3D,[],"104.045080,30.663581",中国建设银行24小时自助银行(十二桥支行),B001C7VRCW,[],四川省,[],[],2,[],金融保险服务;自动提款机;中国建设银行ATM,160303
皇经楼二街53号,锦江区,[],[],[],成都市,[],B0FFF3ACW7,[],"104.108856,30.591513",中国建设银行24小时自助银行(皇经楼二街),[],[],四川省,[],[],2,[],金融保险服务;自动提款机;中国建设银行ATM,160303
二环路北一段111(西南交通大学九里堤校区),金牛区,[],[],[],成都市,[],B0FFFACEJ7,[],"104.054461,30.699792",中国建设银行24小时自助银行(成都西南交通大学九里校区支行),[],[],四川省,[],[],2,[],金融保险服务;自动提款机;中国建设银行ATM,160303
武侯祠横街1号附4-5号,武侯区,[],[],3,成都市,[],B001C7WQXP,[],"104.049780,30.644006",中国建设银行24小时自助银行(南郊支行),B001C7WQXO,[],四川省,[],[],2,[],金融保险服务;自动提款机;中国建设银行ATM,160303
人民路18-19号,邛崃市,[],[],[],成都市,[],B001C06U7S,[],"103.461908,30.413764",中国建设银行(邛崃鼓楼支行),[],[],四川省,[],[],2,028-88792053,金融保险服务;银行;中国建设银行,160106
五桂桥北路8号水岸华庭1栋1层,成华区,[],[],202,成都市,[],B0FFFSY7IU,[],"104.124802,30.645072",中国建设银行24小时自助银行(长天路),B0FFG09076,[],四川省,[],[],2,[],金融保险服务;自动提款机;中国建设银行ATM,160303
金祥路64附近,青羊区,[],[],[],成都市,[],B0FFFOKIRN,[],"103.995793,30.676437",中国建设银行24小时自助银行(金祥路),[],[],四川省,[],[],2,[],金融保险服务;自动提款机;中国建设银行ATM,160303
新乐北街1号附20号,武侯区,[],[],[],成都市,[],B0FFFCRALW,[],"104.044903,30.603809",中国建设银行24小时自助银行(新乐北街),[],[],四川省,[],[],2,[],金融保险服务;自动提款机;中国建设银行ATM,160303
清淳一街(红旗超市旁),金牛区,[],[],[],成都市,[],B0FFF3A8XS,[],"103.979363,30.704005",中国建设银行ATM(清淳一街),[],[],四川省,[],[],2,[],金融保险服务;自动提款机;中国建设银行ATM,160303
东星大道369号,邛崃市,[],[],[],成都市,[],B0FFF3AFJK,[],"103.475963,30.404515",中国建设银行24小时自助银行(大邑支行),[],[],四川省,[],[],2,[],金融保险服务;自动提款机;中国建设银行ATM,160303
南京路6-8号,龙泉驿区,[],[],[],成都市,[],B0FFG7GW0N,[],"104.252693,30.566860",中国建设银行24小时自助银行(南京路),[],[],四川省,[],[],2,[],金融保险服务;自动提款机;中国建设银行ATM,160303
奎光路8、10、12号,都江堰市,[],[],3,成都市,[],B001C7U0EV,[],"103.619523,30.988458",中国建设银行24小时自助银行(奎光路储蓄所),B001C7U0ET,[],四川省,[],[],2,[],金融保险服务;自动提款机;中国建设银行ATM,160303
奎光东街152附近,都江堰市,[],[],[],成都市,[],B0FFFABIEK,[],"103.623212,30.981217",中国建设银行24小时自助银行(奎光东街),[],[],四川省,[],[],2,[],金融保险服务;自动提款机;中国建设银行ATM,160303
二环路东五段354号,锦江区,[],[],[],成都市,[],B0FFFOQGWS,[],"104.091108,30.621152",中国建设银行24小时自助银行(二环路东五段),[],[],四川省,[],[],2,[],金融保险服务;自动提款机;中国建设银行ATM,160303
东坡北三路157号,青羊区,[],[],[],成都市,[],B0FFF5UG48,[],"103.989234,30.664470",中国建设银行24小时自助银行(东坡北三路),[],[],四川省,[],[],2,[],金融保险服务;自动提款机;中国建设银行ATM,160303
大邑大道203号,大邑县,[],[],[],成都市,[],B0FFGIL1XJ,[],"103.526302,30.571581",中国建设银行24小时自助银行(翰城支行),[],[],四川省,[],[],2,[],金融保险服务;自动提款机;中国建设银行ATM,160303
毗河东路99附41号,新都区,[],[],[],成都市,[],B0FFGFTUSV,[],"104.150505,30.790171",中国建设银行24小时自助银行(毗河东路),[],[],四川省,[],[],2,[],金融保险服务;自动提款机;中国建设银行ATM,160303
天润路796号电子科技大学清水河校区,郫都区,[],[],3,成都市,[],B001C8MG3Q,[],"103.929684,30.756489",中国建设银行24小时自助银行(清水河分理处),B001C8MG3P,[],四川省,[],[],2,[],金融保险服务;自动提款机;中国建设银行ATM,160303
川大路二段附近,双流区,[],[],[],成都市,[],B001C8VJU9,[],"103.993417,30.552414",中国建设银行ATM(环行大道西段),[],[],四川省,[],[],2,[],金融保险服务;自动提款机;中国建设银行ATM,160303
五津东路151号附10-12,新津区,[],[],3,成都市,[],B0FFF5WQ1X,[],"103.817865,30.414519",中国建设银行24小时自助银行(五津东路支行),B001C7Y49X,[],四川省,[],[],2,[],金融保险服务;自动提款机;中国建设银行ATM,160303
同和路98号附7号,金牛区,[],[],[],成都市,[],B001C7UBPW,[],"104.018311,30.684970",中国建设银行24小时自助银行(黄忠小区储蓄所),[],[],四川省,[],[],2,[],金融保险服务;自动提款机;中国建设银行ATM,160303
蜀汉路353号附4号,金牛区,[],[],3,成都市,[],B001C7WBQG,[],"104.012709,30.695073",中国建设银行24小时自助银行(远洋大厦储蓄所),B001C7WBQF,[],四川省,[],[],2,[],金融保险服务;自动提款机;中国建设银行ATM,160303
