address,adname,biz_ext,biz_type,childtype,cityname,distance,id,importance,location,name,parent,parking_type,photos,pname,poiweight,shopid,shopinfo,tel,type,typecode
[],成华区,[],[],[],成都市,[],B0HGPZSOJY,[],"104.170288,30.703278",成都农商银行,[],,[],四川省,[],[],2,[],金融保险服务;银行;农村商业银行,160121
城祥路,青白江区,[],[],[],成都市,[],B0HG6UDPOZ,[],"104.283390,30.829415",成都农商银行,[],,[],四川省,[],[],2,[],金融保险服务;银行;农村商业银行,160121
[],崇州市,[],[],[],成都市,[],B0G27SCMV8,[],"103.779345,30.588260",成都农商银行,[],,[],四川省,[],[],2,[],金融保险服务;银行;农村商业银行,160121
长柏路264号附近,龙泉驿区,[],[],[],成都市,[],B0G116C2R9,[],"104.266512,30.551638",成都农商银行,[],,[],四川省,[],[],2,[],金融保险服务;银行;农村商业银行,160121
桂蕊路,新都区,[],[],[],成都市,[],B0FFLAWPOY,[],"104.063140,30.773511",成都农商银行,[],,[],四川省,[],[],2,[],金融保险服务;银行;农村商业银行,160121
天科广场南,双流区,[],[],[],成都市,[],B0FFL08UWY,[],"104.175466,30.522698",成都农商银行,[],,[],四川省,[],[],2,[],金融保险服务;银行;农村商业银行,160121
晋原街道围城南路西段3-7,大邑县,[],[],[],成都市,[],B001C7ZYOS,[],"103.522219,30.582014",成都农商银行(晋原支行),[],,[],四川省,[],[],2,028-88292554,金融保险服务;银行;农村商业银行,160121
经天路2号附1附9号,锦江区,[],[],[],成都市,[],B001C80OBS,[],"104.098817,30.602759",成都农商银行(锦江支行),[],,[],四川省,[],[],2,028-85915193;028-85912300,金融保险服务;银行;农村商业银行,160121
潘家街四段517号,大邑县,[],[],202,成都市,[],B0FFHGNLMT,[],"103.516452,30.569509",成都农商银行(大邑支行),B001C95CM7,,[],四川省,[],[],2,028-88281992;028-88282286,金融保险服务;银行;农村商业银行,160121
福锦路二段222-226号,武侯区,[],[],[],成都市,[],B001C8O7Z6,[],"103.997357,30.60765",成都农商银行(簇桥支行),[],,[],四川省,[],[],2,028-85013851,金融保险服务;银行;农村商业银行,160121
棠湖西路一段13吉丰百货1层,双流区,[],[],[],成都市,[],B001C7YO3I,[],"103.919170,30.572444",成都农商银行(双流支行),[],,[],四川省,[],[],2,028-85812212;028-85812213,金融保险服务;银行;农村商业银行,160121
弥牟镇弥牟中街35号,青白江区,[],[],[],成都市,[],B001C80KZB,[],"104.202323,30.881943",成都农商银行(弥牟支行),[],,[],四川省,[],[],2,028-83672332,金融保险服务;银行;农村商业银行,160121
科华中路88号附1号成都市农商银行大厦,武侯区,[],[],202,成都市,[],B001C80OUW,[],"104.076805,30.614706",成都农商银行(总行营业部),B001C80SKW,,[],四川省,[],[],2,028-85351200;028-85357369,金融保险服务;银行;农村商业银行,160121
成汉南路11号,武侯区,[],[],[],成都市,[],B001C80TFU,[],"104.054742,30.587845",成都农商银行(高新支行),[],,[],四川省,[],[],2,028-85316665;028-85316663,金融保险服务;银行;农村商业银行,160121
清江路与火盆路交叉口东北50米,金堂县,[],[],[],成都市,[],B0FFGD60G1,[],"104.384016,30.912765",成都农商银行(清江分理处),[],,[],四川省,[],[],2,[],金融保险服务;银行;农村商业银行,160121
聚龙路1082号、1084号、1086号,武侯区,[],[],[],成都市,[],B0FFGU7XBI,[],"103.996336,30.623046",成都农商银行(簇锦支行),[],,[],四川省,[],[],2,95392,金融保险服务;银行;农村商业银行,160121
一环路西三段184号,金牛区,[],[],[],成都市,[],B001C7UFFK,[],"104.043346,30.679006",成都农商银行(金牛支行营业部),[],,[],四川省,[],[],2,028-87779520;028-87769721,金融保险服务;银行;农村商业银行,160121
马超东路289号金融服务中心1楼,新都区,[],[],[],成都市,[],B0FFFGUNJJ,[],"104.180825,30.808724",成都农商银行(新都支行),[],,[],四川省,[],[],2,028-83013228,金融保险服务;银行;农村商业银行,160121
二环路西一段2号(近天邑国际酒店),武侯区,[],[],[],成都市,[],B001C92ECE,[],"104.031130,30.636923",成都农商银行(永丰支行),[],,[],四川省,[],[],2,028-87070225,金融保险服务;银行;农村商业银行,160121
长安路3号附3-6号,温江区,[],[],[],成都市,[],B001C0A0TD,[],"103.847935,30.700931",成都农商银行(温江支行),[],,[],四川省,[],[],2,028-82721563,金融保险服务;银行;农村商业银行,160121
蜀西路35号,金牛区,[],[],[],成都市,[],B001C09IC6,[],"103.999523,30.707121",成都农商银行(金泉支行),[],,[],四川省,[],[],2,028-87508702;028-87510229,金融保险服务;银行;农村商业银行,160121
二环路南一段16号,武侯区,[],[],[],成都市,[],B001C7WPD7,[],"104.080509,30.619754",成都农商银行(武侯支行),[],,[],四川省,[],[],2,028-85230711;028-85357169,金融保险服务;银行;农村商业银行,160121
双林路102-116号,成华区,[],[],[],成都市,[],B001C7Y8DZ,[],"104.109429,30.653037",成都农商银行(成华支行),[],,[],四川省,[],[],2,028-84330523;028-84330295,金融保险服务;银行;农村商业银行,160121
金彭西路243-245,彭州市,[],[],[],成都市,[],B001C8NUP6,[],"103.936133,30.988103",成都农商银行(彭州支行),[],,[],四川省,[],[],2,028-83871545,金融保险服务;银行;农村商业银行,160121
新下街1号,双流区,[],[],[],成都市,[],B0FFHGCJR5,[],"104.089705,30.555987",成都农商银行(中和支行),[],,[],四川省,[],[],2,028-85651383;028-85651109,金融保险服务;银行;农村商业银行|金融保险服务;银行相关;银行相关,160121|160200
黄龙大道二段661,双流区,[],[],[],成都市,[],B0FFGFUHLP,[],"103.991937,30.484830",成都农商银行(公兴支行),[],,[],四川省,[],[],2,028-85680888,金融保险服务;银行;农村商业银行,160121
九江镇泉湖路632号,双流区,[],[],[],成都市,[],B0FFFW55O4,[],"103.918029,30.622443",成都农商银行(九江支行),[],,[],四川省,[],[],2,028-85753204,金融保险服务;银行;农村商业银行,160121
正兴街道广东街264号,双流区,[],[],[],成都市,[],B001C8UB2Y,[],"104.042813,30.434711",成都农商银行(正兴支行),[],,[],四川省,[],[],2,028-85672375,金融保险服务;银行;农村商业银行,160121
成灌路西段2-8,郫都区,[],[],[],成都市,[],B001C80RSX,[],"103.940375,30.774655",成都农商银行(红光支行),[],,[],四川省,[],[],2,028-87985348;028-87985797,金融保险服务;银行;农村商业银行,160121
沙湾路274-276号,金牛区,[],[],202,成都市,[],B001C7WMST,[],"104.049717,30.693552",成都农商银行(沙湾支行),B001C05060,,[],四川省,[],[],2,028-87650463,金融保险服务;银行;农村商业银行,160121
犀浦街道浦兴街252号,郫都区,[],[],[],成都市,[],B001C7SQCU,[],"103.964787,30.751926",成都农商银行(犀浦支行),[],,[],四川省,[],[],2,028-61772997,金融保险服务;银行;农村商业银行,160121
南街78号,新都区,[],[],[],成都市,[],B001C7U47W,[],"104.025057,30.818076",成都农商银行(龙桥分理处),[],,[],四川省,[],[],2,028-83079013,金融保险服务;银行;农村商业银行,160121
敖平街道凤楼南街127-137号,彭州市,[],[],[],成都市,[],B001C7YJW6,[],"103.987732,31.087595",成都农商银行(敖平支行),[],,[],四川省,[],[],2,028-83861230,金融保险服务;银行;农村商业银行,160121
新南街153号,郫都区,[],[],[],成都市,[],B0FFIPOVIE,[],"103.880034,30.809055",成都农商银行(郫都区支行),[],,[],四川省,[],[],2,028-87928794,金融保险服务;银行;农村商业银行,160121
金桥镇双崇路27号,双流区,[],[],[],成都市,[],B001C8OEYX,[],"103.831177,30.576833",成都农商银行(金桥分理处),[],,[],四川省,[],[],2,028-85851036,金融保险服务;银行;农村商业银行,160121
十里大道一段469号,金堂县,[],[],[],成都市,[],B001C096H8,[],"104.420075,30.857479",成都农商银行(金堂支行),[],,[],四川省,[],[],2,028-84935939;028-84932842,金融保险服务;银行;农村商业银行,160121
武兴五路28号,武侯区,[],[],202,成都市,[],B0FFFF4QU0,[],"103.971965,30.628318",成都农商银行(金花支行营业部),B0FFLH36BA,,[],四川省,[],[],2,028-85370367,金融保险服务;银行;农村商业银行,160121
简城东城新区雄州新城1号花园5号楼1-52-6号东升路,简阳市,[],[],202,成都市,[],B0FFH1KSFC,[],"104.544458,30.406380",成都农商银行(简阳支行),B0FFKCSG06,,[],四川省,[],[],2,028-26135888,金融保险服务;银行;农村商业银行,160121
三江镇崇新路三段26号,崇州市,[],[],[],成都市,[],B0FFFADG12,[],"103.779851,30.538803",成都农商银行(崇州三江分理处),[],,[],四川省,[],[],2,028-82242109,金融保险服务;银行;农村商业银行,160121
二环路西二段39号附5-10号,青羊区,[],[],[],成都市,[],B001C80IXO,[],"104.021161,30.664883",成都农商银行(青羊支行),[],,[],四川省,[],[],2,028-87339338;028-87380585,金融保险服务;银行;农村商业银行,160121
青华路28号,青羊区,[],[],[],成都市,[],B0FFG8KF5E,[],"104.028435,30.662674",成都农商银行(草堂分理处),[],,[],四川省,[],[],2,028-81402350,金融保险服务;银行;农村商业银行|金融保险服务;银行相关;银行相关,160121|160200
科教路162、164、166、168号,双流区,[],[],[],成都市,[],B0FFIA0CNX,[],"104.108709,30.421957",成都农商银行(兴隆支行),[],,[],四川省,[],[],2,028-85615459,金融保险服务;银行;农村商业银行,160121
新民镇福新街27、29、31、33号,新都区,[],[],[],成都市,[],B0FFF4Z83C,[],"104.097904,30.894936",成都农商银行(新民分理处),[],,[],四川省,[],[],2,028-83075035,金融保险服务;银行;农村商业银行,160121
双林路1号附7-11号,成华区,[],[],202,成都市,[],B001C8OJQ5,[],"104.114432,30.651312",成都农商银行(保和支行),B0FFGDWXKB,,[],四川省,[],[],2,028-84361451;028-84333021,金融保险服务;银行;农村商业银行,160121
花源镇利民街47号,新津区,[],[],[],成都市,[],B001C8MSYE,[],"103.882951,30.485569",成都农商银行(花源支行),[],,[],四川省,[],[],2,028-82481636,金融保险服务;银行;农村商业银行,160121
南大街94-106号,彭州市,[],[],[],成都市,[],B001C09J81,[],"103.942508,30.981693",成都农商银行(致和支行),[],,[],四川省,[],[],2,028-83703143,金融保险服务;银行;农村商业银行,160121
同兴街196号,新都区,[],[],[],成都市,[],B001C060Q2,[],"104.210952,30.737283",成都农商银行(新都木兰分理处),[],,[],四川省,[],[],2,028-83038225,金融保险服务;银行;农村商业银行,160121
龙泉街道公园路一段146号文明街,龙泉驿区,[],[],[],成都市,[],B0GUNRIR4F,[],"104.278830,30.563411",成都农商银行(龙泉驿支行),[],,[],四川省,[],[],2,028-84859987;028-84862723,金融保险服务;银行相关;银行相关,160200
东大街59号附1、61,温江区,[],[],[],成都市,[],B001C7YO7B,[],"103.839432,30.698891",成都农商银行(温江柳城支行),[],,[],四川省,[],[],2,028-82723297;028-82725006,金融保险服务;银行;农村商业银行,160121
沙渠镇大桥路168号,大邑县,[],[],[],成都市,[],B001C05H6C,[],"103.739394,30.531265",成都农商银行(沙渠园区支行),[],,[],四川省,[],[],2,028-88326176,金融保险服务;银行;农村商业银行,160121
庄园街2-4,大邑县,[],[],[],成都市,[],B001C05BFL,[],"103.622596,30.508999",成都农商银行(庄园街分理处),[],,[],四川省,[],[],2,028-88318038,金融保险服务;银行;农村商业银行,160121
九仙路中段27,蒲江县,[],[],[],成都市,[],B0HGOSW72O,[],"103.420551,30.241109",成都农商银行(大兴分理处),[],,[],四川省,[],[],2,028-88630152,金融保险服务;银行;农村商业银行,160121
正东中街127-131,双流区,[],[],[],成都市,[],B0HG47RQXQ,[],"104.061883,30.501976",成都农商银行(华阳南阳分理处),[],,[],四川省,[],[],2,028-85898517,金融保险服务;银行;农村商业银行,160121
龙岗路36号,崇州市,[],[],[],成都市,[],B0GRAH4G38,[],"103.696359,30.710149",成都农商银行(廖家分理处),[],,[],四川省,[],[],2,028-82290125,金融保险服务;银行;农村商业银行,160121
西河镇大石大湾村,龙泉驿区,[],[],[],成都市,[],B0G3A498YW,[],"104.248972,30.645559",成都农商银行(中街分理处),[],,[],四川省,[],[],2,028-84618778,金融保险服务;银行;农村商业银行,160121
石鼓路110号附近,双流区,[],[],[],成都市,[],B0FFKW5TBN,[],"103.950787,30.635201",成都农商银行(双流通江分理处),[],,[],四川省,[],[],2,[],金融保险服务;银行;农村商业银行,160121
晋原街道锦屏大道95号,大邑县,[],[],[],成都市,[],B0FFIMU9JS,[],"103.546457,30.601149",成都农商银行(凤凰分理处),[],,[],四川省,[],[],2,[],金融保险服务;银行;农村商业银行,160121
世纪街229-233,双流区,[],[],[],成都市,[],B0FFGDD226,[],"104.152744,30.352849",成都农商银行(永兴分理处),[],,[],四川省,[],[],2,028-85666020,金融保险服务;银行;农村商业银行,160121
三峨街199号,龙泉驿区,[],[],[],成都市,[],B0FFGBI8XY,[],"104.322737,30.637273",成都农商银行(龙泉驿洛带支行),[],,[],四川省,[],[],2,028-84893681,金融保险服务;银行;农村商业银行,160121
蔡场街,大邑县,[],[],[],成都市,[],B0FFFEF4EM,[],"103.699495,30.496327",成都农商银行(大邑蔡场分理处),[],,[],四川省,[],[],2,028-88384995,金融保险服务;银行;农村商业银行,160121
桂湖西路172-178号,新都区,[],[],[],成都市,[],B0FFFAAVX7,[],"104.152075,30.823713",成都农商银行(状元街分理处),[],,[],四川省,[],[],2,028-83972343,金融保险服务;银行;农村商业银行,160121
净居寺西街14-16号,锦江区,[],[],[],成都市,[],B0FFF5STG1,[],"104.103954,30.622623",成都农商银行(成龙分理处),[],,[],四川省,[],[],2,028-84593251,金融保险服务;银行;农村商业银行,160121
临港路三段25号1栋1层4号,双流区,[],[],[],成都市,[],B001C95CS7,[],"103.978144,30.565630",成都农商银行(常乐分理处),[],,[],四川省,[],[],2,028-85693665,金融保险服务;银行;农村商业银行,160121
云桥街65附近,金堂县,[],[],[],成都市,[],B001C8X7DB,[],"104.756425,30.509600",成都农商银行(金堂云合分理处),[],,[],四川省,[],[],2,028-84972346,金融保险服务;银行;银行,160100
下街360附近,郫都区,[],[],[],成都市,[],B001C8VJJG,[],"103.973345,30.752182",成都农商银行(中街分理处),[],,[],四川省,[],[],2,028-87853181,金融保险服务;银行;农村商业银行,160121
济兴南街12号附3号,新都区,[],[],[],成都市,[],B001C8VEZ4,[],"103.989030,30.915086",成都农商银行(新都利济分理处),[],,[],四川省,[],[],2,028-83004545,金融保险服务;银行;农村商业银行,160121
万街65附2,新津区,[],[],[],成都市,[],B001C8P4S0,[],"103.762527,30.431591",成都农商银行(龙马分理处),[],,[],四川省,[],[],2,028-82459161,金融保险服务;银行;农村商业银行,160121
上街132-134,双流区,[],[],[],成都市,[],B001C8ORBY,[],"104.086992,30.557731",成都农商银行(中和府河分理处),[],,[],四川省,[],[],2,028-85651405,金融保险服务;银行;农村商业银行,160121
向阳街65号-1号淮口街道黄家小学西侧,金堂县,[],[],[],成都市,[],B001C8OR7D,[],"104.598525,30.736451",成都农商银行(金堂黄家分理处),[],,[],四川省,[],[],2,028-84955263,金融保险服务;银行;农村商业银行,160121
文井江镇鞍子街126-136号,崇州市,[],[],[],成都市,[],B001C8OFSG,[],"103.386814,30.798108",成都农商银行(鸡冠山分理处),[],,[],四川省,[],[],2,028-82298122,金融保险服务;银行;农村商业银行,160121
机投镇半边街村九金街86号附40-43号,武侯区,[],[],[],成都市,[],B001C8O92N,[],"103.971075,30.648160",成都农商银行(永康分理处),[],,[],四川省,[],[],2,028-85367212,金融保险服务;银行;农村商业银行,160121
金府路666号,金牛区,[],[],[],成都市,[],B001C8O4GW,[],"104.040436,30.713042",成都农商银行(金府分理处),[],,[],四川省,[],[],2,028-87616632,金融保险服务;银行;农村商业银行,160121
飞雪路63号附近,新津区,[],[],[],成都市,[],B001C8N3UY,[],"103.846008,30.370514",成都农商银行(双河分理处),[],,[],四川省,[],[],2,028-82593043,金融保险服务;银行;农村商业银行,160121
三元正街116,郫都区,[],[],[],成都市,[],B001C8MERE,[],"103.795986,30.823339",成都农商银行(友爱分理处),[],,[],四川省,[],[],2,028-87961895,金融保险服务;银行;农村商业银行,160121
江安中路11-13号,都江堰市,[],[],[],成都市,[],B001C80T79,[],"103.623381,30.988458",成都农商银行(江安路分理处),[],,[],四川省,[],[],2,028-87267043,金融保险服务;银行;农村商业银行,160121
泰安街10-16号,成华区,[],[],[],成都市,[],B001C80IXF,[],"104.093634,30.681506",成都农商银行(府青路分理处),[],,[],四川省,[],[],2,028-83256035;028-83258436,金融保险服务;银行;农村商业银行,160121
西安路一段145号附1-3,双流区,[],[],[],成都市,[],B001C80IQB,[],"103.917432,30.575261",成都农商银行(永福分理处),[],,[],四川省,[],[],2,028-85823796,金融保险服务;银行;农村商业银行,160121
安德街道安平路76号,郫都区,[],[],[],成都市,[],B001C8NSVD,[],"103.800158,30.869958",成都农商银行(安德支行)(装修中),[],,[],四川省,[],[],2,028-87868662,金融保险服务;银行;农村商业银行,160121
下正街301附近,金堂县,[],[],[],成都市,[],B001C7UUPA,[],"104.735286,30.625910",成都农商银行(竹篙支行)(装修中),[],,[],四川省,[],[],2,028-84966138,金融保险服务;银行;农村商业银行,160121
站北路129号边上,成华区,[],[],[],成都市,[],B001C8MX1C,[],"104.074842,30.702452",成都农商银行(站北分理处)(装修中),[],,[],四川省,[],[],2,028-83137275,金融保险服务;银行;农村商业银行,160121
南街28附9号,蒲江县,[],[],[],成都市,[],B001C7ZWEF,[],"103.374376,30.288379",成都农商银行(大塘分理处)(装修中),[],,[],四川省,[],[],2,028-88633363,金融保险服务;银行;农村商业银行,160121
青霞镇洞口街6-12号,大邑县,[],[],[],成都市,[],B001C7ZY7U,[],"103.537814,30.673834",成都农商银行(大邑青霞分理处),[],,[],四川省,[],[],2,028-88360021,金融保险服务;银行;农村商业银行,160121
武兴五路28号,武侯区,[],[],[],成都市,[],B001C7YPFX,[],"103.971075,30.616410",成都农商银行(七里分理处),[],,[],四川省,[],[],2,028-85371064;028-85360230,金融保险服务;银行;农村商业银行,160121
报恩村3组20(万春镇鱼凫桥),温江区,[],[],[],成都市,[],B001C7YIWM,[],"103.840131,30.758197",成都农商银行(温江鱼凫分理处),[],,[],四川省,[],[],2,028-82610513,金融保险服务;银行;农村商业银行,160121
瑞云街208号附1-7,邛崃市,[],[],[],成都市,[],B001C7XTFU,[],"103.449262,30.417519",成都农商银行(西桥分理处),[],,[],四川省,[],[],2,028-88792710,金融保险服务;银行;农村商业银行,160121
东街东段92号,双流区,[],[],[],成都市,[],B001C7X9HF,[],"104.023790,30.307346",成都农商银行(东北街分理处),[],,[],四川省,[],[],2,028-85691175,金融保险服务;银行;农村商业银行,160121
中正街15号,金堂县,[],[],[],成都市,[],B001C7X57S,[],"104.836301,30.521023",成都农商银行(金堂土桥支行),[],,[],四川省,[],[],2,028-84977387,金融保险服务;银行;农村商业银行,160121
天台山镇太和街108号,邛崃市,[],[],[],成都市,[],B001C7X56G,[],"103.146752,30.235417",成都农商银行(邛崃太和分理处),[],,[],四川省,[],[],2,028-89234206,金融保险服务;银行;农村商业银行,160121
东大街167号,郫都区,[],[],[],成都市,[],B001C7VSZY,[],"103.889395,30.806653",成都农商银行(郫都郫筒支行),[],,[],四川省,[],[],2,028-87885303,金融保险服务;银行;农村商业银行,160121
学府路7-9号,都江堰市,[],[],[],成都市,[],B001C7VRRZ,[],"103.634535,30.995914",成都农商银行(胥家路分理处),[],,[],四川省,[],[],2,028-87111679,金融保险服务;银行;农村商业银行,160121
华阳镇街道正西街302-304号,双流区,[],[],[],成都市,[],B001C7VRRK,[],"104.048914,30.506158",成都农商银行(华阳协和分理处),[],,[],四川省,[],[],2,028-85642534,金融保险服务;银行;农村商业银行,160121
青松街139号,金堂县,[],[],[],成都市,[],B001C7VRQY,[],"104.701767,30.596912",成都农商银行(青松分理处),[],,[],四川省,[],[],2,028-84974070,金融保险服务;银行;农村商业银行,160121
朝阳湖镇政府街30号,蒲江县,[],[],[],成都市,[],B001C7UYJZ,[],"103.448902,30.162939",成都农商银行(朝阳湖分理处),[],,[],四川省,[],[],2,028-88591096,金融保险服务;银行;农村商业银行,160121
高保街88号,邛崃市,[],[],[],成都市,[],B001C7UXW1,[],"103.712992,30.345098",成都农商银行(依政分理处),[],,[],四川省,[],[],2,028-88724157,金融保险服务;银行;农村商业银行,160121
五凤镇小凤街80号,金堂县,[],[],[],成都市,[],B001C7UUN9,[],"104.483922,30.609475",成都农商银行(五凤分理处),[],,[],四川省,[],[],2,028-84958044,金融保险服务;银行;农村商业银行,160121
王场镇义兴中路99-105号,崇州市,[],[],[],成都市,[],B001C7UH6E,[],"103.586224,30.602877",成都农商银行(崇州王场分理处),[],,[],四川省,[],[],2,028-82232148,金融保险服务;银行;农村商业银行,160121
经一路82号,青羊区,[],[],[],成都市,[],B001C7U6B6,[],"103.965210,30.693708",成都农商银行(黄田坝分理处),[],,[],四川省,[],[],2,028-87416573,金融保险服务;银行;农村商业银行,160121
公园路81-83号,新都区,[],[],[],成都市,[],B001C7U4H6,[],"104.155036,30.820373",成都农商银行(公园路分理处),[],,[],四川省,[],[],2,028-83965194,金融保险服务;银行;农村商业银行,160121
新雅街8-10,武侯区,[],[],[],成都市,[],B001C7SQCY,[],"104.027104,30.606364",成都农商银行(城南分理处),[],,[],四川省,[],[],2,028-85112376,金融保险服务;银行;农村商业银行,160121
西岭镇众山街(西岭镇人民政府东),大邑县,[],[],[],成都市,[],B001C7RVM9,[],"103.224095,30.621092",成都农商银行(大邑西岭分理处),[],,[],四川省,[],[],2,028-88303051,金融保险服务;银行;农村商业银行,160121
晋原街道城西街45号,大邑县,[],[],[],成都市,[],B001C08L8I,[],"103.513862,30.583563",成都农商银行(大邑斜江分理处),[],,[],四川省,[],[],2,028-88222785,金融保险服务;银行;农村商业银行,160121
集贤乡梧桐街51/53/55/57号,崇州市,[],[],[],成都市,[],B001C08JGS,[],"103.688986,30.578689",成都农商银行(崇州集贤分理处),[],,[],四川省,[],[],2,028-82228056,金融保险服务;银行;农村商业银行,160121
友爱镇何家场,郫都区,[],[],[],成都市,[],B001C0699S,[],"103.815947,30.794826",成都农商银行(何家场分理处),[],,[],四川省,[],[],2,028-87900001,金融保险服务;银行;农村商业银行,160121
瓦窑街453-461号,金堂县,[],[],[],成都市,[],B001C05A4J,[],"104.699184,30.780752",成都农商银行(金堂金龙分理处),[],,[],四川省,[],[],2,028-84940101,金融保险服务;银行;农村商业银行,160121
东横街和南横街的交叉口附近,邛崃市,[],[],[],成都市,[],B001C04FAB,[],"103.299066,30.449851",成都农商银行(邛崃水口分理处),[],,[],四川省,[],[],2,028-88708132,金融保险服务;银行;农村商业银行,160121
东街276-282号,新都区,[],[],[],成都市,[],B001C01FA8,[],"104.161678,30.826987",成都农商银行(新都香城分理处),[],,[],四川省,[],[],2,028-83971173,金融保险服务;银行;农村商业银行,160121
富民街31号,邛崃市,[],[],[],成都市,[],B001C01176,[],"103.338520,30.501507",成都农商银行(同济分理处),[],,[],四川省,[],[],2,028-88707125,金融保险服务;银行;农村商业银行,160121
复兴路288-290,彭州市,[],[],[],成都市,[],B001C8ODUG,[],"103.760038,31.191752",成都农商银行(小渔洞分理处),[],,[],四川省,[],[],2,028-83850180,金融保险服务;银行;农村商业银行,160121
寿安镇棉花街,蒲江县,[],[],[],成都市,[],B001C7UY6O,[],"103.624700,30.265883",成都农商银行(渔沱分理处),[],,[],四川省,[],[],2,028-88670523;028-88678594,金融保险服务;银行;农村商业银行,160121
杨柳西路北段17-18号,温江区,[],[],[],成都市,[],B001C80929,[],"103.827121,30.691136",成都农商银行(温江海峡新城分理处),[],,[],四川省,[],[],2,028-82686772,金融保险服务;银行;农村商业银行,160121
兴园3路金控金融中心1楼,新津区,[],[],[],成都市,[],B0FFIOS67D,[],"103.817114,30.425115",成都农商银行(新津支行桥津分理处),[],,[],四川省,[],[],2,028-82582398,金融保险服务;银行;农村商业银行,160121
静安路203号,新都区,[],[],[],成都市,[],B001C7ZXVG,[],"104.180365,30.814932",成都农商银行(新都清源路分理处),[],,[],四川省,[],[],2,028-89399281,金融保险服务;银行;农村商业银行,160121
文昌街4-8号,邛崃市,[],[],[],成都市,[],B001C0AJST,[],"103.472417,30.409853",成都农商银行(邛崃东街分理处),[],,[],四川省,[],[],2,028-88747215,金融保险服务;银行;农村商业银行,160121
富康街83-85号,大邑县,[],[],[],成都市,[],B0FFF4Z46R,[],"103.567576,30.525379",成都农商银行(苏场分理处),[],,[],四川省,[],[],2,028-88311515,金融保险服务;银行;农村商业银行,160121
竹篙镇下正街545号,金堂县,[],[],[],成都市,[],B0FFGSUCOR,[],"104.732629,30.627561",成都农商银行(下正街分理处),[],,[],四川省,[],[],2,028-84966138,金融保险服务;银行;农村商业银行,160121
新都镇龙虎大道2015号鹏泰超市楼下,新都区,[],[],[],成都市,[],B0FFGL2OSI,[],"104.226625,30.837094",成都农商银行(龙虎分理处),[],,[],四川省,[],[],2,028-83922061,金融保险服务;银行;农村商业银行,160121
生态大道镇子街835-845号,温江区,[],[],[],成都市,[],B001C8VF0Q,[],"103.780629,30.774807",成都农商银行(温江镇子分理处),[],,[],四川省,[],[],2,028-82677196,金融保险服务;银行;农村商业银行,160121
榕声路50-52,锦江区,[],[],[],成都市,[],B001C8MQTN,[],"104.096974,30.587876",成都农商银行(锦馨家园分理处),[],,[],四川省,[],[],2,028-62031590,金融保险服务;银行;农村商业银行,160121
友爱镇释迦桥上街141号,郫都区,[],[],[],成都市,[],B001C8MF70,[],"103.825996,30.815215",成都农商银行(清河分理处),[],,[],四川省,[],[],2,[],金融保险服务;银行;农村商业银行,160121
二环路北四段49号附16号-17,成华区,[],[],[],成都市,[],B001C80IXJ,[],"104.093901,30.690135",成都农商银行(李家沱分理处),[],,[],四川省,[],[],2,028-83254820,金融保险服务;银行;农村商业银行,160121
龙池旅游路附近,都江堰市,[],[],[],成都市,[],B001C807WS,[],"103.590841,31.022686",成都农商银行(紫坪铺分理处),[],,[],四川省,[],[],2,028-87106263,金融保险服务;银行;农村商业银行,160121
东义街12-16,都江堰市,[],[],[],成都市,[],B001C7VRPR,[],"103.610576,30.825641",成都农商银行(大乐分理处),[],,[],四川省,[],[],2,028-87228073,金融保险服务;银行;农村商业银行,160121
万年东街58号,彭州市,[],[],[],成都市,[],B001C7TZOX,[],"103.958802,31.134778",成都农商银行(彭州万年分理处),[],,[],四川省,[],[],2,[],金融保险服务;银行;农村商业银行,160121
迎宾路263-273号,邛崃市,[],[],[],成都市,[],B001C05UE9,[],"103.335724,30.341838",成都农商银行(邛崃平乐支行),[],,[],四川省,[],[],2,028-88781176,金融保险服务;银行;农村商业银行,160121
花桥长绍街119号,新津区,[],[],[],成都市,[],B001C05PGI,[],"103.856323,30.445832",成都农商银行(花桥分理处),[],,[],四川省,[],[],2,028-82462361,金融保险服务;银行;农村商业银行,160121
桂湖东路146-150号,新都区,[],[],[],成都市,[],B001C7VRQ5,[],"104.167842,30.823379",成都农商银行(新都桂林分理处),[],,[],四川省,[],[],2,028-83977094,金融保险服务;银行;农村商业银行,160121
餮艚值辣苯56-58号,彭州市,[],[],[],成都市,[],B001C8OFSC,[],"104.116198,30.959249",成都农商银行(彭州蒙阳分理处),[],,[],四川省,[],[],2,028-83829109,金融保险服务;银行;农村商业银行,160121
翔凤路901号,都江堰市,[],[],[],成都市,[],B001C8OOS2,[],"103.647942,30.968795",成都农商银行(翔凤路分理处),[],,[],四川省,[],[],2,[],金融保险服务;银行;农村商业银行,160121
天生路100-106号,龙泉驿区,[],[],[],成都市,[],B001C8NOHS,[],"104.264551,30.554093",成都农商银行(龙柏路分理处),[],,[],四川省,[],[],2,028-84856571;028-84801611,金融保险服务;银行;农村商业银行,160121
灵龙路67-69号,龙泉驿区,[],[],[],成都市,[],B001C8MZQS,[],"104.183533,30.652126",成都农商银行(灵龙路分理处),[],,[],四川省,[],[],2,028-84600727,金融保险服务;银行;农村商业银行,160121
东明街155-161号,双流区,[],[],[],成都市,[],B001C80IXR,[],"103.927515,30.575556",成都农商银行(东明街分理处),[],,[],四川省,[],[],2,028-85823931,金融保险服务;银行;农村商业银行,160121
正因南街西二巷1号,新都区,[],[],[],成都市,[],B001C7ZYA5,[],"104.187524,30.821354",成都农商银行(正因街分理处),[],,[],四川省,[],[],2,028-83944003,金融保险服务;银行;农村商业银行,160121
山泉镇东街74-82号,龙泉驿区,[],[],[],成都市,[],B001C7VRQQ,[],"104.317654,30.539359",成都农商银行(龙泉驿山泉分理处)(装修中),[],,[],四川省,[],[],2,028-84820805,金融保险服务;银行;农村商业银行,160121
[],双流区,[],[],[],成都市,[],B0G39LPTH7,[],"103.989912,30.408355",成都农商银行(双流翰林街分理处),[],,[],四川省,[],[],2,[],金融保险服务;银行;农村商业银行,160121
崇义上街127号附19号,都江堰市,[],[],[],成都市,[],B001C80P4C,[],"103.733347,30.915455",成都农商银行(崇义镇上街),[],,[],四川省,[],[],2,[],金融保险服务;银行;农村商业银行,160121
新繁街道荣军路97-101号,新都区,[],[],[],成都市,[],B0FFG7VHCT,[],"103.990243,30.848293",农商银行(新都新繁曼时分理处),[],,[],四川省,[],[],2,028-83071782,金融保险服务;银行;农村商业银行,160121
华金大道二段525号附近,青白江区,[],[],101,成都市,[],B0FFJCFDE2,[],"104.251834,30.884291",成都农商银行(南门),B001C0675O,,[],四川省,[],[],2,[],通行设施;临街院门;临街院门,991400
正义路东50米,郫都区,[],[],101,成都市,[],B0FFKOSUXI,[],"104.035839,30.746183",成都农商银行(西南门),B0HGOAU9JU,,[],四川省,[],[],2,[],通行设施;临街院门;临街院门,991400
官亭街与盘龙西街交叉口东北50米,彭州市,[],[],101,成都市,[],B0FFJHYJMO,[],"103.767656,31.028522",成都农商银行(西北门),B001C7U09C,,[],四川省,[],[],2,[],通行设施;临街院门;临街院门,991400
金阳街22号附近,彭州市,[],[],101,成都市,[],B0FFJHRVM0,[],"104.006324,31.142722",成都农商银行(西北门),B001C80SLV,,[],四川省,[],[],2,[],通行设施;临街院门;临街院门,991400
药王路124附近,都江堰市,[],[],101,成都市,[],B0FFJHAWYI,[],"103.592815,30.877452",成都农商银行(北门),B001C80SUU,,[],四川省,[],[],2,[],通行设施;临街院门;临街院门,991400
柏条河路一段与湖广馆路交叉口西南50米,郫都区,[],[],101,成都市,[],B0FFJGUD8J,[],"103.916849,30.867205",成都农商银行(东南门),B0HG15T7BU,,[],四川省,[],[],2,[],通行设施;临街院门;临街院门,991400
中学路49号附近,彭州市,[],[],101,成都市,[],B0FFJEQT11,[],"103.915895,30.926304",成都农商银行(西南门),B001C807Y7,,[],四川省,[],[],2,[],通行设施;临街院门;临街院门,991400
和平中街与桂红路交叉口北50米,青白江区,[],[],101,成都市,[],B0FFJEPU3R,[],"104.393111,30.744266",成都农商银行(东门),B001C7YJR0,,[],四川省,[],[],2,[],通行设施;临街院门;临街院门,991400
石灵下街6号附近,龙泉驿区,[],[],101,成都市,[],B0FFJDSOI1,[],"104.178490,30.649271",成都农商银行(东南门),B001C7ZZG4,,[],四川省,[],[],2,[],通行设施;临街院门;临街院门,991400
三西路与中横街交叉口东北50米,青白江区,[],[],101,成都市,[],B0FFJCSDSL,[],"104.202674,30.882068",成都农商银行(东南门),B001C80KZB,,[],四川省,[],[],2,[],通行设施;临街院门;临街院门,991400
泰北街248号附近,新都区,[],[],101,成都市,[],B0FFJC47WC,[],"104.231772,30.786977",成都农商银行(西南门),B0FFF6RDSE,,[],四川省,[],[],2,[],通行设施;临街院门;临街院门,991400
朝阳路27号附近,青白江区,[],[],101,成都市,[],B0FFJA4K1E,[],"104.322281,30.856243",成都农商银行(东南门),B001C8MDJX,,[],四川省,[],[],2,[],通行设施;临街院门;临街院门,991400
上兴街104号附近,彭州市,[],[],101,成都市,[],B0FFIS5IT7,[],"104.035997,30.995591",成都农商银行(东南门),B001C7SR48,,[],四川省,[],[],2,[],通行设施;临街院门;临街院门,991400
黄河中路二段159号附近,双流区,[],[],101,成都市,[],B0FFIUGJOT,[],"103.999201,30.571914",成都农商银行(东北门),B001C01487,,[],四川省,[],[],2,[],通行设施;临街院门;临街院门,991400
二环路南一段16附1-2号,武侯区,[],[],101,成都市,[],B0FFGYX28Q,[],"104.080469,30.620191",成都农商银行(北2门),B001C7WPD7,,[],四川省,[],[],2,[],通行设施;临街院门;临街院门,991400
[],大邑县,[],[],101,成都市,[],B0G0AZU0UU,[],"103.393352,30.672163",成都农商银行(东北门),B001C80STB,,[],四川省,[],[],2,[],通行设施;临街院门;临街院门,991400
桂花镇金桂西街51号附近,彭州市,[],[],101,成都市,[],B0FFJHUJTZ,[],"103.791465,31.033797",成都农商银行(东北门),B001C7YJX7,,[],四川省,[],[],2,[],通行设施;临街院门;临街院门,991400
市民服务中心D区一层,新都区,[],[],[],成都市,[],B0FFFEBJK5,[],"104.180491,30.802984",成都农商银行ATM,[],,[],四川省,[],[],2,[],金融保险服务;自动提款机;农村商业银行ATM,160318
驿道街64号,都江堰市,[],[],[],成都市,[],B0FFGES1XL,[],"103.494436,30.919009",成都农商银行ATM,[],,[],四川省,[],[],2,[],金融保险服务;自动提款机;农村商业银行ATM,160318
东大街4号,都江堰市,[],[],[],成都市,[],B001C8X7YH,[],"103.646262,30.842852",成都农商银行ATM,[],,[],四川省,[],[],2,[],金融保险服务;自动提款机;自动提款机,160300
释迦桥上街132号,郫都区,[],[],[],成都市,[],B0FFFE8Z9Y,[],"103.826083,30.815286",成都农商银行ATM,[],,[],四川省,[],[],2,[],金融保险服务;自动提款机;农村商业银行ATM,160318
洪河中路804-808号,龙泉驿区,[],[],[],成都市,[],B0FFHGLVT0,[],"104.167887,30.614601",成都农商银行ATM(龙泉驿洪河分理处),[],,[],四川省,[],[],2,[],金融保险服务;自动提款机;农村商业银行ATM,160318
小夫路172号附近,彭州市,[],[],302,成都市,[],B0FFGCWQUT,[],"103.914580,31.204167",成都农商银行ATM,B0FFF9UIE8,,[],四川省,[],[],2,[],金融保险服务;自动提款机;农村商业银行ATM,160318
洗瓦堰路2-4号,锦江区,[],[],[],成都市,[],B001C8TBPK,[],"104.092156,30.603207",成都农商银行ATM,[],,[],四川省,[],[],2,[],金融保险服务;自动提款机;农村商业银行ATM,160318
龙潭寺工业园区华彩路,成华区,[],[],3,成都市,[],B001C8MI0P,[],"104.172725,30.693969",成都农商银行ATM,B001C8MI0O,,[],四川省,[],[],2,[],金融保险服务;自动提款机;农村商业银行ATM,160318
站北路129号,成华区,[],[],3,成都市,[],B001C7WDTY,[],"104.074767,30.702556",成都农商银行ATM(站北分理处),B001C8MX1C,,[],四川省,[],[],2,[],金融保险服务;自动提款机;农村商业银行ATM,160318
早兴街与蜀州北路交叉口东北50米,崇州市,[],[],[],成都市,[],B0FFGI6W9S,[],"103.670059,30.641943",成都农商银行崇州支行微贷中心,[],,[],四川省,[],[],2,[],金融保险服务;银行;农村商业银行|金融保险服务;银行相关;银行相关,160121|160200
寿高路和龙潭街的交叉口附近,邛崃市,[],[],[],成都市,[],B001C8VK0G,[],"103.418882,30.336329",成都农商银行ATM(寿高路),[],,[],四川省,[],[],2,[],金融保险服务;自动提款机;自动提款机,160300
江安河西路下段322号,都江堰市,[],[],[],成都市,[],B001C80K4I,[],"103.632708,30.961957",成都农商银行24小时自助银行,[],,[],四川省,[],[],2,[],金融保险服务;自动提款机;农村商业银行ATM,160318
宜城路17号附3,双流区,[],[],[],成都市,[],B001C8VF2D,[],"103.908803,30.501758",成都农商银行24小时自助银行,[],,[],四川省,[],[],2,[],金融保险服务;自动提款机;农村商业银行ATM,160318
香岛大道1511号附近,青白江区,[],[],[],成都市,[],B0FFF2VFUP,[],"104.300297,30.841034",成都农商银行ATM(香岛大道),[],,[],四川省,[],[],2,[],金融保险服务;自动提款机;农村商业银行ATM,160318
天新路25-37号,金牛区,[],[],3,成都市,[],B001C7ZY0S,[],"104.118015,30.761564",成都农商银行24小时自助银行(天回支行),B001C7ZY0R,,[],四川省,[],[],2,[],金融保险服务;自动提款机;农村商业银行ATM,160318
丽蓉大道278-282号(近彭温路),彭州市,[],[],[],成都市,[],B001C8MZ9Y,[],"103.874712,30.972933",成都农商银行支农服务点,[],,[],四川省,[],[],2,028-83816299,金融保险服务;银行;农村商业银行,160121
十陵中街120号,龙泉驿区,[],[],[],成都市,[],B0FFFCVVAX,[],"104.178195,30.649209",成都农商银行24小时自助银行(十陵支行),[],,[],四川省,[],[],2,[],金融保险服务;自动提款机;农村商业银行ATM,160318
双林路1号附7-11号,成华区,[],[],3,成都市,[],B001C92A6J,[],"104.114439,30.651502",成都农商银行24小时自助银行(保和支行),B001C8OJQ5,,[],四川省,[],[],2,[],金融保险服务;自动提款机;农村商业银行ATM,160318
科教路162、164、166、168号,双流区,[],[],[],成都市,[],B0FFIA0CNY,[],"104.108757,30.421976",成都农商银行24小时自助银行(兴隆支行),[],,[],四川省,[],[],2,[],金融保险服务;自动提款机;农村商业银行ATM,160318
永福街41号,温江区,[],[],[],成都市,[],B0FFFXTFHI,[],"103.905586,30.725482",成都农商银行24小时自助银行(永宁支行),[],,[],四川省,[],[],2,[],金融保险服务;自动提款机;农村商业银行ATM,160318
南熏路315号,郫都区,[],[],3,成都市,[],B001C8MZZG,[],"103.824452,30.916788",成都农商银行24小时自助银行(唐昌支行),B001C8MCLX,,[],四川省,[],[],2,[],金融保险服务;自动提款机;农村商业银行ATM,160318
新民环路西南段80号附近,郫都区,[],[],[],成都市,[],B0FFFPVG0M,[],"103.862667,30.874751",成都农商银行24小时自助银行(新民场支行),[],,[],四川省,[],[],2,[],金融保险服务;自动提款机;农村商业银行ATM,160318
青西路10号,金牛区,[],[],[],成都市,[],B001C8MWDL,[],"104.033716,30.672743",成都农商银行白果林办公区,[],,[],四川省,[],[],2,[],金融保险服务;银行相关;银行相关,160200
长庆街44号附近,彭州市,[],[],[],成都市,[],B001C8VF2H,[],"103.811160,30.965324",成都农商银行ATM(长庆街),[],,[],四川省,[],[],2,[],金融保险服务;自动提款机;农村商业银行ATM,160318
正街一段82,双流区,[],[],[],成都市,[],B001C8VF0G,[],"104.148376,30.527904",成都农商银行24小时自助银行(新兴支行),[],,[],四川省,[],[],2,[],金融保险服务;自动提款机;农村商业银行ATM,160318
仁裕横街12,大邑县,[],[],[],成都市,[],B0FFK23FNP,[],"103.614396,30.520348",成都农商银行24小时自助银行,[],,[],四川省,[],[],2,[],金融保险服务;自动提款机;农村商业银行ATM,160318
蜀州北路300-324号,崇州市,[],[],3,成都市,[],B001C8NQMD,[],"103.669991,30.641454",成都农商银行24小时自助银行(崇州支行),B001C7ZYWN,,[],四川省,[],[],2,[],金融保险服务;自动提款机;农村商业银行ATM,160318
天华正街83号,蒲江县,[],[],3,成都市,[],B001C8MU2W,[],"103.556339,30.223443",成都农商银行ATM(天华分理处),B001C7UYIZ,,[],四川省,[],[],2,[],金融保险服务;自动提款机;农村商业银行ATM,160318
长益路146-148号,武侯区,[],[],3,成都市,[],B001C7VRQL,[],"104.025726,30.628207",成都农商银行ATM(科兴分理处),B001C7VRQK,,[],四川省,[],[],2,[],金融保险服务;自动提款机;农村商业银行ATM,160318
下南街与南河路二段交叉口东50米,新都区,[],[],[],成都市,[],B0FFHNC655,[],"104.162683,30.821547",成都农商银行24小时自助银行,[],,[],四川省,[],[],2,[],金融保险服务;自动提款机;农村商业银行ATM,160318
三道堰镇湖广馆巷38号,郫都区,[],[],3,成都市,[],B0FFFYIZ7M,[],"103.916728,30.867373",成都农商银行24小时自助银行(三道堰支行),B001C8OFG5,,[],四川省,[],[],2,[],金融保险服务;自动提款机;农村商业银行ATM,160318
东大街59号附1、61,温江区,[],[],3,成都市,[],B001C7YO77,[],"103.839430,30.698894",成都农商银行24小时自助银行(柳城支行),B001C7YO7B,,[],四川省,[],[],2,[],金融保险服务;自动提款机;农村商业银行ATM,160318
公园路一段17号附3号,龙泉驿区,[],[],[],成都市,[],B0FFH9GEMF,[],"104.275548,30.561681",成都农商银行个人贷款业务中心,[],,[],四川省,[],[],2,[],金融保险服务;银行相关;银行相关,160200
正街1号附近,双流区,[],[],[],成都市,[],B001C8VJJ1,[],"104.150576,30.310100",成都农商银行24小时自助银行,[],,[],四川省,[],[],2,[],金融保险服务;自动提款机;农村商业银行ATM,160318
南郡路48,彭州市,[],[],3,成都市,[],B001C7YOZX,[],"103.851193,31.073380",成都农商银行24小时自助银行,B001C7U08D,,[],四川省,[],[],2,[],金融保险服务;自动提款机;农村商业银行ATM,160318
清泉镇古树街,青白江区,[],[],3,成都市,[],B001C7UGYC,[],"104.393883,30.746932",成都农商银行24小时自助银行,B001C7UGYB,,[],四川省,[],[],2,[],金融保险服务;自动提款机;农村商业银行ATM,160318
大桥街116-120号,邛崃市,[],[],302,成都市,[],B001C8W8US,[],"103.335929,30.345408",成都农商银行ATM(邛崃乐善分理处),B001C7XDSY,,[],四川省,[],[],2,[],金融保险服务;自动提款机;农村商业银行ATM,160318
武侯大道双楠段22号附2-6号,武侯区,[],[],3,成都市,[],B001C7YPBR,[],"104.020317,30.639483",成都农商银行24小时自助银行(商业城支行),B001C7YPBP,,[],四川省,[],[],2,[],金融保险服务;自动提款机;农村商业银行ATM,160318
一环路西三段184号,金牛区,[],[],3,成都市,[],B0FFGFWF0O,[],"104.043387,30.679016",成都农商银行24小时自助银行(金牛支行),B0FFGEV5T8,,[],四川省,[],[],2,[],金融保险服务;自动提款机;农村商业银行ATM,160318
棠湖西路一段19-31,双流区,[],[],3,成都市,[],B001C7YO3V,[],"103.919572,30.572323",成都农商银行24小时自助银行(双流支行),B001C7YO3I,,[],四川省,[],[],2,[],金融保险服务;自动提款机;农村商业银行ATM,160318
二环路南一段16附1-2号,武侯区,[],[],3,成都市,[],B001C7WPD8,[],"104.080347,30.619899",成都农商银行24小时自助银行(武侯支行),B001C7WPD7,,[],四川省,[],[],2,[],金融保险服务;自动提款机;农村商业银行ATM,160318
重庆路高桥小区B2,都江堰市,[],[],3,成都市,[],B001C8NVML,[],"103.657961,31.003933",成都农商银行24小时自助银行(都江堰上游分理处),B001C8NT2B,,[],四川省,[],[],2,[],金融保险服务;自动提款机;农村商业银行ATM,160318
高板街道商业街132号,金堂县,[],[],3,成都市,[],B001C8OLJQ,[],"104.631680,30.690139",成都农商银行24小时自助银行(高板分理处),B001C8OR79,,[],四川省,[],[],2,[],金融保险服务;自动提款机;农村商业银行ATM,160318
白沙街247号,双流区,[],[],3,成都市,[],B001C7YJI8,[],"104.154224,30.467912",成都农商银行24小时自助银行(白沙分理处),B001C7YJI7,,[],四川省,[],[],2,[],金融保险服务;自动提款机;农村商业银行ATM,160318
青华路28号,青羊区,[],[],[],成都市,[],B0FFG8KF74,[],"104.028469,30.662693",成都农商银行24小时自助银行(草堂分理处),[],,[],四川省,[],[],2,[],金融保险服务;自动提款机;农村商业银行ATM,160318
金府路777号金府五金机电城,金牛区,[],[],3,成都市,[],B001C8NPB6,[],"104.043256,30.716409",成都农商银行24小时自助银行(机电城支行),B001C7UCPS,,[],四川省,[],[],2,[],金融保险服务;自动提款机;农村商业银行ATM,160318
唐兴中街78号附近,崇州市,[],[],[],成都市,[],B0FFKZQ5MY,[],"103.782047,30.588252",成都农商银行24小时自助银行,[],,[],四川省,[],[],2,[],金融保险服务;自动提款机;农村商业银行ATM,160318
团三路41-45,郫都区,[],[],3,成都市,[],B001C80MNR,[],"103.983030,30.819414",成都农商银行24小时自助银行(团结支行),B001C80MX2,,[],四川省,[],[],2,[],金融保险服务;自动提款机;农村商业银行ATM,160318
棠湖东路二段5-7,双流区,[],[],3,成都市,[],B001C09RZK,[],"103.923220,30.571413",成都农商银行24小时自助银行(东升支行),B001C09RZJ,,[],四川省,[],[],2,[],金融保险服务;自动提款机;农村商业银行ATM,160318
禹王街23正东方向90米,金堂县,[],[],[],成都市,[],B0HGOSU3F3,[],"104.735282,30.626352",成都农商银行24小时自助银行,[],,[],四川省,[],[],2,[],金融保险服务;自动提款机;农村商业银行ATM,160318
建设路5号附近,新都区,[],[],[],成都市,[],B0FFM0T6Y1,[],"104.156637,30.826402",成都农商银行24小时自助银行,[],,[],四川省,[],[],2,[],金融保险服务;自动提款机;农村商业银行ATM,160318
海科路东段与学海路交叉路口西侧(学府憬城),温江区,[],[],[],成都市,[],B0FFLJTJUJ,[],"103.816123,30.674516",成都农商银行24小时自助银行,[],,[],四川省,[],[],2,[],金融保险服务;自动提款机;农村商业银行ATM,160318
清溪路一段167,双流区,[],[],[],成都市,[],B0FFKY8CC2,[],"104.056588,30.374501",成都农商银行24小时自助银行,[],,[],四川省,[],[],2,[],金融保险服务;自动提款机;农村商业银行ATM,160318
玉扬路80号,龙泉驿区,[],[],[],成都市,[],B0FFJJ4ZZ1,[],"104.261373,30.573922",成都农商银行24小时自助银行,[],,[],四川省,[],[],2,[],金融保险服务;自动提款机;农村商业银行ATM,160318
青城山大道319-附3号附近,都江堰市,[],[],[],成都市,[],B0FFJEFLW7,[],"103.613872,30.963163",成都农商银行24小时自助银行,[],,[],四川省,[],[],2,[],金融保险服务;自动提款机;农村商业银行ATM,160318
卷洞桥街与邛彭路交叉口西南50米,邛崃市,[],[],[],成都市,[],B0FFIIUV1J,[],"103.584149,30.389897",成都农商银行24小时自助银行,[],,[],四川省,[],[],2,[],金融保险服务;自动提款机;农村商业银行ATM,160318
迎宾大道259号附近,邛崃市,[],[],302,成都市,[],B0FFI64EMS,[],"103.335792,30.341873",成都农商银行24小时自助银行,B001C7XDSY,,[],四川省,[],[],2,[],金融保险服务;自动提款机;农村商业银行ATM,160318
裕康街11号,青白江区,[],[],[],成都市,[],B0FFHYW0RH,[],"104.284830,30.772702",成都农商银行24小时自助银行,[],,[],四川省,[],[],2,[],金融保险服务;自动提款机;农村商业银行ATM,160318
万寿街与桂竹路交叉口东100米,金堂县,[],[],[],成都市,[],B0FFHQSQWG,[],"104.791894,30.629036",成都农商银行24小时自助银行,[],,[],四川省,[],[],2,[],金融保险服务;自动提款机;农村商业银行ATM,160318
秦皇寺西街100号,双流区,[],[],[],成都市,[],B0FFHQSJUY,[],"104.050735,30.430930",成都农商银行24小时自助银行,[],,[],四川省,[],[],2,[],金融保险服务;自动提款机;农村商业银行ATM,160318
新石路东100米普河祥发苑附近,新都区,[],[],[],成都市,[],B0FFHCMN8C,[],"104.220092,30.801069",成都农商银行24小时自助银行,[],,[],四川省,[],[],2,[],金融保险服务;自动提款机;农村商业银行ATM,160318
东壕沟北段141号,大邑县,[],[],[],成都市,[],B0FFGD1C98,[],"103.523659,30.589172",成都农商银行24小时自助银行,[],,[],四川省,[],[],2,[],金融保险服务;自动提款机;农村商业银行ATM,160318
云桥街65附近,金堂县,[],[],[],成都市,[],B001C8X3GU,[],"104.756402,30.509677",成都农商银行24小时自助银行,[],,[],四川省,[],[],2,[],金融保险服务;自动提款机;农村商业银行ATM,160318
餮艚值览民街26-44号,彭州市,[],[],3,成都市,[],B001C7U1NS,[],"104.113596,30.957707",成都农商银行24小时自助银行,B001C7VE33,,[],四川省,[],[],2,[],金融保险服务;自动提款机;农村商业银行ATM,160318
[],都江堰市,[],[],[],成都市,[],B0G0SL2LKF,[],"103.560606,31.059773",成都农商银行惠农微银行,[],,[],四川省,[],[],2,[],金融保险服务;银行;农村商业银行,160121
星火一街与治平街交叉路口西侧(云凌花乡),郫都区,[],[],[],成都市,[],B0FFL6CTGB,[],"103.860813,30.878597",成都农商银行惠农微银行,[],,[],四川省,[],[],2,[],金融保险服务;银行;农村商业银行,160121
利安场4组附近,彭州市,[],[],[],成都市,[],B0FFKY9UB6,[],"103.909094,31.032549",成都农商银行惠农微银行,[],,[],四川省,[],[],2,[],金融保险服务;银行相关;银行相关,160200
九龙路84-88号,崇州市,[],[],[],成都市,[],B0FFF00AR2,[],"103.684389,30.639014",成都农商银行24小时自助银行(安乐分理处),[],,[],四川省,[],[],2,[],金融保险服务;自动提款机;农村商业银行ATM,160318
民兴街58号,邛崃市,[],[],[],成都市,[],B0FFJIUI36,[],"103.660604,30.432568",成都农商银行24小时自助银行(冉义分理处),[],,[],四川省,[],[],2,[],金融保险服务;自动提款机;农村商业银行ATM,160318
长福街144号,大邑县,[],[],[],成都市,[],B0FFGA1SRR,[],"103.699495,30.496327",成都农商银行24小时自助银行(蔡场分理处),[],,[],四川省,[],[],2,[],金融保险服务;自动提款机;农村商业银行ATM,160318
廊桥步行街41号,新都区,[],[],[],成都市,[],B0FFF2R370,[],"104.029629,30.818021",成都农商银行24小时自助银行(廊桥分理处),[],,[],四川省,[],[],2,[],金融保险服务;自动提款机;农村商业银行ATM,160318
光华北五路与光华西二路交叉口西北100米,青羊区,[],[],[],成都市,[],B0FFHGF580,[],"103.955725,30.674706",成都农商银行24小时自助银行(光华分理处),[],,[],四川省,[],[],2,[],金融保险服务;自动提款机;农村商业银行ATM,160318
柳溪路一段13,双流区,[],[],3,成都市,[],B001C8PLZX,[],"104.052194,30.374494",成都农商银行24小时自助银行(煎茶分理处),B001C8PM4Q,,[],四川省,[],[],2,[],金融保险服务;自动提款机;农村商业银行ATM,160318
县南街与蒲塘路交叉口西北100米,蒲江县,[],[],3,成都市,[],B0FFIIV1A1,[],"103.374416,30.288285",成都农商银行24小时自助银行(大塘分理处),B001C7ZWEF,,[],四川省,[],[],2,[],金融保险服务;自动提款机;农村商业银行ATM,160318
广东街266号,双流区,[],[],[],成都市,[],B001C8VJYD,[],"104.042894,30.434538",成都农商银行24小时自助银行(正兴支行),[],,[],四川省,[],[],2,[],金融保险服务;自动提款机;农村商业银行ATM,160318
香榭美邻1期A13-A14号,双流区,[],[],[],成都市,[],B0FFH5SFH8,[],"103.915264,30.593386",成都农商银行24小时自助银行(新城分理处),[],,[],四川省,[],[],2,[],金融保险服务;自动提款机;农村商业银行ATM,160318
莓仙路48号,双流区,[],[],3,成都市,[],B001C8ONC4,[],"104.170838,30.391548",成都农商银行24小时自助银行(合江分理处),B001C8ONS1,,[],四川省,[],[],2,[],金融保险服务;自动提款机;农村商业银行ATM,160318
新雅街8号,武侯区,[],[],3,成都市,[],B0FFFHW8RW,[],"104.027006,30.606336",成都农商银行24小时自助银行(城南分理处),B001C7SQCY,,[],四川省,[],[],2,[],金融保险服务;自动提款机;农村商业银行ATM,160318
滨西路70号附近,龙泉驿区,[],[],[],成都市,[],B0FFGK09BF,[],"104.231491,30.646387",成都农商银行24小时自助银行(滨西路),[],,[],四川省,[],[],2,[],金融保险服务;自动提款机;农村商业银行ATM,160318
西部智谷A区,武侯区,[],[],3,成都市,[],B001C8R9WK,[],"103.972014,30.628335",成都农商银行24小时自助银行(金花支行营业部),B001C8R9XI,,[],四川省,[],[],2,[],金融保险服务;自动提款机;农村商业银行ATM,160318
三强北路三段9号,双流区,[],[],[],成都市,[],B0FFGDZVFN,[],"103.934445,30.576675",成都农商银行24小时自助银行(牧马山分理处),[],,[],四川省,[],[],2,[],金融保险服务;自动提款机;农村商业银行ATM,160318
科华中路88号附1号成都市农商银行大厦,武侯区,[],[],202,成都市,[],B001C09ICU,[],"104.076744,30.614819",成都农商银行24小时自助银行(总行营业部),B001C80SKW,,[],四川省,[],[],2,[],金融保险服务;自动提款机;农村商业银行ATM,160318
经天路2号附1附9号,锦江区,[],[],3,成都市,[],B001C80OBT,[],"104.098889,30.602731",成都农商银行24小时自助银行(锦江支行),B001C80OBS,,[],四川省,[],[],2,[],金融保险服务;自动提款机;农村商业银行ATM,160318
双林路116号,成华区,[],[],3,成都市,[],B001C7Y9Q3,[],"104.109570,30.652952",成都农商银行24小时自助银行(成华支行),B001C7Y8DZ,,[],四川省,[],[],2,[],金融保险服务;自动提款机;农村商业银行ATM,160318
万寿三路与万寿四路交叉口东北50米,武侯区,[],[],3,成都市,[],B001C8O99B,[],"103.980203,30.658323",成都农商银行24小时自助银行(暂停营业),B001C8O9NO,,[],四川省,[],[],2,[],金融保险服务;自动提款机;农村商业银行ATM,160318
利民路643号附近,新都区,[],[],[],成都市,[],B0FFKZE1RL,[],"104.082857,30.760913",成都农商银行24小时自助银行(三元分理处),[],,[],四川省,[],[],2,[],金融保险服务;自动提款机;农村商业银行ATM,160318
凤凰路与凤祥大道交叉口西北100米,青白江区,[],[],[],成都市,[],B0FFJAA7RJ,[],"104.279288,30.886159",成都农商银行24小时自助银行(凤凰新城支行),[],,[],四川省,[],[],2,[],金融保险服务;自动提款机;农村商业银行ATM,160318
古城镇蜀汉南街18号,郫都区,[],[],[],成都市,[],B0FFMATXML,[],"103.923669,30.892858",成都农商银行24小时自助银行,[],,[],四川省,[],[],2,[],金融保险服务;自动提款机;农村商业银行ATM,160318
和平中街49附近,青白江区,[],[],[],成都市,[],B0FFL4NW9Y,[],"104.392919,30.744268",成都农商银行24小时自助银行,[],,[],四川省,[],[],2,[],金融保险服务;自动提款机;农村商业银行ATM,160318
新川藏路68号附近,武侯区,[],[],[],成都市,[],B0FFHQL2EN,[],"103.971025,30.616582",成都农商银行24小时自助银行,[],,[],四川省,[],[],2,[],金融保险服务;自动提款机;农村商业银行ATM,160318
武兴一路118号,武侯区,[],[],[],成都市,[],B0FFGFMOKP,[],"103.993752,30.631074",成都农商银行24小时自助银行,[],,[],四川省,[],[],2,[],金融保险服务;自动提款机;农村商业银行ATM,160318
龙锦街62号附1号,龙泉驿区,[],[],3,成都市,[],B001C8ONTL,[],"104.190601,30.586688",成都农商银行24小时自助银行(明乐分理处),B0FFFZC80X,,[],四川省,[],[],2,[],金融保险服务;自动提款机;农村商业银行ATM,160318
华金大道三段农科大厦1层,青白江区,[],[],202,成都市,[],B001C8O3Z5,[],"104.281355,30.879006",成都农商银行24小时自助银行(大同分理处),B0FFFWWH9U,,[],四川省,[],[],2,[],金融保险服务;自动提款机;农村商业银行ATM,160318
聚龙路1086号,武侯区,[],[],[],成都市,[],B0FFH58WKW,[],"103.996301,30.623146",成都农商银行24小时自助银行(簇锦支行),[],,[],四川省,[],[],2,[],金融保险服务;自动提款机;农村商业银行ATM,160318
文兴北路与文兴西路交叉口东北50米,青羊区,[],[],3,成都市,[],B0FFH46RS6,[],"103.924478,30.698102",成都农商银行24小时自助银行(文家支行),B001C8N5BV,,[],四川省,[],[],2,[],金融保险服务;自动提款机;农村商业银行ATM,160318
白鹤东路与积善街交叉口南50米,龙泉驿区,[],[],[],成都市,[],B0FFGM1H3G,[],"104.228810,30.655517",成都农商银行24小时自助银行(西河支行),[],,[],四川省,[],[],2,[],金融保险服务;自动提款机;农村商业银行ATM,160318
合兴路与红光大道交汇处西北50米,郫都区,[],[],[],成都市,[],B0FFG9ZB1R,[],"103.940319,30.774710",成都农商银行24小时自助银行(红光支行),[],,[],四川省,[],[],2,[],金融保险服务;自动提款机;农村商业银行ATM,160318
东升路与雄州大道南段交叉口东北100米,简阳市,[],[],[],成都市,[],B0FFFZYMTR,[],"104.544527,30.406435",成都农商银行24小时自助银行(简阳支行),[],,[],四川省,[],[],2,[],金融保险服务;自动提款机;农村商业银行ATM,160318
马超东路289号金融服务中心2-3层,新都区,[],[],[],成都市,[],B0FFFGUNJ0,[],"104.181035,30.808809",成都农商银行24小时自助银行(新都支行),[],,[],四川省,[],[],2,[],金融保险服务;自动提款机;农村商业银行ATM,160318
火神庙路65号附34-37附近,成华区,[],[],[],成都市,[],B0FFF006Y4,[],"104.171249,30.706228",成都农商银行24小时自助银行(龙潭支行),[],,[],四川省,[],[],2,[],金融保险服务;自动提款机;农村商业银行ATM,160318
玉林西路199号附2号,武侯区,[],[],3,成都市,[],B001C8VK4A,[],"104.050469,30.630936",成都农商银行24小时自助银行(玉林支行),B001C8VB3U,,[],四川省,[],[],2,[],金融保险服务;自动提款机;农村商业银行ATM,160318
柳下路14-24,温江区,[],[],[],成都市,[],B001C8VF1J,[],"103.776780,30.750851",成都农商银行24小时自助银行(和盛支行),[],,[],四川省,[],[],2,[],金融保险服务;自动提款机;农村商业银行ATM,160318
银河路1号6栋附130、131、132,龙泉驿区,[],[],3,成都市,[],B001C8OQ0K,[],"104.180180,30.569074",成都农商银行24小时自助银行(大面支行),B001C8ORGS,,[],四川省,[],[],2,[],金融保险服务;自动提款机;农村商业银行ATM,160318
新下街1,双流区,[],[],3,成都市,[],B001C8OPW0,[],"104.089714,30.556003",成都农商银行24小时自助银行(中和支行),B001C8ORCK,,[],四川省,[],[],2,[],金融保险服务;自动提款机;农村商业银行ATM,160318
泉湖路240号,双流区,[],[],3,成都市,[],B001C8N6U5,[],"103.918128,30.622452",成都农商银行24小时自助银行(九江支行),B0FFFW55O4,,[],四川省,[],[],2,[],金融保险服务;自动提款机;农村商业银行ATM,160318
太平街24号附10号,双流区,[],[],3,成都市,[],B001C8N5UT,[],"103.986391,30.408118",成都农商银行24小时自助银行(永安支行),B001C063CP,,[],四川省,[],[],2,[],金融保险服务;自动提款机;农村商业银行ATM,160318
繁清路95-105号,新都区,[],[],3,成都市,[],B001C8MYNQ,[],"104.012238,30.873889",成都农商银行24小时自助银行(新繁支行),B001C7TAFQ,,[],四川省,[],[],2,[],金融保险服务;自动提款机;农村商业银行ATM,160318
沙湾路274号,金牛区,[],[],3,成都市,[],B001C8MN03,[],"104.049595,30.693533",成都农商银行24小时自助银行(沙湾支行),B001C7WMST,,[],四川省,[],[],2,[],金融保险服务;自动提款机;农村商业银行ATM,160318
正义路920号,郫都区,[],[],3,成都市,[],B001C8MKSH,[],"104.035911,30.746138",成都农商银行24小时自助银行(安靖支行),B001C80433,,[],四川省,[],[],2,[],金融保险服务;自动提款机;农村商业银行ATM,160318
先驱大道2号润和柏栎酒店1层,新都区,[],[],3,成都市,[],B001C8MG70,[],"104.063750,30.761289",成都农商银行24小时自助银行(大丰支行),B001C8MG6Z,,[],四川省,[],[],2,[],金融保险服务;自动提款机;农村商业银行ATM,160318
泰北街224号,新都区,[],[],3,成都市,[],B001C8MFXN,[],"104.232043,30.786924",成都农商银行24小时自助银行(太兴支行),B0FFF6RDSE,,[],四川省,[],[],2,[],金融保险服务;自动提款机;农村商业银行ATM,160318
浦兴街252,郫都区,[],[],3,成都市,[],B001C8MEAM,[],"103.964804,30.752016",成都农商银行24小时自助银行(犀浦支行),B001C7SQCU,,[],四川省,[],[],2,[],金融保险服务;自动提款机;农村商业银行ATM,160318
东大街167号,郫都区,[],[],3,成都市,[],B001C8MDTQ,[],"103.889492,30.806556",成都农商银行24小时自助银行(郫筒支行),B001C7VSZY,,[],四川省,[],[],2,[],金融保险服务;自动提款机;农村商业银行ATM,160318
府城大道西段455号,武侯区,[],[],3,成都市,[],B001C80TFT,[],"104.054737,30.587819",成都农商银行24小时自助银行(高新支行),B001C80TFU,,[],四川省,[],[],2,[],金融保险服务;自动提款机;农村商业银行ATM,160318
二环路西三段与营康路交叉口南50米,金牛区,[],[],3,成都市,[],B001C80IQC,[],"104.035801,30.686096",成都农商银行24小时自助银行(化成支行),B001C7UG05,,[],四川省,[],[],2,[],金融保险服务;自动提款机;农村商业银行ATM,160318
三河大道63-65,新都区,[],[],3,成都市,[],B001C804VL,[],"104.134190,30.777300",成都农商银行24小时自助银行(三河支行),B001C01F98,,[],四川省,[],[],2,[],金融保险服务;自动提款机;农村商业银行ATM,160318
五津东路249附4,新津区,[],[],3,成都市,[],B001C0A5JG,[],"103.814613,30.414779",成都农商银行24小时自助银行(新津支行),B001C8O4RO,,[],四川省,[],[],2,[],金融保险服务;自动提款机;农村商业银行ATM,160318
至善东一路与陈英路交叉口东100米,龙泉驿区,[],[],[],成都市,[],B0FFHE4M4Q,[],"104.190957,30.651022",成都农商银行24小时自助银行(陈英路),[],,[],四川省,[],[],2,[],金融保险服务;自动提款机;农村商业银行ATM,160318
长柏路260号附1号,龙泉驿区,[],[],[],成都市,[],B0FFGBELPN,[],"104.266512,30.551638",成都农商银行24小时自助银行(长柏路),[],,[],四川省,[],[],2,[],金融保险服务;自动提款机;农村商业银行ATM,160318
九江街道九龙工业港四川元瑞国际家居商城1094-1097号正北方向20米,双流区,[],[],[],成都市,[],B001C8N6UA,[],"103.911110,30.633445",成都农商银行24小时自助银行(元瑞支行),[],,[],四川省,[],[],2,[],金融保险服务;自动提款机;农村商业银行ATM,160318
双钟街19号,都江堰市,[],[],[],成都市,[],B0G3ASFGMD,[],"103.593170,30.898958",成都农商银行都江堰青城分理处,[],,[],四川省,[],[],2,[],金融保险服务;银行;银行,160100
黄河中路二段169号,双流区,[],[],3,成都市,[],B001C8ONQK,[],"103.998959,30.571845",成都农商银行24小时自助银行(西航港支行),B001C01487,,[],四川省,[],[],2,[],金融保险服务;自动提款机;农村商业银行ATM,160318
蜀汉路259号附1号,金牛区,[],[],202,成都市,[],B001C7VRRU,[],"104.022535,30.687372",成都农商银行24小时自助银行(营门口支行),B001C08Y3K,,[],四川省,[],[],2,[],金融保险服务;自动提款机;农村商业银行ATM,160318
赛云台东一路5-7号,金牛区,[],[],3,成都市,[],B001C7V32F,[],"104.069278,30.702972",成都农商银行24小时自助银行(洞子口支行),B001C09IC2,,[],四川省,[],[],2,[],金融保险服务;自动提款机;农村商业银行ATM,160318
黄龙溪镇皇金路78号黄龙溪古镇旅游景区内,双流区,[],[],302,成都市,[],B001C8X7T3,[],"103.971536,30.316165",成都农商银行24小时自助银行(复兴街),B001C8MSP5,,[],四川省,[],[],2,[],金融保险服务;自动提款机;农村商业银行ATM,160318
万街与龙马街交叉口东南50米,新津区,[],[],[],成都市,[],B0HGPZSH85,[],"103.762439,30.431567",成都农商银行24小时自助银行(龙马分理处),[],,[],四川省,[],[],2,[],金融保险服务;自动提款机;农村商业银行ATM,160318
净居寺西街14-16号,锦江区,[],[],3,成都市,[],B0GRTCG45T,[],"104.103921,30.622588",成都农商银行24小时自助银行(成龙分理处),B001C7VRPM,,[],四川省,[],[],2,[],金融保险服务;自动提款机;农村商业银行ATM,160318
簇锦南路3附近,武侯区,[],[],[],成都市,[],B0FFMC07EN,[],"103.996394,30.599578",成都农商银行24小时自助银行(兴达分理处),[],,[],四川省,[],[],2,[],金融保险服务;自动提款机;农村商业银行ATM,160318
兴园3路5附1(金控・金融中心A座),新津区,[],[],[],成都市,[],B0FFKYS0LN,[],"103.817263,30.425204",成都农商银行24小时自助银行(桥津分理处),[],,[],四川省,[],[],2,[],金融保险服务;自动提款机;农村商业银行ATM,160318
兴达路978东南70米,温江区,[],[],[],成都市,[],B0FFKXNYAU,[],"103.772307,30.670993",成都农商银行24小时自助银行(永盛分理处),[],,[],四川省,[],[],2,[],金融保险服务;自动提款机;农村商业银行ATM,160318
石鼓路110号附近,双流区,[],[],[],成都市,[],B0FFKWYNX0,[],"103.950768,30.635177",成都农商银行24小时自助银行(通江分理处),[],,[],四川省,[],[],2,[],金融保险服务;自动提款机;农村商业银行ATM,160318
天乡路一段2461号,温江区,[],[],[],成都市,[],B0FFINI6K5,[],"103.836253,30.724254",成都农商银行24小时自助银行(天乡分理处),[],,[],四川省,[],[],2,[],金融保险服务;自动提款机;农村商业银行ATM,160318
双怀路27号附近,双流区,[],[],3,成都市,[],B0FFIITG0G,[],"103.831105,30.576819",成都农商银行24小时自助银行(金桥分理处),B001C8OEYX,,[],四川省,[],[],2,[],金融保险服务;自动提款机;农村商业银行ATM,160318
桂湖东路281号,新都区,[],[],3,成都市,[],B0FFIIJ7X3,[],"104.170817,30.824021",成都农商银行24小时自助银行(桂林路分理处),B0FFGIPOLP,,[],四川省,[],[],2,[],金融保险服务;自动提款机;农村商业银行ATM,160318
大弯东路与学苑路交汇处,青白江区,[],[],[],成都市,[],B0FFI69ZKW,[],"104.276474,30.877100",成都农商银行24小时自助银行(学苑分理处),[],,[],四川省,[],[],2,[],金融保险服务;自动提款机;农村商业银行ATM,160318
天和路68号,武侯区,[],[],[],成都市,[],B0FFHSLY6V,[],"104.074465,30.599761",成都农商银行24小时自助银行(三瓦窑分理处),[],,[],四川省,[],[],2,[],金融保险服务;自动提款机;农村商业银行ATM,160318
云龙路111-2号附近,成华区,[],[],[],成都市,[],B0FFHJLAMN,[],"104.107428,30.700903",成都农商银行24小时自助银行(云龙分理处),[],,[],四川省,[],[],2,[],金融保险服务;自动提款机;农村商业银行ATM,160318
安民街76-80,郫都区,[],[],[],成都市,[],B0FFGO1I8L,[],"103.896077,30.798184",成都农商银行24小时自助银行(望丛分理处),[],,[],四川省,[],[],2,[],金融保险服务;自动提款机;农村商业银行ATM,160318
蜚虹路97-107号,邛崃市,[],[],[],成都市,[],B0FFGIEZCX,[],"103.475350,30.411972",成都农商银行24小时自助银行(拱辰分理处),[],,[],四川省,[],[],2,[],金融保险服务;自动提款机;农村商业银行ATM,160318
草金东路48号附1号,武侯区,[],[],[],成都市,[],B0FFGI7QIW,[],"103.981024,30.645210",成都农商银行24小时自助银行(机投桥支行),[],,[],四川省,[],[],2,[],金融保险服务;自动提款机;农村商业银行ATM,160318
兴旺东街与黄楠路交叉口东南50米,双流区,[],[],[],成都市,[],B0FFGA86XG,[],"103.839401,30.521203",成都农商银行24小时自助银行(杨公分理处),[],,[],四川省,[],[],2,[],金融保险服务;自动提款机;农村商业银行ATM,160318
空港四路88空港4期附近附近,双流区,[],[],[],成都市,[],B0FFG8KI7B,[],"103.995023,30.518200",成都农商银行24小时自助银行(龙兴分理处),[],,[],四川省,[],[],2,[],金融保险服务;自动提款机;农村商业银行ATM,160318
蜀汉南街与蜀韵街交叉口西南50米,郫都区,[],[],[],成都市,[],B0FFFSWOPQ,[],"103.926465,30.894153",成都农商银行24小时自助银行(古城分理处),[],,[],四川省,[],[],2,[],金融保险服务;自动提款机;农村商业银行ATM,160318
中街169号,龙泉驿区,[],[],3,成都市,[],B001C7UWPB,[],"104.269143,30.560151",成都农商银行24小时自助银行(龙泉驿中街分理处),B001C7UWN4,,[],四川省,[],[],2,[],金融保险服务;自动提款机;农村商业银行ATM,160318
天府科华路728号,温江区,[],[],[],成都市,[],B0FFFE00W7,[],"103.818499,30.642199",成都农商银行24小时自助银行(金马分理处),[],,[],四川省,[],[],2,[],金融保险服务;自动提款机;农村商业银行ATM,160318
工业大道西段279-283号,新都区,[],[],[],成都市,[],B0FFFAB7C8,[],"104.151031,30.805497",成都农商银行24小时自助银行(锦水分理处),[],,[],四川省,[],[],2,[],金融保险服务;自动提款机;农村商业银行ATM,160318
涧槽北街48号,双流区,[],[],[],成都市,[],B0FFF00DZT,[],"103.909563,30.566211",成都农商银行24小时自助银行(贵通分理处),[],,[],四川省,[],[],2,[],金融保险服务;自动提款机;农村商业银行ATM,160318
古镇街与灌温路交叉口南50米,温江区,[],[],[],成都市,[],B0FFF00DC4,[],"103.780571,30.774828",成都农商银行24小时自助银行(镇子分理处),[],,[],四川省,[],[],2,[],金融保险服务;自动提款机;农村商业银行ATM,160318
太极大道221号,温江区,[],[],[],成都市,[],B0FFF005RR,[],"103.804987,30.641305",成都农商银行24小时自助银行(太极分理处),[],,[],四川省,[],[],2,[],金融保险服务;自动提款机;农村商业银行ATM,160318
长龙街11号,双流区,[],[],[],成都市,[],B001C8VEZJ,[],"104.201245,30.431406",成都农商银行24小时自助银行(太平分理处),[],,[],四川省,[],[],2,[],金融保险服务;自动提款机;农村商业银行ATM,160318
大源北二街5号,武侯区,[],[],3,成都市,[],B001C8ULQ4,[],"104.035051,30.555464",成都农商银行24小时自助银行(大源分理处),B001C8ULQM,,[],四川省,[],[],2,[],金融保险服务;自动提款机;农村商业银行ATM,160318
大永路与郫花路交叉口东北100米,郫都区,[],[],[],成都市,[],B0FFKMTNY8,[],"103.757333,30.857126",成都农商银行24小时自助银行(郫都花园分理处),[],,[],四川省,[],[],2,[],金融保险服务;自动提款机;农村商业银行ATM,160318
天府大道1-5,郫都区,[],[],3,成都市,[],B001C8R6ZC,[],"103.972951,30.758133",成都农商银行24小时自助银行(西区支行),B001C8ORGN,,[],四川省,[],[],2,[],金融保险服务;自动提款机;农村商业银行ATM,160318
荆竹中路266号,成华区,[],[],[],成都市,[],B001C8OTB0,[],"104.105875,30.713657",成都农商银行24小时自助银行(白莲分理处),[],,[],四川省,[],[],2,[],金融保险服务;自动提款机;农村商业银行ATM,160318
东大街下东大街段42-46,锦江区,[],[],3,成都市,[],B001C8OOKQ,[],"104.080689,30.651011",成都农商银行24小时自助银行(东大街支行),B001C8OPI4,,[],四川省,[],[],2,[],金融保险服务;自动提款机;农村商业银行ATM,160318
青正街123号,都江堰市,[],[],3,成都市,[],B001C8OEFO,[],"103.593174,30.898945",成都农商银行24小时自助银行(青城分理处),B001C8OF5A,,[],四川省,[],[],2,[],金融保险服务;自动提款机;农村商业银行ATM,160318
武侯大道铁佛段122号,武侯区,[],[],3,成都市,[],B001C8O9OU,[],"103.987872,30.612435",成都农商银行24小时自助银行(铁佛分理处),B001C8O98B,,[],四川省,[],[],2,[],金融保险服务;自动提款机;农村商业银行ATM,160318
培风路80号17栋1-2-3,青羊区,[],[],202,成都市,[],B001C8O99C,[],"103.978395,30.664163",成都农商银行24小时自助银行(培风分理处),B0FFFPCQTU,,[],四川省,[],[],2,[],金融保险服务;自动提款机;农村商业银行ATM,160318
九金街84附近,武侯区,[],[],3,成都市,[],B001C8O866,[],"103.971026,30.648171",成都农商银行24小时自助银行(永康分理处),B001C8O92N,,[],四川省,[],[],2,[],金融保险服务;自动提款机;农村商业银行ATM,160318
凤凰街95-97,温江区,[],[],3,成都市,[],B001C8O2G4,[],"103.870480,30.670040",成都农商银行24小时自助银行(涌泉分理处),B001C7YLJH,,[],四川省,[],[],2,[],金融保险服务;自动提款机;农村商业银行ATM,160318
二仙桥北二路4号附2号-4,成华区,[],[],3,成都市,[],B001C8NSD6,[],"104.130642,30.682494",成都农商银行24小时自助银行(三根香分理处),B001C8NOK0,,[],四川省,[],[],2,[],金融保险服务;自动提款机;农村商业银行ATM,160318
交通路三段60号,双流区,[],[],3,成都市,[],B001C8N3MZ,[],"103.875377,30.582973",成都农商银行24小时自助银行(彭镇分理处),B001C8MLOZ,,[],四川省,[],[],2,[],金融保险服务;自动提款机;农村商业银行ATM,160318
竹园大道39-41,新都区,[],[],3,成都市,[],B001C8MY0V,[],"104.066028,30.819611",成都农商银行24小时自助银行(斑竹园支行),B001C7SQDK,,[],四川省,[],[],2,[],金融保险服务;自动提款机;农村商业银行ATM,160318
飞雪路59号,新津区,[],[],3,成都市,[],B001C8MSMC,[],"103.845993,30.370520",成都农商银行24小时自助银行(双河分理处),B001C8N3UY,,[],四川省,[],[],2,[],金融保险服务;自动提款机;农村商业银行ATM,160318
黄甲大道一段185,双流区,[],[],3,成都市,[],B001C8MRA9,[],"103.966433,30.534785",成都农商银行24小时自助银行(双华分理处),B001C09S5Q,,[],四川省,[],[],2,[],金融保险服务;自动提款机;农村商业银行ATM,160318
新园大道24号附101-102,武侯区,[],[],3,成都市,[],B001C8MR3K,[],"104.035712,30.585173",成都农商银行24小时自助银行(新南支行),B001C7VRRN,,[],四川省,[],[],2,[],金融保险服务;自动提款机;农村商业银行ATM,160318
白衣上街附近,双流区,[],[],3,成都市,[],B001C8MMNN,[],"103.914763,30.606111",成都农商银行24小时自助银行(蛟龙分理处),B001C8N5PK,,[],四川省,[],[],2,[],金融保险服务;自动提款机;农村商业银行ATM,160318
同兴街188号,新都区,[],[],3,成都市,[],B001C8MIGH,[],"104.211026,30.737230",成都农商银行24小时自助银行(木兰分理处),B001C060Q2,,[],四川省,[],[],2,[],金融保险服务;自动提款机;农村商业银行ATM,160318
草金路651号,武侯区,[],[],3,成都市,[],B001C8MH5B,[],"103.957473,30.637781",成都农商银行24小时自助银行(陆坝分理处),B001C8O8DU,,[],四川省,[],[],2,[],金融保险服务;自动提款机;农村商业银行ATM,160318
东升镇街道办事处龙桥社区,双流区,[],[],3,成都市,[],B001C8MGFT,[],"103.951431,30.593177",成都农商银行24小时自助银行(龙腾分理处),B001C8084A,,[],四川省,[],[],2,[],金融保险服务;自动提款机;农村商业银行ATM,160318
犀安路999号西南交通大学犀浦校区,郫都区,[],[],3,成都市,[],B001C8MEJX,[],"103.977440,30.767761",成都农商银行24小时自助银行(交大分理处),B001C8MEJW,,[],四川省,[],[],2,[],金融保险服务;自动提款机;农村商业银行ATM,160318
北大街398-406,郫都区,[],[],3,成都市,[],B001C80T60,[],"103.893184,30.813491",成都农商银行24小时自助银行(红星分理处),B001C0AJZK,,[],四川省,[],[],2,[],金融保险服务;自动提款机;农村商业银行ATM,160318
永盛路与红牌楼二街交叉口西50米,武侯区,[],[],[],成都市,[],B0FFFAC4AA,[],"104.022342,30.632569",成都农商银行24小时自助银行(红牌楼分理处),[],,[],四川省,[],[],2,[],金融保险服务;自动提款机;农村商业银行ATM,160318
正东中街127-131,双流区,[],[],3,成都市,[],B001C8OBFJ,[],"104.061844,30.502046",成都农商银行24小时自助银行(华阳南阳分理处),B001C8OBWF,,[],四川省,[],[],2,[],金融保险服务;自动提款机;农村商业银行ATM,160318
泰安街12-16号,成华区,[],[],3,成都市,[],B001C80IPW,[],"104.093634,30.681506",成都农商银行24小时自助银行(府青路分理处),B001C80IXF,,[],四川省,[],[],2,[],金融保险服务;自动提款机;农村商业银行ATM,160318
桃蹊路76-78号,成华区,[],[],3,成都市,[],B001C80FWO,[],"104.108478,30.681569",成都农商银行24小时自助银行(桃蹊分理处),B001C80IQ7,,[],四川省,[],[],2,[],金融保险服务;自动提款机;农村商业银行ATM,160318
广都大道176-178号,双流区,[],[],3,成都市,[],B001C808PV,[],"103.924931,30.560395",成都农商银行24小时自助银行(广都分理处),B001C80IY7,,[],四川省,[],[],2,[],金融保险服务;自动提款机;农村商业银行ATM,160318
东环路76-82号,新都区,[],[],3,成都市,[],B001C7ZYA8,[],"104.166348,30.828446",成都农商银行24小时自助银行(桂湖分理处),B001C7VRQ4,,[],四川省,[],[],2,[],金融保险服务;自动提款机;农村商业银行ATM,160318
都江堰大道134号附1号,都江堰市,[],[],3,成都市,[],B001C7ZWOK,[],"103.639264,30.989255",成都农商银行24小时自助银行(幸福分理处),B001C7ZWOJ,,[],四川省,[],[],2,[],金融保险服务;自动提款机;农村商业银行ATM,160318
双荆路308号,成华区,[],[],202,成都市,[],B001C7WDXZ,[],"104.082237,30.711048",成都农商银行24小时自助银行(百盛大厦支行),B001C8NRB3,,[],四川省,[],[],2,[],金融保险服务;自动提款机;农村商业银行ATM,160318
清渔街30号附6-9号,新都区,[],[],3,成都市,[],B001C7U1Q3,[],"104.036264,30.936603",成都农商银行24小时自助银行(清流分理处),B001C7U1Q2,,[],四川省,[],[],2,[],金融保险服务;自动提款机;农村商业银行ATM,160318
东街276-282号,新都区,[],[],3,成都市,[],B001C0A513,[],"104.161726,30.826975",成都农商银行24小时自助银行(香城分理处),B001C01FA8,,[],四川省,[],[],2,[],金融保险服务;自动提款机;农村商业银行ATM,160318
石木路与荷塘路交叉口北200米,新都区,[],[],[],成都市,[],B0FFGBIMZE,[],"104.201008,30.736148",成都农商银行24小时自助银行(石木路分理处),[],,[],四川省,[],[],2,[],金融保险服务;自动提款机;农村商业银行ATM,160318
三元正街与人和巷交叉口北50米,郫都区,[],[],[],成都市,[],B0FFH95GJ2,[],"103.795842,30.823268",成都农商银行24小时自助银行(友爱支行)(装修中),[],,[],四川省,[],[],2,[],金融保险服务;自动提款机;农村商业银行ATM,160318
龙虎大道2015号龙虎商业广场,新都区,[],[],[],成都市,[],B0FFGL2OSJ,[],"104.226622,30.837092",成都农商银行24小时自助银行(龙虎分理处),[],,[],四川省,[],[],2,[],金融保险服务;自动提款机;农村商业银行ATM,160318
新都镇马超东路518号,新都区,[],[],3,成都市,[],B001C8NZLK,[],"104.191159,30.807160",成都农商银行24小时自助银行(汉嘉分理处),B001C8O3QT,,[],四川省,[],[],2,[],金融保险服务;自动提款机;农村商业银行ATM,160318
晋新路,大邑县,[],[],[],成都市,[],B0HBTY39IP,[],"103.460335,30.557295",成都农商银行24小时自助银行,[],,[],四川省,[],[],2,[],金融保险服务;自动提款机;农村商业银行ATM,160318
龙平路163号附近,龙泉驿区,[],[],[],成都市,[],B0GU1LY9UV,[],"104.264641,30.563379",成都农商银行24小时自助银行,[],,[],四川省,[],[],2,[],金融保险服务;自动提款机;农村商业银行ATM,160318
合欢树街309-313号,锦江区,[],[],[],成都市,[],B0FFGDDCTI,[],"104.135817,30.606944",成都农商银行24小时自助银行(航天立交分理处),[],,[],四川省,[],[],2,[],金融保险服务;自动提款机;农村商业银行ATM,160318
[],崇州市,[],[],[],成都市,[],B0G2XCMAV7,[],"103.779369,30.588381",成都农商银行24小时自助银行,[],,[],四川省,[],[],2,[],金融保险服务;自动提款机;农村商业银行ATM,160318
[],郫都区,[],[],[],成都市,[],B0G2H7OUFV,[],"103.794073,30.939083",成都农商银行24小时自助银行,[],,[],四川省,[],[],2,[],金融保险服务;自动提款机;农村商业银行ATM,160318
[],金牛区,[],[],[],成都市,[],B0G2CA88KD,[],"104.097310,30.762691",成都农商银行24小时自助银行,[],,[],四川省,[],[],2,[],金融保险服务;自动提款机;农村商业银行ATM,160318
岷江路70附近,都江堰市,[],[],[],成都市,[],B0G257VXXF,[],"103.645554,30.983785",成都农商银行24小时自助银行,[],,[],四川省,[],[],2,[],金融保险服务;自动提款机;农村商业银行ATM,160318
迎祥街,都江堰市,[],[],[],成都市,[],B0G24BDMO0,[],"103.689331,30.897077",成都农商银行24小时自助银行,[],,[],四川省,[],[],2,[],金融保险服务;自动提款机;农村商业银行ATM,160318
[],邛崃市,[],[],[],成都市,[],B0G0K9VIU5,[],"103.324880,30.307748",成都农商银行24小时自助银行,[],,[],四川省,[],[],2,[],金融保险服务;自动提款机;农村商业银行ATM,160318
梧桐街,崇州市,[],[],[],成都市,[],B0FFM894FC,[],"103.688984,30.578690",成都农商银行24小时自助银行,[],,[],四川省,[],[],2,[],金融保险服务;自动提款机;农村商业银行ATM,160318
中环路金府路段与长青横街交叉路口往西约150米,金牛区,[],[],[],成都市,[],B0FFLDTHWH,[],"104.038006,30.714094",成都农商银行24小时自助银行,[],,[],四川省,[],[],2,[],金融保险服务;自动提款机;农村商业银行ATM,160318
福洪乡宏福路104号,青白江区,[],[],[],成都市,[],B0FFL4BOGN,[],"104.335964,30.736924",成都农商银行24小时自助银行,[],,[],四川省,[],[],2,[],金融保险服务;自动提款机;农村商业银行ATM,160318
崇州市妇幼保健院住院部1层,崇州市,[],[],[],成都市,[],B0FFL163XN,[],"103.689747,30.620922",成都农商银行24小时自助银行,[],,[],四川省,[],[],2,[],金融保险服务;自动提款机;农村商业银行ATM,160318
天工大道辅路,双流区,[],[],[],成都市,[],B0FFL08UY2,[],"104.175391,30.522653",成都农商银行24小时自助银行,[],,[],四川省,[],[],2,[],金融保险服务;自动提款机;农村商业银行ATM,160318
龙腾街与凤凌街交叉路口东南侧,新津区,[],[],[],成都市,[],B0FFL02DJC,[],"103.895857,30.402357",成都农商银行24小时自助银行,[],,[],四川省,[],[],2,[],金融保险服务;自动提款机;农村商业银行ATM,160318
万源大道28-1号附近,新都区,[],[],[],成都市,[],B0FFKZF2R7,[],"104.270200,30.720546",成都农商银行24小时自助银行,[],,[],四川省,[],[],2,[],金融保险服务;自动提款机;农村商业银行ATM,160318
花普路与黄渡西街交叉口西150米,新津区,[],[],[],成都市,[],B0FFJZS6QW,[],"103.883887,30.444503",成都农商银行24小时自助银行,[],,[],四川省,[],[],2,[],金融保险服务;自动提款机;农村商业银行ATM,160318
潘家湾路,双流区,[],[],[],成都市,[],B0FFJNKN5K,[],"104.016535,30.444909",成都农商银行24小时自助银行,[],,[],四川省,[],[],2,[],金融保险服务;自动提款机;农村商业银行ATM,160318
听江街14号附近,崇州市,[],[],[],成都市,[],B0FFJF32S9,[],"103.808271,30.560872",成都农商银行24小时自助银行,[],,[],四川省,[],[],2,[],金融保险服务;自动提款机;农村商业银行ATM,160318
西岭雪山滑雪场附近西岭雪山后山-游客中心内,大邑县,[],[],[],成都市,[],B0FFIQD8J1,[],"103.233890,30.701586",成都农商银行24小时自助银行,[],,[],四川省,[],[],2,[],金融保险服务;自动提款机;农村商业银行ATM,160318
凤凰大道三段凤凰铭筑附近,青白江区,[],[],[],成都市,[],B0FFFY8V1R,[],"104.294891,30.882653",成都农商银行24小时自助银行,[],,[],四川省,[],[],2,[],金融保险服务;自动提款机;农村商业银行ATM,160318
崇新路三段26,崇州市,[],[],[],成都市,[],B0FFFADG17,[],"103.779836,30.538719",成都农商银行24小时自助银行(崇州三江分理处),[],,[],四川省,[],[],2,[],金融保险服务;自动提款机;农村商业银行ATM,160318
大南街2号,青白江区,[],[],[],成都市,[],B0FFMC837D,[],"104.320765,30.854369",成都农商银行24小时自助银行服务,[],,[],四川省,[],[],2,[],金融保险服务;自动提款机;农村商业银行ATM,160318
望丛中路1051、1065,郫都区,[],[],[],成都市,[],B0FFGNNAIO,[],"103.898045,30.793711",成都农商银行24小时自助银行(郫都区支行),[],,[],四川省,[],[],2,[],金融保险服务;自动提款机;农村商业银行ATM,160318
红光镇新城佳苑底商,郫都区,[],[],[],成都市,[],B0FFG0ZEAR,[],"103.955731,30.789141",成都农商银行24小时自助银行(同森・锦熙东南),[],,[],四川省,[],[],2,[],金融保险服务;自动提款机;农村商业银行ATM,160318
二环路西二段39号附5-10号,青羊区,[],[],3,成都市,[],B001C7YQGB,[],"104.021183,30.664931",成都农商银行24小时自助银行(青羊支行营业部),B001C80IXO,,[],四川省,[],[],2,[],金融保险服务;自动提款机;农村商业银行ATM,160318
子华中街与子华北街交叉口东150米,龙泉驿区,[],[],[],成都市,[],B0FFGH1KL5,[],"104.329094,30.641888",成都农商银行24小时自助银行(玉带街),[],,[],四川省,[],[],2,[],金融保险服务;自动提款机;农村商业银行ATM,160318
东街与滨河南街交叉口北50米,龙泉驿区,[],[],[],成都市,[],B0FFGFTX52,[],"104.274189,30.557282",成都农商银行24小时自助银行(东街),[],,[],四川省,[],[],2,[],金融保险服务;自动提款机;农村商业银行ATM,160318
中庙路与中新路交叉口东150米,双流区,[],[],[],成都市,[],B0FFGFM3UN,[],"104.138821,30.531592",成都农商银行24小时自助银行(中庙路),[],,[],四川省,[],[],2,[],金融保险服务;自动提款机;农村商业银行ATM,160318
兴平街64附近,金堂县,[],[],[],成都市,[],B001C8X7SN,[],"104.639129,30.620978",成都农商银行24小时自助银行(平桥场镇),[],,[],四川省,[],[],2,[],金融保险服务;自动提款机;农村商业银行ATM,160318
米其林轮胎附近,双流区,[],[],[],成都市,[],B0FFF00912,[],"103.897103,30.658630",成都农商银行24小时自助银行(邹家场分理处),[],,[],四川省,[],[],2,[],金融保险服务;自动提款机;农村商业银行ATM,160318
公园路一段17号附1号,龙泉驿区,[],[],3,成都市,[],B001C8NVYD,[],"104.275631,30.561794",成都农商银行24小时自助银行(龙泉驿经开区支行),B0FFFXOZRX,,[],四川省,[],[],2,[],金融保险服务;自动提款机;农村商业银行ATM,160318
城厢镇上北街67号,青白江区,[],[],3,成都市,[],B001C8MDJC,[],"104.319658,30.856150",成都农商银行24小时自助银行(青白江上北分理处),B001C7U2IQ,,[],四川省,[],[],2,[],金融保险服务;自动提款机;农村商业银行ATM,160318
文庙街12-20号,邛崃市,[],[],3,成都市,[],B001C7ZWEO,[],"103.459996,30.406963",成都农商银行24小时自助银行(南环路分理处),B001C7ZWEI,,[],四川省,[],[],2,[],金融保险服务;自动提款机;农村商业银行ATM,160318
南街11-15,龙泉驿区,[],[],[],成都市,[],B0FFGH7U5B,[],"104.231704,30.652741",成都农商银行24小时自助银行(西河南街分理处),[],,[],四川省,[],[],2,[],金融保险服务;自动提款机;农村商业银行ATM,160318
新洛路附近,龙泉驿区,[],[],[],成都市,[],B001C8VJJI,[],"104.291130,30.684413",成都农商银行24小时自助银行(龙泉驿黄土分理处),[],,[],四川省,[],[],2,[],金融保险服务;自动提款机;农村商业银行ATM,160318
碧云路118号天邑国际大酒店商务写字楼1层,武侯区,[],[],3,成都市,[],B001C92ECF,[],"104.031018,30.637106",成都农商银行24小时自助银行(永丰支行),B001C92ECE,,[],四川省,[],[],2,[],金融保险服务;自动提款机;农村商业银行ATM,160318
顺源环街18,郫都区,[],[],3,成都市,[],B001C8NZOH,[],"103.930353,30.740969",成都农商银行24小时自助银行(合作支行),B001C8O0II,,[],四川省,[],[],2,[],金融保险服务;自动提款机;农村商业银行ATM,160318
锦逸路79号附近,锦江区,[],[],[],成都市,[],B0FFHUOD3D,[],"104.115443,30.590414",成都农商银行24小时自助银行(锦城逸景分理处),[],,[],四川省,[],[],2,[],金融保险服务;自动提款机;农村商业银行ATM,160318
茶石路与西岭街交叉口东南50米,龙泉驿区,[],[],[],成都市,[],B0FFHLZQUV,[],"104.357655,30.512385",成都农商银行24小时自助银行(茶店分理处),[],,[],四川省,[],[],2,[],金融保险服务;自动提款机;农村商业银行ATM,160318
经开区南二路3675号,龙泉驿区,[],[],[],成都市,[],B0FFH6Q7DT,[],"104.169180,30.563409",成都农商银行24小时自助银行(经开区南二路),[],,[],四川省,[],[],2,[],金融保险服务;自动提款机;农村商业银行ATM,160318
佳灵路56号附4号,武侯区,[],[],3,成都市,[],B0FFGCERU5,[],"104.016892,30.620792",成都农商银行24小时自助银行(太平园分理处),B001C80CGJ,,[],四川省,[],[],2,[],金融保险服务;自动提款机;农村商业银行ATM,160318
新街118-120,新都区,[],[],[],成都市,[],B0FFG61HQP,[],"104.051805,30.763350",成都农商银行24小时自助银行(东街分理处),[],,[],四川省,[],[],2,[],金融保险服务;自动提款机;农村商业银行ATM,160318
科兴路东段580号,温江区,[],[],[],成都市,[],B0FFFNNBLC,[],"103.826567,30.670285",成都农商银行24小时自助银行(天府家园分理处),[],,[],四川省,[],[],2,[],金融保险服务;自动提款机;农村商业银行ATM,160318
宝光大道中段863号,新都区,[],[],[],成都市,[],B0FFFAAVXB,[],"104.151978,30.823861",成都农商银行24小时自助银行(状元街分理处),[],,[],四川省,[],[],2,[],金融保险服务;自动提款机;农村商业银行ATM,160318
科华北路18号,武侯区,[],[],[],成都市,[],B0FFF9VHRE,[],"104.076041,30.631599",成都农商银行24小时自助银行(磨子桥分理处),[],,[],四川省,[],[],2,[],金融保险服务;自动提款机;农村商业银行ATM,160318
天乡路一段779-783,温江区,[],[],[],成都市,[],B001C952XB,[],"103.866458,30.708831",成都农商银行24小时自助银行(温江惠民分理处),[],,[],四川省,[],[],2,[],金融保险服务;自动提款机;农村商业银行ATM,160318
星辉西路6号,金牛区,[],[],3,成都市,[],B001C8R9VL,[],"104.076785,30.677612",成都农商银行24小时自助银行(城隍庙分理处),B001C7UAN5,,[],四川省,[],[],2,[],金融保险服务;自动提款机;农村商业银行ATM,160318
新下街399附近,双流区,[],[],3,成都市,[],B001C8OOCQ,[],"104.088881,30.548259",成都农商银行24小时自助银行(高新新区分理处),B001C8OOCO,,[],四川省,[],[],2,[],金融保险服务;自动提款机;农村商业银行ATM,160318
武侯大道铁佛段289号,武侯区,[],[],3,成都市,[],B001C8OL0N,[],"103.987782,30.602012",成都农商银行24小时自助银行(亿臣分理处),B001C8OL0P,,[],四川省,[],[],2,[],金融保险服务;自动提款机;农村商业银行ATM,160318
大源街48-50号,武侯区,[],[],3,成都市,[],B001C8OAZR,[],"104.033163,30.552514",成都农商银行24小时自助银行(谭家店子分理处),B001C7UWKK,,[],四川省,[],[],2,[],金融保险服务;自动提款机;农村商业银行ATM,160318
淮口街道淮北路16号,金堂县,[],[],3,成都市,[],B001C8O1IQ,[],"104.558841,30.713840",成都农商银行24小时自助银行(淮北路分理处),B001C8MLI3,,[],四川省,[],[],2,[],金融保险服务;自动提款机;农村商业银行ATM,160318
花园后街与花园街交叉口北50米,新津区,[],[],3,成都市,[],B001C8MYG8,[],"103.878826,30.498382",成都农商银行24小时自助银行(花园场分理处),B001C808DM,,[],四川省,[],[],2,[],金融保险服务;自动提款机;农村商业银行ATM,160318
经一路82号,青羊区,[],[],3,成都市,[],B001C8MV68,[],"103.965213,30.693685",成都农商银行24小时自助银行(黄田坝分理处),B001C7U6B6,,[],四川省,[],[],2,[],金融保险服务;自动提款机;农村商业银行ATM,160318
中山路2号附5,双流区,[],[],[],成都市,[],B001C8MSP0,[],"103.967403,30.318611",成都农商银行24小时自助银行(黄龙溪分理处),[],,[],四川省,[],[],2,[],金融保险服务;自动提款机;农村商业银行ATM,160318
东明街155-161号,双流区,[],[],3,成都市,[],B001C80RRR,[],"103.927327,30.575637",成都农商银行24小时自助银行(东明街分理处),B001C80IXR,,[],四川省,[],[],2,[],金融保险服务;自动提款机;农村商业银行ATM,160318
林荫街5号附6号,武侯区,[],[],3,成都市,[],B001C80RM5,[],"104.067951,30.637260",成都农商银行24小时自助银行服务(桂溪支行),B001C80RR4,,[],四川省,[],[],2,[],金融保险服务;自动提款机;农村商业银行ATM,160318
万春路187号,温江区,[],[],3,成都市,[],B001C809H5,[],"103.838578,30.704872",成都农商银行24小时自助银行(温江白马分理处),B001C809H4,,[],四川省,[],[],2,[],金融保险服务;自动提款机;农村商业银行ATM,160318
中环路锦绣大道段东50米,锦江区,[],[],[],成都市,[],B0FFKW5HTE,[],"104.131259,30.615344",成都农商银行24小时自助银行(三圣支行),[],,[],四川省,[],[],2,[],金融保险服务;自动提款机;农村商业银行ATM,160318
南大街42号,蒲江县,[],[],[],成都市,[],B001C8VEZV,[],"103.439691,30.302790",成都农商银行24小时自助银行(复兴分理处),[],,[],四川省,[],[],2,[],金融保险服务;自动提款机;农村商业银行ATM,160318
草金南路与万安正街交叉路口东北侧,武侯区,[],[],[],成都市,[],B0G1D1IYA8,[],"103.980668,30.648513",成都农商银行24小时自助银行(机投北街分理处),[],,[],四川省,[],[],2,[],金融保险服务;自动提款机;农村商业银行ATM,160318
温玉路通平段1838西北方向150米,温江区,[],[],[],成都市,[],B0FFMH4KCJ,[],"103.750642,30.776698",成都农商银行24小时自助银行(温江团结桥分理处),[],,[],四川省,[],[],2,[],金融保险服务;自动提款机;农村商业银行ATM,160318
阙黄路与林家老房子路交叉路口往东约200米,龙泉驿区,[],[],[],成都市,[],B0FFL1AXY5,[],"104.248940,30.645629",成都农商银行24小时自助银行(龙泉驿中街分理处),[],,[],四川省,[],[],2,[],金融保险服务;自动提款机;农村商业银行ATM,160318
中街74-82号,龙泉驿区,[],[],[],成都市,[],B0FFH02YW6,[],"104.317693,30.539368",成都农商银行24小时自助银行(龙泉驿山泉分理处),[],,[],四川省,[],[],2,[],金融保险服务;自动提款机;农村商业银行ATM,160318
锦华路三段47-51,双流区,[],[],[],成都市,[],B0FFF00E0L,[],"103.983911,30.577693",成都农商银行24小时自助银行(双流金色校园分理处),[],,[],四川省,[],[],2,[],金融保险服务;自动提款机;农村商业银行ATM,160318
瑞云街208号附1-7,邛崃市,[],[],[],成都市,[],B0FFF006GA,[],"103.449262,30.417519",成都农商银行24小时自助银行(邛崃西桥分理处),[],,[],四川省,[],[],2,[],金融保险服务;自动提款机;农村商业银行ATM,160318
天府大道1号,郫都区,[],[],3,成都市,[],B001C92BGU,[],"103.973440,30.752267",成都农商银行24小时自助银行(犀浦中街分理处),B001C8VJJG,,[],四川省,[],[],2,[],金融保险服务;自动提款机;农村商业银行ATM,160318
柏合街道龙工南路888号附3号,龙泉驿区,[],[],3,成都市,[],B001C8OB6Y,[],"104.254524,30.544608",成都农商银行24小时自助银行(龙泉驿龙泉分理处),B001C8NVS5,,[],四川省,[],[],2,[],金融保险服务;自动提款机;农村商业银行ATM,160318
安靖下街19号,郫都区,[],[],3,成都市,[],B001C8O83N,[],"104.019729,30.767471",成都农商银行24小时自助银行(安靖下街分理处),B001C7TNQ4,,[],四川省,[],[],2,[],金融保险服务;自动提款机;农村商业银行ATM,160318
洪安镇西部化工市场内第7幢1-3号,龙泉驿区,[],[],3,成都市,[],B001C8O0O2,[],"104.336125,30.699447",成都农商银行24小时自助银行(龙泉驿洪安分理处),B001C8O3DR,,[],四川省,[],[],2,[],金融保险服务;自动提款机;农村商业银行ATM,160318
天生路100-106号,龙泉驿区,[],[],3,成都市,[],B001C8NOX3,[],"104.264493,30.554115",成都农商银行24小时自助银行(驿龙柏路分理处),B001C8NOHS,,[],四川省,[],[],2,[],金融保险服务;自动提款机;农村商业银行ATM,160318
寿安街道政星街118号-128号,温江区,[],[],3,成都市,[],B001C8MZEW,[],"103.752876,30.810971",成都农商银行24小时自助银行(温江吴家场分理处),B001C8MFO2,,[],四川省,[],[],2,[],金融保险服务;自动提款机;农村商业银行ATM,160318
蜀龙街1号,双流区,[],[],3,成都市,[],B001C80P86,[],"103.990751,30.548097",成都农商银行24小时自助银行(西航港长城路分理处),B001C80NZE,,[],四川省,[],[],2,[],金融保险服务;自动提款机;农村商业银行ATM,160318
德通桥路200-204号,温江区,[],[],3,成都市,[],B001C809X0,[],"103.820842,30.695374",成都农商银行24小时自助银行(天府分理处)(装修中),B001C809WZ,,[],四川省,[],[],2,[],金融保险服务;自动提款机;农村商业银行ATM,160318
文化路1附1号、3,温江区,[],[],3,成都市,[],B001C7U580,[],"103.843166,30.698972",成都农商银行24小时自助银行(温江文化路分理处),B001C7U57Z,,[],四川省,[],[],2,[],金融保险服务;自动提款机;农村商业银行ATM,160318
桂红路,青白江区,[],[],[],成都市,[],B0FFKXAMUL,[],"104.433489,30.695406",成都农商银行24小时自助银行(人和分理处),[],,[],四川省,[],[],2,[],金融保险服务;自动提款机;农村商业银行ATM,160318
天府街中段351-359号,温江区,[],[],[],成都市,[],B0FFKMCOGF,[],"103.796649,30.687627",成都农商银行24小时自助银行(台商分理处),[],,[],四川省,[],[],2,[],金融保险服务;自动提款机;农村商业银行ATM,160318
泉水南街与泉水西街交叉口东50米,邛崃市,[],[],[],成都市,[],B0FFJKHVTG,[],"103.676863,30.398267",成都农商银行24小时自助银行(泉水分理处),[],,[],四川省,[],[],2,[],金融保险服务;自动提款机;农村商业银行ATM,160318
抚琴西路169号-附3-4附近,金牛区,[],[],[],成都市,[],B0FFIPAQXL,[],"104.034370,30.679707",成都农商银行24小时自助银行(抚琴分理处),[],,[],四川省,[],[],2,[],金融保险服务;自动提款机;农村商业银行ATM,160318
洛带古镇三峨街199号中国艺库水街23栋正北方向51米,龙泉驿区,[],[],302,成都市,[],B0FFGILAM9,[],"104.322755,30.637153",成都农商银行24小时自助银行(龙泉驿洛带支行),B001C8XGTQ,,[],四川省,[],[],2,[],金融保险服务;自动提款机;农村商业银行ATM,160318
锦华路一段193号,锦江区,[],[],[],成都市,[],B0FFFCLM3C,[],"104.098999,30.618344",成都农商银行24小时自助银行(锦东分理处),[],,[],四川省,[],[],2,[],金融保险服务;自动提款机;农村商业银行ATM,160318
正因南街西二巷1号,新都区,[],[],[],成都市,[],B0H6YB6LTP,[],"104.187463,30.821343",成都农商银行24小时自助银行(正因街分理处),[],,[],四川省,[],[],2,[],金融保险服务;自动提款机;农村商业银行ATM,160318
天府大道北段8号苏宁广场F1层,武侯区,[],[],201,成都市,[],B0FFLDDQTO,[],"104.066576,30.601931",成都农商银行自动提款机(苏宁广场),B001C8OES6,,[],四川省,[],[],2,[],金融保险服务;自动提款机;自动提款机,160300
安德街道安平东路235号,郫都区,[],[],[],成都市,[],B0FFHFX57P,[],"103.806901,30.864767",成都农商银行24小时自助银行(安平东路),[],,[],四川省,[],[],2,[],金融保险服务;自动提款机;农村商业银行ATM,160318
府兴街15号附2,龙泉驿区,[],[],3,成都市,[],B0FFGILAQ1,[],"104.322765,30.639764",成都农商银行24小时自助银行(府兴街分理处),B001C7VRQU,,[],四川省,[],[],2,[],金融保险服务;自动提款机;农村商业银行ATM,160318
五凤镇小凤街80号,金堂县,[],[],302,成都市,[],B001C8NZOM,[],"104.484024,30.609500",成都农商银行24小时自助银行(金堂五凤分理处),B0FFGQ3K69,,[],四川省,[],[],2,[],金融保险服务;自动提款机;农村商业银行ATM,160318
新南街153号,郫都区,[],[],[],成都市,[],B0FFGO342T,[],"103.879999,30.808998",成都农商银行24小时自助银行(新南街分理处),[],,[],四川省,[],[],2,[],金融保险服务;自动提款机;农村商业银行ATM,160318
汇兴路与聚虹路交叉口东南200米,金牛区,[],[],3,成都市,[],B001C805CR,[],"104.086244,30.791704",成都农商银行24小时自助银行服务(国际商贸城支行),B001C805CQ,,[],四川省,[],[],2,[],金融保险服务;自动提款机;农村商业银行ATM,160318
中和北街151号附近,崇州市,[],[],[],成都市,[],B0FFMFCILM,[],"103.651018,30.541518",成都农商银行24小时自助银行服务,[],,[],四川省,[],[],2,[],金融保险服务;自动提款机;农村商业银行ATM,160318
华新路536号,温江区,[],[],[],成都市,[],B0FFLA82T4,[],"103.883886,30.680079",成都农商银行24小时自助银行服务,[],,[],四川省,[],[],2,[],金融保险服务;自动提款机;农村商业银行ATM,160318
繁川家具大道370-376号附近,新都区,[],[],[],成都市,[],B0FFKZ4P92,[],"104.011209,30.869387",成都农商银行24小时自助银行(外西街分理处),[],,[],四川省,[],[],2,[],金融保险服务;自动提款机;农村商业银行ATM,160318
[],都江堰市,[],[],[],成都市,[],B0G3DZ14AX,[],"103.658315,30.980406",成都农商银行24自助银行(都江堰永丰分理处),[],,[],四川省,[],[],2,[],金融保险服务;自动提款机;农村商业银行ATM,160318
金泉路37号,金牛区,[],[],3,成都市,[],B001C8N1J7,[],"104.010867,30.719654",成都农商银行24小时自助银行(土桥分理处),B0FFGE0SIF,,[],四川省,[],[],2,[],金融保险服务;自动提款机;农村商业银行ATM,160318
西航港街道黄河中路二段159号成都农商银行宿舍,双流区,[],[],[],成都市,[],B0FFL04RX5,[],"103.998931,30.571835",成都农商银行宿舍,[],,[],四川省,[],[],0,[],商务住宅;住宅区;宿舍,120303
科华中路88号附1号,武侯区,[],[],[],成都市,[],B001C80SKW,[],"104.076772,30.614693",成都市农商银行大厦,[],,[],四川省,[],[],0,[],商务住宅;楼宇;商务写字楼,120201
同心北路18号,青白江区,[],[],[],成都市,[],B0FFFV3O0R,[],"104.280228,30.825284",成都农商银行24小时自助银行(同心北路)(暂停营业),[],,[],四川省,[],[],2,[],金融保险服务;自动提款机;农村商业银行ATM,160318
中和街道新下街395-397号,双流区,[],[],[],成都市,[],B001C8OOCO,[],"104.088862,30.548188",成都农村商业银行股份有限公司化龙支行,[],,[],四川省,[],[],2,028-85867039,金融保险服务;金融保险服务机构;金融保险机构,160000
五津东路与瑞新街交叉口北50米,新津区,[],[],101,成都市,[],B0FFHF5BLU,[],"103.814992,30.414905",成都农商银行新津支行(东门),B001C8O4RO,,[],四川省,[],[],2,[],通行设施;临街院门;临街院门,991400
福锦路二段222-226号附近,武侯区,[],[],305,成都市,[],B0FFH8DEVK,[],"103.997286,30.607647",成都农商银行停车场,B001C8O7Z6,地面,[],四川省,[],[],2,[],交通设施服务;停车场;专用停车场,150905
科华中路88号,武侯区,[],[],305,成都市,[],B0FFG778O0,[],"104.076927,30.614388",成都农商银行停车场,B001C80OUW,地下,[],四川省,[],[],2,[],交通设施服务;停车场;公共停车场,150904
一环路西三段184号,金牛区,[],[],305,成都市,[],B0FFGXBISX,[],"104.043320,30.678903",成都农商银行(金牛支行)停车场,B001C7UFFK,地面,[],四川省,[],[],2,[],交通设施服务;停车场;专用停车场,150905
科华中路88号成都农商银行,武侯区,[],[],305,成都市,[],B001C7X7RA,[],"104.076987,30.614627",成都农商银行停车场,B001C80OUW,地面,[],四川省,[],[],2,[],交通设施服务;停车场;公共停车场,150904
华金大道二段525号附1号,青白江区,[],[],[],成都市,[],B0FFKYRI4Q,[],"104.251707,30.884292",成都农商银行贷款服务中心,[],,[],四川省,[],[],2,[],金融保险服务;金融保险服务机构;金融保险机构,160000
合兴路与红光大道交叉口西北50米,郫都区,[],[],101,成都市,[],B0FFJEVF6Y,[],"103.940143,30.774620",成都农商银行红光支行(西南门),B001C80RSX,,[],四川省,[],[],2,[],通行设施;临街院门;临街院门,991400
一环路西三段184号,金牛区,[],[],101,成都市,[],B0FFGFWDWX,[],"104.043440,30.678829",成都农商银行金牛支行(西南门),B001C7UFFK,,[],四川省,[],[],2,[],通行设施;临街院门;临街院正门,991401
福锦路二段222-226号,武侯区,[],[],101,成都市,[],B0FFGFTT52,[],"103.997542,30.607552",成都农商银行簇桥支行(东南门),B001C8O7Z6,,[],四川省,[],[],2,[],通行设施;临街院门;临街院正门,991401
朝阳大道181号,蒲江县,[],[],101,成都市,[],B0FFGN2SZN,[],"103.513348,30.192757",成都农商银行蒲江支行(东南门),B0FFGN2T0U,,[],四川省,[],[],2,[],通行设施;临街院门;临街院门,991400
光华大道一段1666号大公园,青羊区,[],[],[],成都市,[],B0FFFOD8ZJ,[],"103.960684,30.671592",成都农商银行网球活动中心,[],,[],四川省,[],[],0,[],体育休闲服务;运动场馆;网球场,080103
棕树北街与科华中路交叉口西50米,武侯区,[],[],101,成都市,[],B0FFFAB2F0,[],"104.076804,30.615040",成都市农商银行大厦(北门),B001C80SKW,,[],四川省,[],[],2,[],通行设施;临街院门;临街院门,991400
金星巷1,彭州市,[],[],[],成都市,[],B001C8NSQF,[],"103.936121,30.987906",中共成都农村商业银行股份有限公司彭州支行纪律检查委员会,[],,[],四川省,[],[],2,[],政府机构及社会团体;社会团体;社会团体相关|金融保险服务;金融保险服务机构;金融保险机构,130400|160000
新南街153号,郫都区,[],[],101,成都市,[],B0FFGO33E8,[],"103.879978,30.809194",成都农商银行郫县支行(东北门),B0FFIPOVIE,,[],四川省,[],[],2,[],通行设施;临街院门;临街院门,991400
华阳镇华阳大道一段82号,双流区,[],[],[],成都市,[],B001C8OBTF,[],"104.044322,30.511259",成都农商银行(华兴街分理处),[],,[],四川省,[],[],2,028-85621446,金融保险服务;银行;农村商业银行,160121
星辉西路6号,金牛区,[],[],[],成都市,[],B001C7UAN5,[],"104.076721,30.677802",成都农商银行(城隍庙分理处),[],,[],四川省,[],[],2,028-83229034,金融保险服务;银行;农村商业银行,160121
泰北街220-224号,新都区,[],[],[],成都市,[],B0FFF6RDSE,[],"104.232055,30.786826",成都农商银行(新都太兴支行),[],,[],四川省,[],[],2,028-83986996;028-83986125,金融保险服务;银行;农村商业银行,160121
双怀路130号,崇州市,[],[],[],成都市,[],B001C8PLXN,[],"103.731277,30.580516",成都农商银行(崇州大划支行),[],,[],四川省,[],[],2,028-82247561,金融保险服务;银行;农村商业银行,160121
银木街81号,锦江区,[],[],[],成都市,[],B0G304HSU8,[],"104.148730,30.591951",成都农商银行(高店子分理处),[],,[],四川省,[],[],2,[],金融保险服务;银行;农村商业银行,160121
鼓浪屿路205,彭州市,[],[],[],成都市,[],B0FFJ7QUV5,[],"103.830421,31.161862",成都农商银行(彭州通济支行),[],,[],四川省,[],[],2,028-83845266,金融保险服务;银行;农村商业银行,160121
华金大道二段521-525号附1,青白江区,[],[],[],成都市,[],B001C0675O,[],"104.251971,30.884276",成都农商银行(青白江支行),[],,[],四川省,[],[],2,028-83691533;028-83661253,金融保险服务;银行;农村商业银行,160121
华金大道三段159号农科大厦1层,青白江区,[],[],202,成都市,[],B001C8O3HN,[],"104.281322,30.879179",成都农商银行(大同支行),B0FFFWWH9U,,[],四川省,[],[],2,028-83625536,金融保险服务;银行;农村商业银行,160121
正北下街154-178号,双流区,[],[],[],成都市,[],B001C8OBDY,[],"104.066328,30.516393",成都农商银行(天府新区支行),[],,[],四川省,[],[],2,028-81508032,金融保险服务;银行;农村商业银行,160121
辰居路338号,崇州市,[],[],[],成都市,[],B001C05WY7,[],"103.676360,30.639825",成都农商银行(崇州支行辰居路分理处),[],,[],四川省,[],[],2,028-82216256,金融保险服务;银行;农村商业银行,160121
临邛镇凤凰大道616号鼎盛时代广场6楼,邛崃市,[],[],[],成都市,[],B0FFIOY1A6,[],"103.463760,30.400304",成都农商银行(邛崃支行),[],,[],四川省,[],[],2,[],金融保险服务;银行;农村商业银行,160121
林荫街5号附6号华西大厦1层,武侯区,[],[],202,成都市,[],B001C80RR4,[],"104.068031,30.637212",成都农商银行(桂溪支行),B001C06TAT,,[],四川省,[],[],2,028-85436166,金融保险服务;银行;农村商业银行,160121
永安镇太平街24号,双流区,[],[],[],成都市,[],B001C063CP,[],"103.986519,30.408117",成都农商银行(永安支行),[],,[],四川省,[],[],2,028-85681176;028-85682096,金融保险服务;银行;农村商业银行,160121
北大街148-156号,彭州市,[],[],[],成都市,[],B001C0252C,[],"103.942409,30.987257",成都农商银行(天彭支行),[],,[],四川省,[],[],2,028-83873164,金融保险服务;银行;农村商业银行,160121
万安路西段195-207,双流区,[],[],[],成都市,[],B0FFFACFJ9,[],"104.106075,30.486843",成都农商银行(万安支行),[],,[],四川省,[],[],2,028-85748074,金融保险服务;银行;农村商业银行,160121
火神庙路65号附34-37,成华区,[],[],[],成都市,[],B0FFF006Y3,[],"104.171259,30.706229",成都农商银行(龙潭支行),[],,[],四川省,[],[],2,028-84204226,金融保险服务;银行;农村商业银行,160121
五津东路243、249,新津区,[],[],[],成都市,[],B001C8O4RO,[],"103.814656,30.414779",成都农商银行(新津支行),[],,[],四川省,[],[],2,028-82523487,金融保险服务;银行;农村商业银行,160121
羊安镇九龙大道111号,邛崃市,[],[],[],成都市,[],B001C8MTW7,[],"103.702183,30.396667",成都农商银行(羊安支行),[],,[],四川省,[],[],2,028-88751077,金融保险服务;银行;农村商业银行,160121
双荆路308号,成华区,[],[],[],成都市,[],B001C7WDXY,[],"104.082137,30.711122",成都农商银行(园艺支行),[],,[],四川省,[],[],2,028-83145887,金融保险服务;银行;农村商业银行,160121
驭虹路31附1-2,蒲江县,[],[],[],成都市,[],B001C7V5O1,[],"103.512428,30.196935",成都农商银行(鹤山支行),[],,[],四川省,[],[],2,028-88534871,金融保险服务;银行;农村商业银行,160121
聚兴路61(交通委员会行政执法总队九大队西北),都江堰市,[],[],[],成都市,[],B001C060MU,[],"103.682181,30.945682",成都农商银行(聚源支行),[],,[],四川省,[],[],2,028-87261405,金融保险服务;银行;农村商业银行,160121
永康西路227-231号,崇州市,[],[],[],成都市,[],B001C02F1B,[],"103.672405,30.621713",成都农商银行(永康路分理处),[],,[],四川省,[],[],2,028-82279612,金融保险服务;银行;农村商业银行,160121
鹤兴路367-371号,崇州市,[],[],[],成都市,[],B0FFG9ZZOH,[],"103.748619,30.660847",成都农商银行(羊马分理处),[],,[],四川省,[],[],2,028-82252149,金融保险服务;银行;农村商业银行,160121
安民街76-80,郫都区,[],[],[],成都市,[],B001C8S8BI,[],"103.896069,30.798184",成都农商银行(望丛分理处),[],,[],四川省,[],[],2,[],金融保险服务;银行;农村商业银行,160121
青城路77号,都江堰市,[],[],[],成都市,[],B001C8OJRP,[],"103.631289,30.983301",成都农商银行(灌口分理处),[],,[],四川省,[],[],2,028-87200960,金融保险服务;银行;农村商业银行|金融保险服务;银行相关;银行相关,160121|160200
白果街道莲花街124号,金堂县,[],[],[],成都市,[],B001C8OFGN,[],"104.543278,30.666983",成都农商银行(白果分理处),[],,[],四川省,[],[],2,028-84025657,金融保险服务;银行;农村商业银行,160121
府青路76-78号,崇州市,[],[],[],成都市,[],B001C7YK92,[],"103.628545,30.578549",成都农商银行(隆兴分理处),[],,[],四川省,[],[],2,028-82221109,金融保险服务;银行;农村商业银行,160121
太平横街91-95号,大邑县,[],[],[],成都市,[],B001C8UB3N,[],"103.425983,30.533572",成都农商银行(大邑新场支行),[],,[],四川省,[],[],2,028-88353119,金融保险服务;银行;农村商业银行,160121
安仁镇金井社区五组,大邑县,[],[],[],成都市,[],B001C8MRNN,[],"103.605526,30.515017",成都农商银行(大邑安仁支行),[],,[],四川省,[],[],2,028-88315333,金融保险服务;银行;农村商业银行,160121
昭觉寺横路20号附1-2,成华区,[],[],[],成都市,[],B001C80DK7,[],"104.102093,30.702897",成都农商银行(青龙支行营业部),[],,[],四川省,[],[],2,028-83506677;028-83516818,金融保险服务;银行;农村商业银行,160121
煎茶街道柳溪路一段13号,双流区,[],[],[],成都市,[],B001C7YKBV,[],"104.052104,30.374470",成都农商银行(煎茶分理处),[],,[],四川省,[],[],2,028-85699011,金融保险服务;银行;农村商业银行,160121
新兴街道正街和四维街的交叉口附近,双流区,[],[],[],成都市,[],B001C8OFT3,[],"104.148353,30.527862",成都农商银行(新兴支行),[],,[],四川省,[],[],2,028-85600063,金融保险服务;银行;农村商业银行,160121
西河街道白鹤东路66号,龙泉驿区,[],[],[],成都市,[],B001C8MNAK,[],"104.228810,30.655550",成都农商银行(龙泉驿西河支行),[],,[],四川省,[],[],2,028-84891111;028-84821266,金融保险服务;银行;农村商业银行,160121
红光街道成灌路西段2-8号,郫都区,[],[],[],成都市,[],B001C0AJZK,[],"103.893174,30.813436",成都农商银行(西区红光支行),[],,[],四川省,[],[],2,028-87985348;028-87866861,金融保险服务;银行;农村商业银行,160121
柏合街道龙工南路888号附3号,龙泉驿区,[],[],[],成都市,[],B001C8NVS5,[],"104.254553,30.544559",成都农商银行(龙泉支行),[],,[],四川省,[],[],2,028-88432938,金融保险服务;银行;农村商业银行,160121
火井镇康庄路134号,邛崃市,[],[],[],成都市,[],B001C0132D,[],"103.237849,30.381814",成都农商银行(火井支行),[],,[],四川省,[],[],2,028-88731301;028-88731297,金融保险服务;银行;农村商业银行,160121
华新路536号,温江区,[],[],[],成都市,[],B0FFKHK3NA,[],"103.883977,30.680090",成都农商银行(文化路分理处),[],,[],四川省,[],[],2,028-82650344,金融保险服务;银行;农村商业银行,160121
方元路60、62号,新都区,[],[],[],成都市,[],B001C8MG6Z,[],"104.063754,30.761296",成都农商银行(新都大丰支行),[],,[],四川省,[],[],2,028-83911401,金融保险服务;银行;农村商业银行,160121
簇锦南路3号,武侯区,[],[],[],成都市,[],B001C80IQA,[],"103.996383,30.599591",成都农商银行(兴达分理处),[],,[],四川省,[],[],2,028-85010443,金融保险服务;银行;农村商业银行,160121
上阳街454号-458号,都江堰市,[],[],[],成都市,[],B001C80I0T,[],"103.664932,31.023040",成都农商银行(蒲阳开发区支行),[],,[],四川省,[],[],2,028-87234659,金融保险服务;银行;农村商业银行,160121
繁清路95-105号,新都区,[],[],[],成都市,[],B001C7TAFQ,[],"104.012274,30.873962",成都农商银行(新都新繁支行),[],,[],四川省,[],[],2,028-83080154;028-83080405,金融保险服务;银行;农村商业银行,160121
协和大道东50米,彭州市,[],[],[],成都市,[],B0FFFAD7ZK,[],"103.945677,30.945255",成都农商银行(彭州南部新城分理处),[],,[],四川省,[],[],2,028-83707324,金融保险服务;银行;农村商业银行,160121
重庆路高桥B2,都江堰市,[],[],[],成都市,[],B001C8NT2B,[],"103.657965,31.003916",成都农商银行(都江堰上游分理处),[],,[],四川省,[],[],2,028-87201383,金融保险服务;银行;农村商业银行,160121
斑竹园街道柏水村5社成都海宁皮革城内北京路63号,新都区,[],[],[],成都市,[],B001C7U4FS,[],"104.093851,30.818121",成都农商银行(新都柏水分理处),[],,[],四川省,[],[],2,028-83028312,金融保险服务;银行;农村商业银行,160121
玉沿街35附1,都江堰市,[],[],[],成都市,[],B001C7YJQ4,[],"103.708265,30.790525",成都农商银行(都江堰沿江分理处),[],,[],四川省,[],[],2,028-87216172,金融保险服务;银行;农村商业银行,160121
天府街中段351-359号,温江区,[],[],[],成都市,[],B0FFKRTEY2,[],"103.796609,30.687604",成都农商银行(台商分理处),[],,[],四川省,[],[],2,028-82630621,金融保险服务;银行;农村商业银行,160121
玉扬路312号怡和新城F2区,龙泉驿区,[],[],[],成都市,[],B0FFIMETDH,[],"104.261455,30.573969",成都农商银行(怡和新城分理处),[],,[],四川省,[],[],2,028-84890226,金融保险服务;银行;农村商业银行,160121
沙湾路188,金牛区,[],[],[],成都市,[],B0FFFSECQZ,[],"104.051051,30.687840",成都农商银行(沙湾分理处),[],,[],四川省,[],[],2,028-87640572,金融保险服务;银行;农村商业银行,160121
餍硕路5,彭州市,[],[],[],成都市,[],B0FFFACLN4,[],"104.118991,30.940997",成都农商银行(彭州三邑分理处),[],,[],四川省,[],[],2,028-83773178,金融保险服务;银行;农村商业银行,160121
银河路1号6栋附130、131、132,龙泉驿区,[],[],[],成都市,[],B001C8ORGS,[],"104.180020,30.569210",成都农商银行(龙泉驿大面支行),[],,[],四川省,[],[],2,028-84640118,金融保险服务;银行;农村商业银行,160121
都江堰大道134号附1号,都江堰市,[],[],[],成都市,[],B001C7ZWOJ,[],"103.639318,30.989216",成都农商银行(幸福分理处),[],,[],四川省,[],[],2,028-87282735,金融保险服务;银行;农村商业银行,160121
惠丰路34附4号,新津区,[],[],[],成都市,[],B001C07XA2,[],"103.807598,30.413198",成都农商银行(惠丰分理处),[],,[],四川省,[],[],2,028-82556596,金融保险服务;银行;农村商业银行,160121
白头西街和白头东街的交叉口附近,崇州市,[],[],[],成都市,[],B001C06WLL,[],"103.611482,30.615236",成都农商银行(崇州白头分理处),[],,[],四川省,[],[],2,028-82235579,金融保险服务;银行;农村商业银行,160121
羊安街道泉水东街7号,邛崃市,[],[],[],成都市,[],B001C05PQM,[],"103.676771,30.398303",成都农商银行(泉水分理处),[],,[],四川省,[],[],2,028-88758067,金融保险服务;银行;农村商业银行,160121
犀浦街道天府大道1-3号,郫都区,[],[],[],成都市,[],B001C8ORGN,[],"103.973009,30.758109",成都农商银行(西区支行),[],,[],四川省,[],[],2,028-87999565,金融保险服务;银行;农村商业银行,160121
市北街15号,都江堰市,[],[],[],成都市,[],B001C8OPXE,[],"103.621574,31.001117",成都农商银行(瑞莲分理处),[],,[],四川省,[],[],2,028-87115917,金融保险服务;银行;农村商业银行,160121
正福街39附近,大邑县,[],[],[],成都市,[],B001C8OFR9,[],"103.715809,30.449450",成都农商银行(韩场分理处),[],,[],四川省,[],[],2,028-88335768,金融保险服务;银行;农村商业银行,160121
军乐镇军屯路441号,彭州市,[],[],[],成都市,[],B001C7YJYI,[],"103.980641,31.050356",成都农商银行(彭州军乐支行),[],,[],四川省,[],[],2,028-83868177,金融保险服务;银行;农村商业银行,160121
新华路一段30号附近,双流区,[],[],[],成都市,[],B0FFHHB0S7,[],"104.025617,30.307885",成都农商银行(籍田支行),[],,[],四川省,[],[],2,028-85691199,金融保险服务;银行;农村商业银行,160121
寿安镇利民路中段21号,蒲江县,[],[],[],成都市,[],B001C7UY8G,[],"103.627977,30.267907",成都农商银行(寿安支行),[],,[],四川省,[],[],2,028-88678854,金融保险服务;银行;农村商业银行,160121
淮口街道现代大道10号,金堂县,[],[],[],成都市,[],B001C8MKX2,[],"104.548211,30.714656",成都农商银行(金堂淮口支行),[],,[],四川省,[],[],2,028-84150276,金融保险服务;银行;农村商业银行,160121
彭镇交通路三段60号,双流区,[],[],[],成都市,[],B001C8MLOZ,[],"103.875461,30.582989",成都农商银行(双流彭镇支行),[],,[],四川省,[],[],2,028-85850110,金融保险服务;银行;农村商业银行,160121
蜀州中路12-14号,崇州市,[],[],[],成都市,[],B001C7ZYT9,[],"103.669378,30.631602",成都农商银行(崇州崇阳支行),[],,[],四川省,[],[],2,028-82210867,金融保险服务;银行;农村商业银行,160121
东大街下东大街段42-46,锦江区,[],[],[],成都市,[],B001C8OPI4,[],"104.080759,30.650971",成都农商银行(东大街支行),[],,[],四川省,[],[],2,028-85951503,金融保险服务;银行;农村商业银行,160121
东升镇街道办事处龙桥社区,双流区,[],[],[],成都市,[],B001C8084A,[],"103.951343,30.593196",成都农商银行(龙腾分理处),[],,[],四川省,[],[],2,028-85774188,金融保险服务;银行;农村商业银行,160121
武侯大道双楠段22号附2-6号,武侯区,[],[],[],成都市,[],B001C7YPBP,[],"104.020450,30.639561",成都农商银行(商业城支行),[],,[],四川省,[],[],2,028-85080494;028-85077785,金融保险服务;银行;农村商业银行,160121
抚琴西路169号附2-4号,金牛区,[],[],[],成都市,[],B001C7WR1L,[],"104.034351,30.679719",成都农商银行(抚琴分理处),[],,[],四川省,[],[],2,028-87766276;028-87712162,金融保险服务;银行;农村商业银行,160121
东光街道锦华路一段193号,锦江区,[],[],[],成都市,[],B001C7VRPS,[],"104.098994,30.618324",成都农商银行(锦东分理处),[],,[],四川省,[],[],2,028-84410946,金融保险服务;银行;农村商业银行,160121
电子路500-504号,新都区,[],[],[],成都市,[],B001C01F9F,[],"104.161467,30.813596",成都农商银行(新都天元分理处),[],,[],四川省,[],[],2,028-83951382;028-83962508,金融保险服务;银行;农村商业银行,160121
大源北二街17号,武侯区,[],[],[],成都市,[],B001C8ULQM,[],"104.034914,30.555473",成都农商银行(大源分理处),[],,[],四川省,[],[],2,028-85246371,金融保险服务;银行;农村商业银行,160121
唐兴中街61、63号,崇州市,[],[],[],成都市,[],B001C8ML2I,[],"103.782016,30.588296",成都农商银行(江源分理处),[],,[],四川省,[],[],2,028-82240157,金融保险服务;银行;农村商业银行,160121
裕康街和商贸路的交叉口附近,青白江区,[],[],[],成都市,[],B001C7ZYHQ,[],"104.284872,30.772705",成都农商银行(龙王分理处),[],,[],四川省,[],[],2,028-83642428,金融保险服务;银行;农村商业银行,160121
黄甲场镇上街026号,双流区,[],[],[],成都市,[],B001C7YKA8,[],"103.947675,30.493203",成都农商银行(黄甲分理处),[],,[],四川省,[],[],2,028-85789489,金融保险服务;银行;农村商业银行,160121
餮艚值览民街26-44号,彭州市,[],[],[],成都市,[],B001C7VE33,[],"104.113546,30.957468",成都农商银行(彭州蒙阳支行),[],,[],四川省,[],[],2,028-83829333,金融保险服务;银行;农村商业银行,160121
永宁街道永福街37号,温江区,[],[],[],成都市,[],B0FFG2O8TB,[],"103.905594,30.725488",成都农商银行(温江永宁支行),[],,[],四川省,[],[],2,028-82660320,金融保险服务;银行;农村商业银行,160121
商业街附近,金堂县,[],[],[],成都市,[],B001C8OR79,[],"104.631490,30.690030",成都农商银行(高板分理处),[],,[],四川省,[],[],2,028-84913332,金融保险服务;银行;农村商业银行,160121
白沙街255号,双流区,[],[],[],成都市,[],B001C7YJI7,[],"104.154267,30.467865",成都农商银行(白沙分理处),[],,[],四川省,[],[],2,028-85613027,金融保险服务;银行;农村商业银行,160121
岷江大道二段940-948,新津区,[],[],[],成都市,[],B001C8O17Z,[],"103.831850,30.390499",成都农商银行(邓双支行),[],,[],四川省,[],[],2,[],金融保险服务;银行;农村商业银行,160121
迎宾大道一段102号,金堂县,[],[],[],成都市,[],B001C7ZWRV,[],"104.407790,30.851846",成都农商银行(金阳沱源分理处),[],,[],四川省,[],[],2,028-84997563,金融保险服务;银行;农村商业银行,160121
蓉北路一段180-184,新都区,[],[],[],成都市,[],B001C7TA9V,[],"104.055585,30.755243",成都农商银行(蓉北分理处),[],,[],四川省,[],[],2,028-83911262,金融保险服务;银行;农村商业银行,160121
锦绣大道3555号锦江国际花园,锦江区,[],[],[],成都市,[],B0FFK7KV6F,[],"104.131308,30.615531",成都农商银行(三圣支行),[],,[],四川省,[],[],2,[],金融保险服务;银行;农村商业银行,160121
金泉路1340号,金堂县,[],[],[],成都市,[],B0FFFW1JNJ,[],"104.386531,30.848580",成都农商银行(金堂北部湾分理处),[],,[],四川省,[],[],2,028-84014153,金融保险服务;银行;农村商业银行,160121
九江镇九龙工业港元瑞国际家居商场1094-1097号,双流区,[],[],[],成都市,[],B0FFF4QHPK,[],"103.911241,30.633445",成都农商银行(元瑞支行),[],,[],四川省,[],[],2,028-62142908,金融保险服务;银行;农村商业银行,160121
文家场文兴北路2号,青羊区,[],[],[],成都市,[],B001C8N5BV,[],"103.924458,30.698124",成都农商银行(文家支行),[],,[],四川省,[],[],2,028-87071652;028-87073468,金融保险服务;银行;农村商业银行,160121
太平街道长龙街7号,双流区,[],[],[],成都市,[],B001C8MZ5A,[],"104.201258,30.431538",成都农商银行(太平支行),[],,[],四川省,[],[],2,028-85662511,金融保险服务;银行;农村商业银行,160121
唐昌镇南熏路309号,郫都区,[],[],[],成都市,[],B001C8MCLX,[],"103.824526,30.916540",成都农商银行(唐昌支行),[],,[],四川省,[],[],2,028-87801025,金融保险服务;银行;农村商业银行,160121
黄水镇顺河上街2-12号,双流区,[],[],[],成都市,[],B001C7SQCW,[],"103.883351,30.529124",成都农商银行(黄水支行),[],,[],四川省,[],[],2,028-85781211,金融保险服务;银行;农村商业银行,160121
政府街60号,都江堰市,[],[],[],成都市,[],B001C060DE,[],"103.646072,30.842821",成都农商银行(石羊支行),[],,[],四川省,[],[],2,028-87280154,金融保险服务;银行;农村商业银行,160121
马超东路518号汉嘉国际社区23幢1层2-6号,新都区,[],[],202,成都市,[],B001C8O3QT,[],"104.190974,30.807009",成都农商银行(新都汉嘉分理处),B0FFL3F1AH,,[],四川省,[],[],2,028-83005752,金融保险服务;银行;农村商业银行,160121
龙门南街302号,崇州市,[],[],[],成都市,[],B001C8NR2J,[],"103.664490,30.622458",成都农商银行(龙门街分理处),[],,[],四川省,[],[],2,028-82271975,金融保险服务;银行;农村商业银行,160121
富民路南段164-166号,大邑县,[],[],[],成都市,[],B001C7ZZCA,[],"103.525655,30.577681",成都农商银行(大邑五龙分理处),[],,[],四川省,[],[],2,028-88292838,金融保险服务;银行;农村商业银行,160121
西大街265-267号,彭州市,[],[],[],成都市,[],B001C8NS59,[],"103.934819,30.983939",成都农商银行(彭州西大街分理处),[],,[],四川省,[],[],2,028-83880083,金融保险服务;银行;农村商业银行,160121
怀远镇文井街怀远客运站对面,崇州市,[],[],[],成都市,[],B0FFFDYU2N,[],"103.523863,30.745124",成都农商银行(崇州怀远分理处),[],,[],四川省,[],[],2,028-82282537,金融保险服务;银行;农村商业银行,160121
九龙路84-88号,崇州市,[],[],[],成都市,[],B0FFF00BM1,[],"103.684377,30.639047",成都农商银行(崇州安乐分理处),[],,[],四川省,[],[],2,028-82392496,金融保险服务;银行;农村商业银行,160121
大东街89-91号,崇州市,[],[],[],成都市,[],B001C7ZWEB,[],"103.675412,30.628938",成都农商银行(大东街分理处),[],,[],四川省,[],[],2,028-82277046,金融保险服务;银行;农村商业银行,160121
姚渡镇八达路21号,青白江区,[],[],[],成都市,[],B001C8MB60,[],"104.351248,30.823977",成都农商银行(青白江姚渡分理处),[],,[],四川省,[],[],2,028-83670531,金融保险服务;银行;农村商业银行,160121
滨江街道善政路1537号,都江堰市,[],[],[],成都市,[],B001C80JQE,[],"103.658320,30.980427",成都农商银行(都江堰永丰分理处),[],,[],四川省,[],[],2,028-61759037,金融保险服务;银行;农村商业银行,160121
永宁街道政通西路357号,温江区,[],[],[],成都市,[],B001C8R70U,[],"103.854218,30.679601",成都农商银行(温江政通分理处),[],,[],四川省,[],[],2,028-82725006,金融保险服务;银行;农村商业银行,160121
桂花镇丰乐南街45号,彭州市,[],[],[],成都市,[],B001C7U09C,[],"103.767763,31.028407",成都农商银行(丰乐分理处),[],,[],四川省,[],[],2,028-83832175,金融保险服务;银行;农村商业银行,160121
崇双路与风筝街交叉口西南50米,崇州市,[],[],[],成都市,[],B0FFI2IKMK,[],"103.704136,30.606423",成都农商银行(崇州金鸡分理处),[],,[],四川省,[],[],2,028-82390063,金融保险服务;银行;农村商业银行,160121
天府科华路728号,温江区,[],[],[],成都市,[],B0FFH2BHEA,[],"103.818576,30.642230",成都农商银行(金马分理处),[],,[],四川省,[],[],2,028-82781063,金融保险服务;银行;农村商业银行,160121
花桥街道黄渡西街,新津区,[],[],[],成都市,[],B001C8P4LD,[],"103.884032,30.444354",成都农商银行(黄渡分理处),[],,[],四川省,[],[],2,028-82469355,金融保险服务;银行;农村商业银行,160121
来凤路297号,温江区,[],[],[],成都市,[],B001C80IQ8,[],"103.828278,30.700309",成都农商银行(新建分理处),[],,[],四川省,[],[],2,028-82713507,金融保险服务;银行;农村商业银行,160121
蜀州北路300-324号,崇州市,[],[],[],成都市,[],B001C7ZYWN,[],"103.669995,30.641310",成都农商银行(崇州支行营业部),[],,[],四川省,[],[],2,028-82215981,金融保险服务;银行;农村商业银行,160121
凤凰街95号,温江区,[],[],[],成都市,[],B001C7YLJH,[],"103.870498,30.670063",成都农商银行(温江涌泉分理处),[],,[],四川省,[],[],2,028-82600575,金融保险服务;银行;农村商业银行,160121
西平镇明珠路124号,龙泉驿区,[],[],[],成都市,[],B001C7VRRI,[],"104.265836,30.645341",成都农商银行(西平分理处),[],,[],四川省,[],[],2,028-84823399,金融保险服务;银行;农村商业银行,160121
东升镇三强北路三段9号,双流区,[],[],[],成都市,[],B001C7UV0U,[],"103.934350,30.576619",成都农商银行(牧马山分理处),[],,[],四川省,[],[],2,028-85773247,金融保险服务;银行;农村商业银行,160121
东街106-110,大邑县,[],[],[],成都市,[],B001C7UH68,[],"103.524599,30.586302",成都农商银行(东濠沟分理处),[],,[],四川省,[],[],2,028-88291642,金融保险服务;银行;农村商业银行,160121
二环路西3段119号,金牛区,[],[],[],成都市,[],B001C7UG05,[],"104.035824,30.686113",成都农商银行(化成分理处),[],,[],四川省,[],[],2,028-87786532;028-87751276,金融保险服务;银行;农村商业银行,160121
西航港新街264号,双流区,[],[],[],成都市,[],B001C05N2T,[],"104.010975,30.550343",成都农商银行(双流白家分理处),[],,[],四川省,[],[],2,028-85865778,金融保险服务;银行;农村商业银行,160121
城厢镇大南街2号,青白江区,[],[],[],成都市,[],B001C01F22,[],"104.320828,30.854410",成都农商银行(青白江城厢支行),[],,[],四川省,[],[],2,028-83632091,金融保险服务;银行;农村商业银行,160121
南街11号,龙泉驿区,[],[],[],成都市,[],B001C8MSEJ,[],"104.231715,30.652755",成都农商银行(西河南街分理处),[],,[],四川省,[],[],2,028-84893812;028-84891111,金融保险服务;银行;农村商业银行,160121
唐昌镇新胜社区街村竹瓦街70-72号,郫都区,[],[],[],成都市,[],B0FFJF6HZX,[],"103.769949,30.890394",成都农商银行(郫都新胜分理处),[],,[],四川省,[],[],2,028-87997033,金融保险服务;银行;农村商业银行,160121
香榭美邻1期A13-A14号,双流区,[],[],[],成都市,[],B001C80849,[],"103.915263,30.593235",成都农商银行(新城分理处),[],,[],四川省,[],[],2,028-85735306,金融保险服务;银行;农村商业银行,160121
石家碾中路181-199号,青白江区,[],[],[],成都市,[],B001C806DU,[],"104.257819,30.887026",成都农商银行(青白江物流园区支行),[],,[],四川省,[],[],2,028-83665720,金融保险服务;银行;农村商业银行,160121
建设北路三段与二仙桥东路路口处,成华区,[],[],[],成都市,[],B001C7YPIV,[],"104.125297,30.680656",成都农商银行(二仙桥分理处),[],,[],四川省,[],[],2,028-83244608,金融保险服务;银行;农村商业银行,160121
崇平镇府东路58-66号,崇州市,[],[],[],成都市,[],B001C7SQDQ,[],"103.712523,30.689006",成都农商银行(崇平分理处),[],,[],四川省,[],[],2,028-82259225,金融保险服务;银行;农村商业银行,160121
三星镇兰家店村棕榈湖国际社区24幢14-17号,金堂县,[],[],202,成都市,[],B001C8NZTZ,[],"104.448175,30.851160",成都农商银行(金堂棕榈湖分理处),B0FFF8VJ8E,,[],四川省,[],[],2,028-84023018,金融保险服务;银行;农村商业银行,160121
唐安西路93-97号,崇州市,[],[],[],成都市,[],B001C7ZWED,[],"103.675604,30.632254",成都农商银行(蜀城分理处),[],,[],四川省,[],[],2,028-82273051,金融保险服务;银行;农村商业银行,160121
和平街148-150号,温江区,[],[],[],成都市,[],B001C05U6A,[],"103.879723,30.698782",成都农商银行(温江公平支行),[],,[],四川省,[],[],2,028-82650344,金融保险服务;银行;农村商业银行,160121
安德街道云凌村9社静怡苑2幢1单元1层13-20号,郫都区,[],[],[],成都市,[],B0FFGMDBO0,[],"103.862842,30.874688",成都农商银行(新民场支行),[],,[],四川省,[],[],2,028-87975879,金融保险服务;银行;农村商业银行,160121
淮口街道淮口大桥北头,金堂县,[],[],[],成都市,[],B001C8MLI3,[],"104.558859,30.713695",成都农商银行(金堂淮北路分理处),[],,[],四川省,[],[],2,028-84915398,金融保险服务;银行;农村商业银行,160121
黄水镇通河街18-24号,双流区,[],[],[],成都市,[],B0FFFAD4B4,[],"103.839338,30.521201",成都农商银行(杨公分理处),[],,[],四川省,[],[],2,028-85784913,金融保险服务;银行;农村商业银行,160121
黄甲大道一段185,双流区,[],[],[],成都市,[],B001C09S5Q,[],"103.966409,30.534629",成都农商银行(双华分理处),[],,[],四川省,[],[],2,028-85745737,金融保险服务;银行;农村商业银行,160121
兴达路962号附近,温江区,[],[],[],成都市,[],B0FFIMKP4S,[],"103.772322,30.670961",成都农商银行(永盛分理处),[],,[],四川省,[],[],2,028-82620160,金融保险服务;银行;农村商业银行,160121
永兴镇永兴场和平街80号,新津区,[],[],[],成都市,[],B001C7YKB4,[],"103.747411,30.342760",成都农商银行(和平分理处),[],,[],四川省,[],[],2,028-82420308,金融保险服务;银行;农村商业银行,160121
德源南路二段224号,郫都区,[],[],[],成都市,[],B001C807TO,[],"103.845793,30.769871",成都农商银行(郫都德源支行),[],,[],四川省,[],[],2,028-87971880,金融保险服务;银行;农村商业银行,160121
凤凰路与凤祥大道交叉口西北100米,青白江区,[],[],[],成都市,[],B0FFKX2YC8,[],"104.279288,30.886159",成都农商银行(凤凰新城支行),[],,[],四川省,[],[],2,[],金融保险服务;银行;农村商业银行,160121
鸥鹏大道232-236,龙泉驿区,[],[],[],成都市,[],B001C8NVV7,[],"104.272362,30.555702",成都农商银行(酱园街分理处),[],,[],四川省,[],[],2,028-84853993,金融保险服务;银行;农村商业银行,160121
人民北路二段198号附7号,金牛区,[],[],[],成都市,[],B001C7U71I,[],"104.073673,30.691449",成都农商银行(北站分理处),[],,[],四川省,[],[],2,028-83388676,金融保险服务;银行;农村商业银行,160121
花源镇花园街94号,新津区,[],[],[],成都市,[],B001C808DM,[],"103.878749,30.498273",成都农商银行(花园场分理处),[],,[],四川省,[],[],2,028-82482989,金融保险服务;银行;农村商业银行,160121
正街252附近,彭州市,[],[],[],成都市,[],B001C7SR48,[],"104.036015,30.995665",成都农商银行(九尺分理处),[],,[],四川省,[],[],2,028-83800884,金融保险服务;银行;农村商业银行,160121
荆竹中路266-268,成华区,[],[],[],成都市,[],B001C8OTDF,[],"104.105811,30.713678",成都农商银行(白莲分理处),[],,[],四川省,[],[],2,028-83506128;028-83530360,金融保险服务;银行;农村商业银行,160121
合欢树街313号,锦江区,[],[],[],成都市,[],B001C7Y9R3,[],"104.135831,30.606959",成都农商银行(航天立交分理处),[],,[],四川省,[],[],2,028-84776000,金融保险服务;银行;农村商业银行,160121
犀安路999号西南交通大学犀浦校区,郫都区,[],[],[],成都市,[],B001C8MEJW,[],"103.977507,30.767673",成都农商银行(交大分理处),[],,[],四川省,[],[],2,028-87635867,金融保险服务;银行;农村商业银行,160121
朝阳大道181号,蒲江县,[],[],[],成都市,[],B0FFGN2T0U,[],"103.513106,30.192718",成都农商银行(蒲江支行),[],,[],四川省,[],[],2,028-88553642;028-88552927,金融保险服务;银行;农村商业银行,160121
郫都区高新西区天勤路951-959号,郫都区,[],[],[],成都市,[],B001C8MFCX,[],"103.918825,30.800752",成都农商银行(滨河春天分理处),[],,[],四川省,[],[],2,028-87870082,金融保险服务;银行;农村商业银行,160121
高尔夫大街66附近,都江堰市,[],[],[],成都市,[],B001C80D2Y,[],"103.574588,30.849507",成都农商银行(大观分理处),[],,[],四川省,[],[],2,028-87213362,金融保险服务;银行;农村商业银行,160121
天和路68号,武侯区,[],[],[],成都市,[],B0FFHRQ8D6,[],"104.074436,30.599803",成都农商银行(三瓦窑分理处),[],,[],四川省,[],[],2,028-85351117,金融保险服务;银行;农村商业银行,160121
太平街18附4号,新津区,[],[],[],成都市,[],B001C7VRRO,[],"103.784734,30.410589",成都农商银行(新平支行),[],,[],四川省,[],[],2,028-82589944,金融保险服务;银行;农村商业银行,160121
涧槽北街50号,双流区,[],[],[],成都市,[],B0FFF00DZS,[],"103.909550,30.566141",成都农商银行(贵通分理处),[],,[],四川省,[],[],2,028-85824976,金融保险服务;银行;农村商业银行,160121
三江路211-231号,金堂县,[],[],[],成都市,[],B001C8MDSJ,[],"104.436399,30.858786",成都农商银行(金堂三江路支行),[],,[],四川省,[],[],2,028-84983101;028-84984157,金融保险服务;银行;农村商业银行,160121
王泗镇营东街76号,大邑县,[],[],[],成都市,[],B001C05J7C,[],"103.479930,30.517720",成都农商银行(王泗分理处),[],,[],四川省,[],[],2,028-88344153,金融保险服务;银行;农村商业银行,160121
临邛镇棉花街313号,邛崃市,[],[],[],成都市,[],B001C8R856,[],"103.464991,30.418431",成都农商银行(邛崃北坛分理处),[],,[],四川省,[],[],2,[],金融保险服务;银行;农村商业银行,160121
崇阳镇世纪大道隆腾国际鞋材城5栋1、2、3号,崇州市,[],[],[],成都市,[],B001C8NQPG,[],"103.695598,30.616121",成都农商银行(隆腾分理处),[],,[],四川省,[],[],2,028-82188395,金融保险服务;银行;农村商业银行,160121
晋原街道五龙东路344号,大邑县,[],[],[],成都市,[],B001C7ZZ1A,[],"103.535545,30.575696",成都农商银行(大邑富民分理处),[],,[],四川省,[],[],2,028-88220219,金融保险服务;银行;农村商业银行,160121
光华北五路与光华西二路交叉口西北100米,青羊区,[],[],[],成都市,[],B0FFHGF3NU,[],"103.955756,30.674754",成都农商银行(光华分理处),[],,[],四川省,[],[],2,028-86247583,金融保险服务;银行;农村商业银行,160121
棠湖东路二段5-7号,双流区,[],[],[],成都市,[],B001C09RZJ,[],"103.923317,30.571343",成都农商银行(东升分理处),[],,[],四川省,[],[],2,028-85825405,金融保险服务;银行;农村商业银行,160121
都江堰大道207号,都江堰市,[],[],[],成都市,[],B001C09ID7,[],"103.634480,30.991782",成都农商银行(都江堰支行),[],,[],四川省,[],[],2,028-87282653,金融保险服务;银行;农村商业银行,160121
七里香新型社区,郫都区,[],[],[],成都市,[],B0FFJ4BQOR,[],"103.757328,30.857138",成都农商银行,[],,[],四川省,[],[],2,028-87997033,金融保险服务;金融保险服务机构;金融保险机构,160000
幸福路17附2-5号,龙泉驿区,[],[],[],成都市,[],B001C8OFAP,[],"104.308853,30.601658",成都农商银行(同安分理处),[],,[],四川省,[],[],2,028-84836519,金融保险服务;银行;农村商业银行,160121
药王路东段78号,都江堰市,[],[],[],成都市,[],B001C80SUU,[],"103.592667,30.877458",成都农商银行(都江堰青城山支行),[],,[],四川省,[],[],2,028-87288174,金融保险服务;银行;农村商业银行,160121
洪河中路806号,龙泉驿区,[],[],[],成都市,[],B001C7UUHN,[],"104.167912,30.614572",成都农商银行(龙泉驿洪河分理处),[],,[],四川省,[],[],2,028-84634363,金融保险服务;银行;农村商业银行,160121
桑园镇下新街17号,邛崃市,[],[],[],成都市,[],B001C8OOZQ,[],"103.460888,30.474897",成都农商银行(邛崃桑元分理处),[],,[],四川省,[],[],2,028-88701725,金融保险服务;银行;农村商业银行,160121
朗润路239号附48号,金牛区,[],[],[],成都市,[],B001C8O8J7,[],"104.058756,30.732255",成都农商银行(友联分理处),[],,[],四川省,[],[],2,028-83103128,金融保险服务;银行;农村商业银行,160121
转龙镇场镇桂龙街68号,金堂县,[],[],[],成都市,[],B001C7X58U,[],"104.779680,30.687224",成都农商银行(金堂转龙分理处),[],,[],四川省,[],[],2,028-84962662,金融保险服务;银行;农村商业银行,160121
万源大道30号附5-6,新都区,[],[],[],成都市,[],B001C7UGVX,[],"104.270358,30.720480",成都农商银行(新都义和分理处),[],,[],四川省,[],[],2,028-84899232,金融保险服务;银行;农村商业银行,160121
北新大道二段877号成都海宁皮革城F1,新都区,[],[],202,成都市,[],B0FFF4PY0K,[],"104.083636,30.820257",成都农商银行(海宁皮革城分理处),B001C8RHCE,,[],四川省,[],[],2,028-83071953,金融保险服务;银行;农村商业银行,160121
清泉镇古树街,青白江区,[],[],[],成都市,[],B001C7UGYB,[],"104.393857,30.746895",成都农商银行(古树分理处),[],,[],四川省,[],[],2,028-83655017,金融保险服务;银行;农村商业银行,160121
中山路2号附3,双流区,[],[],[],成都市,[],B001C8N4B5,[],"103.967477,30.318527",成都农商银行(黄龙溪分理处),[],,[],四川省,[],[],2,028-85696038;028-85696009,金融保险服务;银行;农村商业银行,160121
石板滩街道正兴街361-365号,新都区,[],[],[],成都市,[],B001C7UGWF,[],"104.273716,30.723353",成都农商银行(石板滩分理处),[],,[],四川省,[],[],2,028-83987259,金融保险服务;银行;农村商业银行,160121
柳林乡新春村柑梓街1段,双流区,[],[],[],成都市,[],B0FFKGEE52,[],"103.859404,30.642642",成都农商银行(柑梓树分理处),[],,[],四川省,[],[],2,028-82687147,金融保险服务;银行;农村商业银行,160121
利民路643号,新都区,[],[],[],成都市,[],B0FFJ9OD2K,[],"104.082848,30.760900",成都农商银行(大丰三元分理处),[],,[],四川省,[],[],2,[],金融保险服务;银行;农村商业银行,160121
[],新都区,[],[],[],成都市,[],B0FFG4MJAW,[],"104.153161,30.894817",成都农商银行(军屯分理处),[],,[],四川省,[],[],2,028-83902037,金融保险服务;银行;农村商业银行,160121
定江路与鸡冠山路交叉口北50米路西附近,崇州市,[],[],[],成都市,[],B0FFFYK5HU,[],"103.523218,30.749241",成都农商银行(崇州何家分理处),[],,[],四川省,[],[],2,028-82282525,金融保险服务;银行;农村商业银行,160121
凉港二路与簇马路三段交叉口南50米,武侯区,[],[],[],成都市,[],B0FFFD8D4R,[],"103.973712,30.587847",成都农商银行(西部鞋都分理处),[],,[],四川省,[],[],2,[],金融保险服务;银行;农村商业银行,160121
龙池西锦小区158号,双流区,[],[],[],成都市,[],B001C8VK18,[],"103.897089,30.658778",成都农商银行(邹家场分理处),[],,[],四川省,[],[],2,028-85750257,金融保险服务;银行;农村商业银行,160121
长顺路四段168号,双流区,[],[],[],成都市,[],B001C80IY7,[],"103.925043,30.560339",成都农商银行(双流广都分理处),[],,[],四川省,[],[],2,028-85830455,金融保险服务;银行;农村商业银行,160121
外南街230-238号,彭州市,[],[],[],成都市,[],B001C804NY,[],"103.943880,30.973202",成都农商银行(外南分理处),[],,[],四川省,[],[],2,028-83707324,金融保险服务;银行;农村商业银行,160121
官仓街道三益桥街10号,金堂县,[],[],[],成都市,[],B001C7X59E,[],"104.419293,30.921980",成都农商银行(金堂官仓分理处),[],,[],四川省,[],[],2,028-84010042,金融保险服务;银行;农村商业银行,160121
文家场文康路78号,青羊区,[],[],[],成都市,[],B001C7U6HN,[],"103.927212,30.699424",成都农商银行(温江芙蓉分理处),[],,[],四川省,[],[],2,028-87079828,金融保险服务;银行;农村商业银行,160121
铁溪路340附近,大邑县,[],[],[],成都市,[],B001C05CSD,[],"103.690101,30.523702",成都农商银行(大邑董场分理处),[],,[],四川省,[],[],2,028-88324993,金融保险服务;银行;农村商业银行,160121
大弯东路与学苑路交汇处,青白江区,[],[],[],成都市,[],B0FFI69ZKV,[],"104.276509,30.877055",成都农商银行(青白江学苑分理处),[],,[],四川省,[],[],2,028-83615768,金融保险服务;银行;农村商业银行,160121
崇阳街道崇庆中路47号,崇州市,[],[],[],成都市,[],B001C80SYK,[],"103.679773,30.624644",成都农商银行(江源路分理处),[],,[],四川省,[],[],2,028-82279610,金融保险服务;银行;农村商业银行,160121
寿安街道政星街118号-128号,温江区,[],[],[],成都市,[],B001C8MFO2,[],"103.752774,30.810853",成都农商银行(吴家场支行),[],,[],四川省,[],[],2,028-82645092,金融保险服务;银行;农村商业银行,160121
正西街193-195号,新都区,[],[],[],成都市,[],B001C7VRRL,[],"104.013951,30.872498",成都农商银行(新都新繁正西街分理处),[],,[],四川省,[],[],2,028-83080154,金融保险服务;银行;农村商业银行,160121
天民路81号,崇州市,[],[],[],成都市,[],B001C7VRQF,[],"103.658432,30.678610",成都农商银行(锦江分理处),[],,[],四川省,[],[],2,028-82396390,金融保险服务;银行;农村商业银行,160121
河滨南路125附16-18,蒲江县,[],[],[],成都市,[],B001C8O1PO,[],"103.505579,30.187326",成都农商银行(蒲江光明分理处),[],,[],四川省,[],[],2,028-88530675,金融保险服务;银行;农村商业银行,160121
九江镇蛟龙工业港明珠电梯3号楼,双流区,[],[],[],成都市,[],B001C8N5PK,[],"103.914631,30.605814",成都农商银行(蛟龙分理处),[],,[],四川省,[],[],2,028-85738336,金融保险服务;银行;农村商业银行,160121
府兴街15号,龙泉驿区,[],[],[],成都市,[],B001C7VRQU,[],"104.322875,30.639792",成都农商银行(府兴街分理处),[],,[],四川省,[],[],2,028-84893683,金融保险服务;银行;农村商业银行,160121
涌泉街179附近,崇州市,[],[],[],成都市,[],B001C8P6UL,[],"103.630689,30.727690",成都农商银行(增福街分理处),[],,[],四川省,[],[],2,028-82262242,金融保险服务;银行;农村商业银行,160121
芳草街道紫杉路2号,武侯区,[],[],[],成都市,[],B001C8MSC3,[],"104.050693,30.614335",成都农商银行(紫荆南路分理处),[],,[],四川省,[],[],2,028-85184812,金融保险服务;银行;农村商业银行,160121
正东上街182号,双流区,[],[],[],成都市,[],B001C7VRQ2,[],"104.058258,30.503451",成都农商银行(华阳正东街分理处),[],,[],四川省,[],[],2,028-85641382;028-85898517,金融保险服务;银行;农村商业银行,160121
桤泉镇中和北街166号,崇州市,[],[],[],成都市,[],B001C7YK91,[],"103.651002,30.541533",成都农商银行(桤泉分理处),[],,[],四川省,[],[],2,028-82229132,金融保险服务;银行;农村商业银行,160121
顺江小区顺源环街18号,郫都区,[],[],[],成都市,[],B0FFFW6854,[],"103.930373,30.740983",成都农商银行(合作支行),[],,[],四川省,[],[],2,028-87876100,金融保险服务;银行;农村商业银行,160121
安仁镇唐场新政府街200号,大邑县,[],[],[],成都市,[],B001C8MPOQ,[],"103.629064,30.485516",成都农商银行(唐场分理处),[],,[],四川省,[],[],2,028-88330160,金融保险服务;银行;农村商业银行,160121
民兴街100,邛崃市,[],[],[],成都市,[],B001C7YK9S,[],"103.660714,30.432617",成都农商银行(冉义分理处),[],,[],四川省,[],[],2,028-88759199,金融保险服务;银行;农村商业银行,160121
新犀路太和街14号(团三路口),郫都区,[],[],[],成都市,[],B001C80MX2,[],"103.982984,30.819403",成都农商银行(团结支行),[],,[],四川省,[],[],2,028-87951164,金融保险服务;银行;农村商业银行,160121
石狮南路8号,彭州市,[],[],[],成都市,[],B001C8MDN2,[],"103.845136,31.142425",成都农商银行(海窝子分理处),[],,[],四川省,[],[],2,[],金融保险服务;银行;农村商业银行,160121
街子镇清明街38号,崇州市,[],[],[],成都市,[],B001C80TOM,[],"103.559673,30.814406",成都农商银行(崇州街子支行),[],,[],四川省,[],[],2,028-82294298,金融保险服务;银行;农村商业银行,160121
佳灵路56号附4号,武侯区,[],[],[],成都市,[],B001C80CGJ,[],"104.017009,30.620667",成都农商银行(太平园分理处),[],,[],四川省,[],[],2,028-85010214,金融保险服务;银行;农村商业银行,160121
外南街29-31号,新都区,[],[],[],成都市,[],B001C7ZY1P,[],"104.162646,30.820522",成都农商银行(外南街分理处),[],,[],四川省,[],[],2,028-83965193,金融保险服务;银行;农村商业银行,160121
东风西街83-85,新都区,[],[],[],成都市,[],B001C7UGWV,[],"104.269548,30.725544",成都农商银行(东风街分理处),[],,[],四川省,[],[],2,028-83985838,金融保险服务;银行;农村商业银行,160121
万春镇生态大道踏水段1895号,温江区,[],[],[],成都市,[],B0HGKZHWVI,[],"103.807884,30.740432",成都农商银行(万春支行),[],,[],四川省,[],[],2,028-82617245,金融保险服务;银行;农村商业银行,160121
空港四路88号,双流区,[],[],[],成都市,[],B0FFG198O5,[],"103.995029,30.518182",成都农商银行(临港支行),[],,[],四川省,[],[],2,028-85840736,金融保险服务;银行;农村商业银行,160121
晋阳路41号,武侯区,[],[],[],成都市,[],B001C80PYQ,[],"104.006309,30.651413",成都农商银行(机投支行),[],,[],四川省,[],[],2,028-87431987;028-87433333,金融保险服务;银行;农村商业银行,160121
羊马街道安阜社区安盛街西段2、4、6号,崇州市,[],[],[],成都市,[],B001C8082Q,[],"103.735788,30.621552",成都农商银行(安阜分理处),[],,[],四川省,[],[],2,028-82250840,金融保险服务;银行;农村商业银行,160121
和盛镇柳下路14-24号,温江区,[],[],[],成都市,[],B001C7ZWW3,[],"103.776769,30.750773",成都农商银行(温江和盛支行),[],,[],四川省,[],[],2,028-82771121,金融保险服务;银行;农村商业银行,160121
新园大道24号附101-102,武侯区,[],[],[],成都市,[],B001C7VRRN,[],"104.035677,30.585128",成都农商银行(新南支行),[],,[],四川省,[],[],2,028-85321836,金融保险服务;银行;农村商业银行,160121
蜀汉路259号附1号,金牛区,[],[],202,成都市,[],B001C05QRE,[],"104.022391,30.687477",成都农商银行(营门口支行),B001C08Y3K,,[],四川省,[],[],2,028-87532136,金融保险服务;银行;农村商业银行,160121
蜀龙街1,双流区,[],[],[],成都市,[],B0FFF00DLS,[],"103.990716,30.548309",成都农商银行(西航港长城路分理处),[],,[],四川省,[],[],2,028-85860610;028-85849677,金融保险服务;银行;农村商业银行,160121
机投正街与永康路交叉口西南100米,武侯区,[],[],202,成都市,[],B0FFGDD2E7,[],"103.981209,30.645266",成都农商银行(机投桥支行),B001C8QJIX,,[],四川省,[],[],2,028-87482461,金融保险服务;银行;农村商业银行,160121
福乐街138,金堂县,[],[],[],成都市,[],B001C06TO4,[],"104.638709,30.826834",成都农商银行(福兴园区支行),[],,[],四川省,[],[],2,028-84944434,金融保险服务;银行;农村商业银行,160121
蒲阳街道和平街1号,都江堰市,[],[],[],成都市,[],B001C8NTBO,[],"103.686444,31.034571",成都农商银行(金凤分理处),[],,[],四川省,[],[],2,028-87287132;028-87282222,金融保险服务;银行;农村商业银行,160121
马家镇升庵中街77号,新都区,[],[],[],成都市,[],B001C7VRQV,[],"104.125517,30.855136",成都农商银行(马家分理处),[],,[],四川省,[],[],2,028-83940069,金融保险服务;银行;农村商业银行,160121
前进镇前兴街26号,邛崃市,[],[],[],成都市,[],B001C05FYV,[],"103.535834,30.402772",成都农商银行(前进分理处),[],,[],四川省,[],[],2,028-88717132,金融保险服务;银行;农村商业银行,160121
武侯大道铁佛段289号亿臣国际酒店1层,武侯区,[],[],202,成都市,[],B001C8OL0P,[],"103.987745,30.602019",成都农商银行(亿臣分理处),B001C90QOD,,[],四川省,[],[],2,028-85016498,金融保险服务;银行;农村商业银行,160121
南熏大道二段1039号,温江区,[],[],[],成都市,[],B001C7ZYOD,[],"103.834179,30.682016",成都农商银行(柳林分理处),[],,[],四川省,[],[],2,028-82637242,金融保险服务;银行;农村商业银行,160121
红牌楼二街61-63号,武侯区,[],[],[],成都市,[],B001C7YJEN,[],"104.022303,30.632544",成都农商银行(红牌楼分理处),[],,[],四川省,[],[],2,028-61811273,金融保险服务;银行;农村商业银行,160121
宏福路104号,青白江区,[],[],[],成都市,[],B001C7VETB,[],"104.335958,30.736982",成都农商银行(洪福分理处),[],,[],四川省,[],[],2,028-83648018,金融保险服务;银行;农村商业银行,160121
龙泰路与商贸街交叉路口往西约50米,青白江区,[],[],[],成都市,[],B0FFKXCJTG,[],"104.283977,30.774131",成都农商银行(惠农微银行),[],,[],四川省,[],[],2,[],金融保险服务;银行相关;银行相关,160200
金花街道办事处草金路81号,武侯区,[],[],[],成都市,[],B001C8O8DU,[],"103.957486,30.637796",成都农商银行(陆坝分理处),[],,[],四川省,[],[],2,028-61510900,金融保险服务;银行;农村商业银行,160121
三金路和商业街的交叉口附近,金堂县,[],[],[],成都市,[],B001C7SQCR,[],"104.593418,30.864872",成都农商银行(金堂长乐分理处),[],,[],四川省,[],[],2,028-84947038,金融保险服务;银行;农村商业银行,160121
中街165号,龙泉驿区,[],[],[],成都市,[],B0FFILXEZR,[],"104.269308,30.560149",成都农商银行(界牌分理处),[],,[],四川省,[],[],2,028-84852841;028-84850931,金融保险服务;银行;农村商业银行,160121
教育街147号,青白江区,[],[],[],成都市,[],B001C7VRQD,[],"104.248247,30.883435",成都农商银行(教育街分理处),[],,[],四川省,[],[],2,028-83695157,金融保险服务;银行;农村商业银行,160121
育英路市民服务中心D区1层,新都区,[],[],[],成都市,[],B0FFK1UNYB,[],"104.180544,30.802931",成都农商银行(新都政务中心分理处),[],,[],四川省,[],[],2,028-89396556,金融保险服务;银行;农村商业银行,160121
草金南路13号,武侯区,[],[],[],成都市,[],B0FFHMWUCH,[],"103.980653,30.648486",成都农商银行(机投北街分理处),[],,[],四川省,[],[],2,028-87481356,金融保险服务;银行;农村商业银行,160121
新繁街道繁川家具大道370-376号,新都区,[],[],[],成都市,[],B001C7U22T,[],"104.011275,30.869422",成都农商银行(新繁外西街分理处),[],,[],四川省,[],[],2,028-83080234,金融保险服务;银行;农村商业银行,160121
正街1,双流区,[],[],[],成都市,[],B0FFF6PMAB,[],"104.150548,30.310092",成都农商银行(三星分理处),[],,[],四川省,[],[],2,028-85660014,金融保险服务;银行;农村商业银行,160121
工业大道西段279-283号,新都区,[],[],[],成都市,[],B0FFFAB7C5,[],"104.151051,30.805492",成都农商银行(新都锦水分理处),[],,[],四川省,[],[],2,028-83966050,金融保险服务;银行;农村商业银行,160121
新兴街道庙山村新富街331号,双流区,[],[],[],成都市,[],B001C8UB4A,[],"104.140568,30.561888",成都农商银行(新兴庙山分理处),[],,[],四川省,[],[],2,028-85606643,金融保险服务;银行;农村商业银行,160121
升平镇升玉南街140-142号,彭州市,[],[],[],成都市,[],B001C8ODXQ,[],"104.019049,31.025648",成都农商银行(彭州升平分理处),[],,[],四川省,[],[],2,028-83805475,金融保险服务;银行;农村商业银行,160121
高山社区6组36,大邑县,[],[],[],成都市,[],B001C8N3PY,[],"103.555979,30.440742",成都农商银行(高山分理处),[],,[],四川省,[],[],2,028-88346073,金融保险服务;银行;农村商业银行,160121
肖家河沿街194-198号,武侯区,[],[],3,成都市,[],B001C80RRP,[],"104.040308,30.631300",成都农商银行(肖家河分理处),B001C7V5J2,,[],四川省,[],[],2,028-85159254,金融保险服务;银行;农村商业银行,160121
崇天路(都崇小区西),都江堰市,[],[],[],成都市,[],B001C7YLHL,[],"103.733341,30.915365",成都农商银行(崇义分理处),[],,[],四川省,[],[],2,028-87286362,金融保险服务;银行;农村商业银行|金融保险服务;银行相关;银行相关,160121|160200
清渔街30号附6-9号,新都区,[],[],[],成都市,[],B001C7U1Q2,[],"104.035910,30.936728",成都农商银行(清流分理处),[],,[],四川省,[],[],2,028-83074437,金融保险服务;银行;农村商业银行,160121
车家桥街1号,都江堰市,[],[],[],成都市,[],B001C7SQCX,[],"103.755337,30.975473",成都农商银行(天马分理处),[],,[],四川省,[],[],2,028-87289239,金融保险服务;银行;农村商业银行,160121
三河大道69号,新都区,[],[],[],成都市,[],B001C01F98,[],"104.134076,30.777371",成都农商银行(新都三河分理处),[],,[],四川省,[],[],2,028-83909083,金融保险服务;银行;农村商业银行,160121
驾虹路和共和路的交叉口附近,都江堰市,[],[],[],成都市,[],B001C8MCIC,[],"103.731405,31.016564",成都农商银行(驾虹分理处),[],,[],四川省,[],[],2,028-87233265,金融保险服务;银行;农村商业银行,160121
竹园大道39-41,新都区,[],[],[],成都市,[],B001C7SQDK,[],"104.065924,30.819486",成都农商银行(斑竹园分理处),[],,[],四川省,[],[],2,028-83988207,金融保险服务;银行;农村商业银行,160121
丹景山街道伍柏村,彭州市,[],[],[],成都市,[],B0FFFEJULW,[],"103.889793,31.090531",成都农商银行(永定分理处),[],,[],四川省,[],[],2,028-83781216,金融保险服务;银行;农村商业银行,160121
丽春街道谭家场社区长庆街44号,彭州市,[],[],[],成都市,[],B0FFFD7F5F,[],"103.811030,30.965414",成都农商银行(庆兴分理处),[],,[],四川省,[],[],2,028-83831038,金融保险服务;银行;农村商业银行,160121
天乡路一段779-783(惠民路460号),温江区,[],[],[],成都市,[],B001C8R6DH,[],"103.866687,30.708749",成都农商银行(惠民分理处),[],,[],四川省,[],[],2,028-82749679,金融保险服务;银行;农村商业银行,160121
寿安街道松华社区新街96号,蒲江县,[],[],[],成都市,[],B001C8QCQL,[],"103.596670,30.291175",成都农商银行(松华分理处),[],,[],四川省,[],[],2,028-88628092,金融保险服务;银行;农村商业银行,160121
燎原乡顺西街70号,崇州市,[],[],[],成都市,[],B001C808B3,[],"103.607303,30.547719",成都农商银行(燎原分理处),[],,[],四川省,[],[],2,028-82227170,金融保险服务;银行;农村商业银行,160121
燎原乡崇德社区净土街50号,崇州市,[],[],[],成都市,[],B001C808B2,[],"103.567270,30.561368",成都农商银行(崇德分理处),[],,[],四川省,[],[],2,028-82220558,金融保险服务;银行;农村商业银行,160121
北街72号(中共三界镇纪律检查委员会北),彭州市,[],[],[],成都市,[],B001C804AE,[],"104.106721,31.025885",成都农商银行(三界分理处),[],,[],四川省,[],[],2,028-83746428,金融保险服务;银行;农村商业银行,160121
新繁街道桥北街127-135号,新都区,[],[],[],成都市,[],B001C7VRQN,[],"103.965037,30.861513",成都农商银行(龙安分理处),[],,[],四川省,[],[],2,028-83001055,金融保险服务;银行;农村商业银行,160121
万兴场上街20附近,龙泉驿区,[],[],[],成都市,[],B001C7UUN6,[],"104.394400,30.647467",成都农商银行(万兴分理处),[],,[],四川省,[],[],2,028-84828429,金融保险服务;银行;农村商业银行,160121
三江路211-213号,金堂县,[],[],[],成都市,[],B001C7U3KC,[],"104.435299,30.855564",成都农商银行(城区分理处),[],,[],四川省,[],[],2,028-84984157,金融保险服务;银行;农村商业银行,160121
古城镇蜀汉南街18号附1号,郫都区,[],[],[],成都市,[],B001C7U1ZJ,[],"103.926447,30.894001",成都农商银行(古城分理处),[],,[],四川省,[],[],2,028-87918893,金融保险服务;银行;农村商业银行,160121
中兴商业街与南街交叉口西50米,都江堰市,[],[],[],成都市,[],B001C7TLVF,[],"103.620924,30.918567",成都农商银行(中兴分理处),[],,[],四川省,[],[],2,028-87211362,金融保险服务;银行;农村商业银行,160121
模范街106号,新津区,[],[],[],成都市,[],B001C09IBZ,[],"103.811659,30.410860",成都农商银行(城关分理处),[],,[],四川省,[],[],2,028-82523049,金融保险服务;银行;农村商业银行,160121
东大街46-50号,彭州市,[],[],[],成都市,[],B001C02528,[],"103.944097,30.983800",成都农商银行(清平分理处),[],,[],四川省,[],[],2,028-83701001,金融保险服务;银行;农村商业银行,160121
大源街48-50号,武侯区,[],[],[],成都市,[],B001C7UWKK,[],"104.033197,30.552426",成都农商银行(双和分理处),[],,[],四川省,[],[],2,028-85343280,金融保险服务;银行;农村商业银行,160121
文庙街16号,邛崃市,[],[],[],成都市,[],B0FFGJ29RE,[],"103.460094,30.406937",成都农商银行(邛崃南环路分理处),[],,[],四川省,[],[],2,[],金融保险服务;银行;农村商业银行,160121
望丛中路1051、1065,郫都区,[],[],202,成都市,[],B0FFKXRVKE,[],"103.898299,30.793277",成都农商银行(郫都支行),B0FFHXBLFA,,[],四川省,[],[],2,028-87927828;028-87885679,金融保险服务;银行;农村商业银行,160121
正西街95,双流区,[],[],[],成都市,[],B001C8OBOX,[],"104.053517,30.506281",成都农商银行(华阳正西街分理处),[],,[],四川省,[],[],2,028-83080154;028-85642733,金融保险服务;银行;农村商业银行,160121
公园路一段11号,龙泉驿区,[],[],[],成都市,[],B001C8NNMY,[],"104.275583,30.561769",成都农商银行(龙泉驿经开区支行),[],,[],四川省,[],[],2,028-84853157,金融保险服务;银行;农村商业银行,160121
晋原街道孟湾东道149-151号,大邑县,[],[],[],成都市,[],B001C7ZYRP,[],"103.532759,30.584678",成都农商银行(大邑孟湾新区分理处),[],,[],四川省,[],[],2,028-88280311,金融保险服务;银行;农村商业银行,160121
一品天下大街399号附14-16号,金牛区,[],[],202,成都市,[],B001C8MJUA,[],"104.028530,30.695615",成都农商银行(茶店子支行),B0FFGABTW3,,[],四川省,[],[],2,028-87533374;028-86798532,金融保险服务;银行;农村商业银行,160121
笼堰西街何师副食店东北方20米,大邑县,[],[],[],成都市,[],B001C06JRU,[],"103.460317,30.557277",成都农商银行(敦义分理处),[],,[],四川省,[],[],2,028-88369397,金融保险服务;银行;农村商业银行,160121
黄河中路二段159号,双流区,[],[],[],成都市,[],B001C01487,[],"103.999034,30.571819",成都农商银行(西港路支行),[],,[],四川省,[],[],2,028-85881302;028-85881028,金融保险服务;银行;农村商业银行,160121
晋吉南路28号附6号,武侯区,[],[],[],成都市,[],B001C80CFF,[],"104.008459,30.638143",成都农商银行(吉福分理处),[],,[],四川省,[],[],2,028-87433808,金融保险服务;银行;农村商业银行,160121
石木路与荷塘路交叉口北150米,新都区,[],[],[],成都市,[],B0FFGBIMYR,[],"104.201044,30.736158",成都农商银行(石木路分理处),[],,[],四川省,[],[],2,[],金融保险服务;银行;农村商业银行,160121
龙锦街62号,龙泉驿区,[],[],[],成都市,[],B0FFFZC80X,[],"104.190691,30.586578",成都农商银行(明乐分理处),[],,[],四川省,[],[],2,028-84812074,金融保险服务;银行;农村商业银行,160121
苏坡中路50号附1号,青羊区,[],[],[],成都市,[],B001C8OCTP,[],"103.985205,30.671350",成都农商银行(中鹏分理处),[],,[],四川省,[],[],2,028-87468682,金融保险服务;银行;农村商业银行,160121
培风路80号17栋1-2-3,青羊区,[],[],202,成都市,[],B001C8O8WS,[],"103.978403,30.664215",成都农商银行(培风分理处),B0FFFPCQTU,,[],四川省,[],[],2,028-87493296,金融保险服务;银行;农村商业银行,160121
玉府街147,都江堰市,[],[],[],成都市,[],B001C80RS5,[],"103.607804,30.972523",成都农商银行(老街分理处),[],,[],四川省,[],[],2,028-87181289,金融保险服务;银行;农村商业银行,160121
宝林镇林秀街93号,邛崃市,[],[],[],成都市,[],B001C808BP,[],"103.500972,30.384025",成都农商银行(宝林分理处),[],,[],四川省,[],[],2,028-88729240;028-83781216,金融保险服务;银行;农村商业银行,160121
汇兴路与聚虹路交叉口东南200米,金牛区,[],[],[],成都市,[],B001C805CQ,[],"104.086144,30.792085",成都农商银行(国际商贸城支行),[],,[],四川省,[],[],2,028-61370152,金融保险服务;银行;农村商业银行,160121
天彭镇朝阳中路300号,彭州市,[],[],[],成都市,[],B001C803ZO,[],"103.952421,30.989327",成都农商银行(西郊分理处),[],,[],四川省,[],[],2,028-86231031,金融保险服务;银行;农村商业银行,160121
长益路146-148号,武侯区,[],[],[],成都市,[],B001C7VRQK,[],"104.025825,30.628175",成都农商银行(科兴分理处),[],,[],四川省,[],[],2,028-85089233,金融保险服务;银行;农村商业银行,160121
斑竹园镇西街24号,新都区,[],[],[],成都市,[],B001C7U256,[],"104.059851,30.849623",成都农商银行(新都竹友分理处),[],,[],四川省,[],[],2,028-83020125,金融保险服务;银行;农村商业银行,160121
南大街349,郫都区,[],[],[],成都市,[],B001C7TNXI,[],"103.880690,30.805033",成都农商银行(郫都郫筒支行),[],,[],四川省,[],[],2,028-87928546;028-87928794,金融保险服务;银行;农村商业银行,160121
上安镇政府街32-42号,大邑县,[],[],[],成都市,[],B001C08L9U,[],"103.608676,30.447887",成都农商银行(上安分理处),[],,[],四川省,[],[],2,028-88330201,金融保险服务;银行;农村商业银行,160121
安德镇两路口上街71,郫都区,[],[],[],成都市,[],B001C06LM9,[],"103.824031,30.852170",成都农商银行(两路口分理处),[],,[],四川省,[],[],2,028-87878896,金融保险服务;银行;农村商业银行,160121
临邛镇白鹤街149号,邛崃市,[],[],[],成都市,[],B001C7VSYU,[],"103.424185,30.415700",成都农商银行(邛崃白合分理处),[],,[],四川省,[],[],2,028-88736651,金融保险服务;银行;农村商业银行,160121
三江街道听江路12-24号,崇州市,[],[],[],成都市,[],B001C8VF1G,[],"103.808122,30.560855",成都农商银行(听江分理处),[],,[],四川省,[],[],2,028-82249149,金融保险服务;银行;农村商业银行,160121
卷洞桥街与邛彭路交叉口西50米,邛崃市,[],[],[],成都市,[],B0FFIIUXHC,[],"103.584169,30.389893",成都农商银行(邛崃支行固驿分理处),[],,[],四川省,[],[],2,[],金融保险服务;银行;农村商业银行,160121
龙潭寺下街,成华区,[],[],[],成都市,[],B001C8OEJ1,[],"104.174075,30.704985",成都农商银行(同仁路分理处),[],,[],四川省,[],[],2,028-84204486,金融保险服务;银行;农村商业银行,160121
正义路910号附近,郫都区,[],[],[],成都市,[],B0HGOAU9JU,[],"104.035915,30.746147",成都农商银行(安靖支行),[],,[],四川省,[],[],2,028-87819001;028-87819695,金融保险服务;银行;农村商业银行,160121
普兴东街26附1,新津区,[],[],[],成都市,[],B0FFL90VXL,[],"103.895880,30.402322",成都农商银行(普兴支行),[],,[],四川省,[],[],2,028-82490828,金融保险服务;银行;农村商业银行,160121
国际商贸城日用品市场1区1-1-7至1-4-7,金牛区,[],[],[],成都市,[],B0FFFEF4EQ,[],"104.082916,30.792240",成都农商银行(聚兴支行),[],,[],四川省,[],[],2,028-62910482,金融保险服务;银行;农村商业银行,160121
玉林西路199号附2号,武侯区,[],[],[],成都市,[],B001C8VB3U,[],"104.050284,30.631035",成都农商银行(玉林支行),[],,[],四川省,[],[],2,028-85358804,金融保险服务;银行;农村商业银行,160121
成佳镇兴成大道67号,蒲江县,[],[],[],成都市,[],B001C8UB49,[],"103.376650,30.172861",成都农商银行(成佳支行),[],,[],四川省,[],[],2,028-88651250,金融保险服务;银行;农村商业银行,160121
站北北街1号,成华区,[],[],[],成都市,[],B001C8O4TR,[],"104.073167,30.709611",成都农商银行(量力支行),[],,[],四川省,[],[],2,028-83118120,金融保险服务;银行;农村商业银行,160121
晨辉路90号,锦江区,[],[],[],成都市,[],B001C7WMGC,[],"104.103084,30.611190",成都农商银行(东光支行),[],,[],四川省,[],[],2,028-85923569,金融保险服务;银行;农村商业银行,160121
卧龙镇龙潭街172号,邛崃市,[],[],[],成都市,[],B001C04D30,[],"103.418805,30.336233",成都农商银行(卧龙支行),[],,[],四川省,[],[],2,028-88787159,金融保险服务;银行;农村商业银行,160121
云龙路111号附3号,成华区,[],[],[],成都市,[],B001C80FI6,[],"104.107429,30.700886",成都农商银行(云龙分理处),[],,[],四川省,[],[],2,028-83517297,金融保险服务;银行;农村商业银行,160121
海科路东段与学海路交叉口万盛地铁D口前行200米,温江区,[],[],[],成都市,[],B0FFK5LTMF,[],"103.816245,30.674443",成都农商银行(温江科技园分理处),[],,[],四川省,[],[],2,[],金融保险服务;银行;农村商业银行,160121
街子古镇金鱼东街108-114,崇州市,[],[],[],成都市,[],B001C8ODKO,[],"103.564823,30.818122",成都农商银行(崇州朝阳路分理处),[],,[],四川省,[],[],2,028-82294080,金融保险服务;银行;农村商业银行,160121
唐昌镇西街二段56-58号,郫都区,[],[],[],成都市,[],B001C8MZZP,[],"103.823965,30.925912",成都农商银行(唐昌西街分理处),[],,[],四川省,[],[],2,028-87869464,金融保险服务;银行;农村商业银行,160121
东环路76-82号,新都区,[],[],[],成都市,[],B001C7VRQ4,[],"104.166383,30.828414",成都农商银行(新都桂湖分理处),[],,[],四川省,[],[],2,028-83973043,金融保险服务;银行;农村商业银行,160121
文化街330-332号,金堂县,[],[],[],成都市,[],B001C7VRQ1,[],"104.557767,30.719599",成都农商银行(金堂公安街分理处),[],,[],四川省,[],[],2,028-84917467,金融保险服务;银行;农村商业银行,160121
泰南街69号,新都区,[],[],[],成都市,[],B001C7U4HJ,[],"104.236975,30.783907",成都农商银行(农南街分理处),[],,[],四川省,[],[],2,028-83986125;028-83986100,金融保险服务;银行;农村商业银行,160121
城厢镇上北街67号,青白江区,[],[],[],成都市,[],B001C7U2IQ,[],"104.319573,30.856193",成都农商银行(青白江上北分理处),[],,[],四川省,[],[],2,028-83632270,金融保险服务;银行;农村商业银行,160121
南郡路48,彭州市,[],[],[],成都市,[],B001C7U08D,[],"103.851203,31.073321",成都农商银行(彭州丹景山分理处),[],,[],四川省,[],[],2,028-83837234,金融保险服务;银行;农村商业银行,160121
安靖镇安靖下街21号,郫都区,[],[],[],成都市,[],B001C7TNQ4,[],"104.019722,30.767492",成都农商银行(安靖下街分理处),[],,[],四川省,[],[],2,028-87814702,金融保险服务;银行;农村商业银行,160121
桂湖东路281号,新都区,[],[],[],成都市,[],B001C7VN3E,[],"104.170793,30.824017",成都农商银行(桂林路分理处营业部),[],,[],四川省,[],[],2,028-83048074,金融保险服务;银行;农村商业银行,160121
大兴场街41号,龙泉驿区,[],[],[],成都市,[],B001C7VDTT,[],"104.376834,30.563478",成都农商银行(龙泉驿怡和新城分理处),[],,[],四川省,[],[],2,[],金融保险服务;银行;农村商业银行,160121
郫筒镇望丛东路198号,郫都区,[],[],[],成都市,[],B001C8OB96,[],"103.899981,30.802917",成都农商银行(郫都红兴支行),[],,[],四川省,[],[],2,028-87910019;028-87910029,金融保险服务;银行;农村商业银行,160121
武科东四路11号附12号,武侯区,[],[],[],成都市,[],B001C80TAH,[],"103.988662,30.635170",成都农商银行(望锦分理处),[],,[],四川省,[],[],2,028-61510675,金融保险服务;银行;农村商业银行,160121
柳街镇场镇,都江堰市,[],[],[],成都市,[],B001C7YK4Q,[],"103.666976,30.785895",成都农商银行(柳街分理处),[],,[],四川省,[],[],2,028-87215781,金融保险服务;银行;农村商业银行,160121
蜀州南路34-40,崇州市,[],[],[],成都市,[],B001C7XMWW,[],"103.668711,30.619780",成都农商银行(蜀州南路支行),[],,[],四川省,[],[],2,028-82272936,金融保险服务;银行;农村商业银行,160121
金丰路6号量力商务大厦1楼,金牛区,[],[],202,成都市,[],B001C7UBF4,[],"104.049668,30.729217",成都农商银行(钢材城支行),B0FFFYTRJ3,,[],四川省,[],[],2,028-61377511,金融保险服务;银行;农村商业银行,160121
茶石路与西岭街交叉口东南50米,龙泉驿区,[],[],[],成都市,[],B0HGKZGV92,[],"104.357578,30.512544",成都农商银行(茶店分理处),[],,[],四川省,[],[],2,028-84810133,金融保险服务;银行;农村商业银行,160121
五津镇吴店街137号,新津区,[],[],[],成都市,[],B0HG47T0I3,[],"103.781893,30.458606",成都农商银行(吴店分理处),[],,[],四川省,[],[],2,028-82430333,金融保险服务;银行;农村商业银行,160121
东街359-365号,邛崃市,[],[],[],成都市,[],B0FFIOYFGG,[],"103.467779,30.411422",成都农商银行(邛崃临邛分理处),[],,[],四川省,[],[],2,028-88793987,金融保险服务;银行;农村商业银行,160121
青城山大道319-附3号附近,都江堰市,[],[],[],成都市,[],B0FFIKMVYP,[],"103.613823,30.963224",成都农商银行(青城山大道辅路),[],,[],四川省,[],[],2,[],金融保险服务;银行;农村商业银行,160121
安西村2组26号,新津区,[],[],[],成都市,[],B0FFHU2O5B,[],"103.746938,30.393924",成都农商银行(安西分理处),[],,[],四川省,[],[],2,028-82450048,金融保险服务;银行;农村商业银行,160121
花水湾温泉南街1栋城市名人酒店管理有限公司1-4,大邑县,[],[],[],成都市,[],B0FFH29EWB,[],"103.260255,30.562754",成都农商银行(大邑花水湾支行),[],,[],四川省,[],[],2,028-88308371,金融保险服务;银行;农村商业银行,160121
锦逸路69号,锦江区,[],[],[],成都市,[],B0FFGHG36P,[],"104.115468,30.590379",成都农商银行(锦城逸景分理处),[],,[],四川省,[],[],2,028-85912420,金融保险服务;银行;农村商业银行,160121
街子镇政广路5号,崇州市,[],[],[],成都市,[],B0FFFOTFKN,[],"103.532441,30.784280",成都农商银行(崇州三郎分理处),[],,[],四川省,[],[],2,028-82295392,金融保险服务;银行;农村商业银行,160121
牡丹大道北三段674-684,彭州市,[],[],[],成都市,[],B0FFFACJ4B,[],"103.944720,31.016074",成都农商银行(彭州石化城支行),[],,[],四川省,[],[],2,028-86237671,金融保险服务;银行;农村商业银行,160121
大桥街116-120号,邛崃市,[],[],[],成都市,[],B001C8VB3A,[],"103.335918,30.345491",成都农商银行(邛崃乐善分理处),[],,[],四川省,[],[],2,028-88781077,金融保险服务;银行;农村商业银行,160121
兴隆街152号,金堂县,[],[],[],成都市,[],B001C8OR8E,[],"104.698874,30.692065",成都农商银行(隆盛分理处),[],,[],四川省,[],[],2,028-84963526,金融保险服务;银行;农村商业银行,160121
051乡道和052乡道的交叉口附近,金堂县,[],[],[],成都市,[],B001C8OJDG,[],"104.749528,30.549890",成都农商银行(金堂双流分理处),[],,[],四川省,[],[],2,028-84976026,金融保险服务;银行;农村商业银行,160121
崇阳街道西桥路,崇州市,[],[],[],成都市,[],B001C8OF88,[],"103.652856,30.629266",成都农商银行(崇州西江分理处),[],,[],四川省,[],[],2,028-82394574,金融保险服务;银行;农村商业银行,160121
方兴南街4号,新津区,[],[],[],成都市,[],B001C8OELQ,[],"103.732526,30.426363",成都农商银行(方兴分理处),[],,[],四川省,[],[],2,028-82459042,金融保险服务;银行;农村商业银行,160121
天乡路一段2461号,温江区,[],[],[],成都市,[],B001C8O20B,[],"103.836266,30.724250",成都农商银行(温江天乡分理处),[],,[],四川省,[],[],2,028-82610120;028-82611403,金融保险服务;银行;农村商业银行,160121
金马街道骑士大道221号,温江区,[],[],[],成都市,[],B001C8O14L,[],"103.805004,30.641292",成都农商银行(温江太极分理处),[],,[],四川省,[],[],2,028-82781005,金融保险服务;银行;农村商业银行,160121
团结街27-31号,彭州市,[],[],[],成都市,[],B001C8NRGP,[],"103.943494,30.989414",成都农商银行(彭州利安分理处),[],,[],四川省,[],[],2,[],金融保险服务;银行;农村商业银行,160121
万兴路236号,新津区,[],[],[],成都市,[],B001C8MRRV,[],"103.814118,30.486097",成都农商银行(兴义分理处),[],,[],四川省,[],[],2,028-82400955,金融保险服务;银行;农村商业银行,160121
金桥镇红石西街30-32号,双流区,[],[],[],成都市,[],B001C8MNKR,[],"103.850813,30.545369",成都农商银行(红石分理处),[],,[],四川省,[],[],2,028-85855075,金融保险服务;银行;农村商业银行,160121
美领事馆科华北路18号,武侯区,[],[],[],成都市,[],B001C80RRN,[],"104.075960,30.631568",成都农商银行(磨子桥分理处),[],,[],四川省,[],[],2,028-85222948;028-85351253,金融保险服务;银行;农村商业银行,160121
洗瓦堰路2-4号,锦江区,[],[],[],成都市,[],B001C80OW0,[],"104.092094,30.603265",成都农商银行(锦华分理处),[],,[],四川省,[],[],2,028-85916580;028-85910122,金融保险服务;银行;农村商业银行,160121
三强西路214-218,双流区,[],[],[],成都市,[],B001C80IXD,[],"103.928045,30.569253",成都农商银行(东升街分理处),[],,[],四川省,[],[],2,[],金融保险服务;银行;农村商业银行,160121
新街120号,新都区,[],[],[],成都市,[],B001C80IW2,[],"104.051779,30.763326",成都农商银行(东街分理处),[],,[],四川省,[],[],2,028-83911457,金融保险服务;银行;农村商业银行,160121
天彭镇团结街151号,彭州市,[],[],[],成都市,[],B001C80C0Z,[],"103.945840,30.992180",成都农商银行(外北分理处),[],,[],四川省,[],[],2,028-83871380,金融保险服务;银行;农村商业银行,160121
德通桥路200-204号,温江区,[],[],[],成都市,[],B001C809WZ,[],"103.820852,30.695366",成都农商银行(温江天府分理处),[],,[],四川省,[],[],2,028-82734362,金融保险服务;银行;农村商业银行,160121
致和街道太清社区中学路66号,彭州市,[],[],[],成都市,[],B001C807Y7,[],"103.915880,30.926602",成都农商银行(太清分理处),[],,[],四川省,[],[],2,[],金融保险服务;银行;农村商业银行,160121
南街72号附1,蒲江县,[],[],[],成都市,[],B001C800JC,[],"103.505150,30.195219",成都农商银行(南桥分理处),[],,[],四川省,[],[],2,028-88531043,金融保险服务;银行;农村商业银行,160121
晋原街道富民路北段103号,大邑县,[],[],[],成都市,[],B001C7ZYRU,[],"103.530844,30.588388",成都农商银行(大邑银屏分理处),[],,[],四川省,[],[],2,028-88222084,金融保险服务;银行;农村商业银行,160121
晋原街道甲子路119号,大邑县,[],[],[],成都市,[],B001C7ZWEH,[],"103.527773,30.582270",成都农商银行(大邑邑城分理处),[],,[],四川省,[],[],2,028-88290408,金融保险服务;银行;农村商业银行,160121
梅花街上段123-125号,大邑县,[],[],[],成都市,[],B001C7YK9D,[],"103.532193,30.488117",成都农商银行(三岔分理处),[],,[],四川省,[],[],2,028-88350244,金融保险服务;银行;农村商业银行,160121
仁和路296号,双流区,[],[],[],成都市,[],B001C7YJ24,[],"104.096775,30.558489",成都农商银行(中和朝阳分理处),[],,[],四川省,[],[],2,028-85618919,金融保险服务;银行;农村商业银行,160121
街子镇双河社区元街北路6-8号,崇州市,[],[],[],成都市,[],B001C7VRR2,[],"103.586003,30.784661",成都农商银行(崇州上元分理处),[],,[],四川省,[],[],2,028-82299366,金融保险服务;银行;农村商业银行,160121
协和街114号,崇州市,[],[],[],成都市,[],B001C7VRQC,[],"103.632471,30.642305",成都农商银行(崇州济协分理处),[],,[],四川省,[],[],2,028-82394076,金融保险服务;银行;农村商业银行,160121
茶园乡新西街21号,邛崃市,[],[],[],成都市,[],B001C7UUS6,[],"103.420772,30.525603",成都农商银行(邛崃茶园分理处),[],,[],四川省,[],[],2,028-88705001,金融保险服务;银行;农村商业银行,160121
平桥场镇,金堂县,[],[],[],成都市,[],B001C7UUOH,[],"104.639146,30.620957",成都农商银行(金堂平桥分理处),[],,[],四川省,[],[],2,028-84956179,金融保险服务;银行;农村商业银行,160121
公议乡场镇中元街7,崇州市,[],[],[],成都市,[],B001C7U524,[],"103.607190,30.707817",成都农商银行(崇州公议分理处),[],,[],四川省,[],[],2,028-82269195,金融保险服务;银行;农村商业银行,160121
翠月湖镇下兴街29号,都江堰市,[],[],[],成都市,[],B001C7U1UH,[],"103.636172,30.885421",成都农商银行(民兴分理处),[],,[],四川省,[],[],2,028-87252582,金融保险服务;银行;农村商业银行,160121
万家北街东段61号,彭州市,[],[],[],成都市,[],B001C7U1HZ,[],"103.991694,30.952878",成都农商银行(彭州万家分理处),[],,[],四川省,[],[],2,028-83735524,金融保险服务;银行;农村商业银行,160121
奎光路474-476号,都江堰市,[],[],[],成都市,[],B001C7U0EB,[],"103.618866,30.979557",成都农商银行(青城桥分理处),[],,[],四川省,[],[],2,028-87270143,金融保险服务;银行;农村商业银行,160121
新华路和隆裕街的交叉口附近,彭州市,[],[],[],成都市,[],B001C7U087,[],"103.870315,31.042770",成都农商银行(彭州隆丰分理处),[],,[],四川省,[],[],2,028-83810551,金融保险服务;银行;农村商业银行,160121
赵家镇阳河街90号,金堂县,[],[],[],成都市,[],B001C7SFYM,[],"104.576605,30.816779",成都农商银行(金堂赵家分理处),[],,[],四川省,[],[],2,028-84942125,金融保险服务;银行;农村商业银行,160121
大弯街道青江东路6-12号,青白江区,[],[],[],成都市,[],B001C09ICS,[],"104.266726,30.876878",成都农商银行(华严分理处),[],,[],四川省,[],[],2,028-83305158,金融保险服务;银行;农村商业银行,160121
柏合街道新街65号,龙泉驿区,[],[],[],成都市,[],B001C09E2J,[],"104.205348,30.503642",成都农商银行(柏合分理处),[],,[],四川省,[],[],2,028-84818020,金融保险服务;银行;农村商业银行,160121
三溪镇花园西街2号,金堂县,[],[],[],成都市,[],B001C06PWN,[],"104.638646,30.759600",成都农商银行(三溪分理处),[],,[],四川省,[],[],2,028-84020145,金融保险服务;银行;农村商业银行,160121
大东街27号附1,邛崃市,[],[],[],成都市,[],B001C06N3G,[],"103.456284,30.390636",成都农商银行(邛崃南河分理处),[],,[],四川省,[],[],2,028-88741189,金融保险服务;银行;农村商业银行,160121
文井街180号,新津区,[],[],[],成都市,[],B001C06CS4,[],"103.757241,30.485287",成都农商银行(文井分理处),[],,[],四川省,[],[],2,028-82438570,金融保险服务;银行;农村商业银行,160121
隆兴街和安出路的交叉口附近,大邑县,[],[],[],成都市,[],B001C055FL,[],"103.294009,30.580972",成都农商银行(大邑江分理处),[],,[],四川省,[],[],2,028-88395108,金融保险服务;银行;农村商业银行,160121
蜚虹路97-107号,邛崃市,[],[],[],成都市,[],B001C01465,[],"103.475433,30.412110",成都农商银行(拱辰分理处),[],,[],四川省,[],[],2,028-88741870,金融保险服务;银行;农村商业银行,160121
西来古镇禹王街41号,蒲江县,[],[],[],成都市,[],B001C8P5MW,[],"103.509819,30.301722",成都农商银行(西来古镇支行),[],,[],四川省,[],[],2,028-88601202,金融保险服务;银行;农村商业银行,160121
科兴路东段580号,温江区,[],[],[],成都市,[],B0FFGLDLVK,[],"103.826546,30.670296",成都农商银行(天府家园分理处),[],,[],四川省,[],[],2,[],金融保险服务;银行;农村商业银行,160121
蒲回路与顺江路交叉口北50米,蒲江县,[],[],[],成都市,[],B001C8O2LX,[],"103.652374,30.298292",成都农商银行(五星分理处),[],,[],四川省,[],[],2,028-88623645,金融保险服务;银行;农村商业银行,160121
云绣乡正街,金堂县,[],[],[],成都市,[],B001C7U4YD,[],"104.415194,30.802356",成都农商银行(云绣分理处),[],,[],四川省,[],[],2,028-84017080,金融保险服务;银行;农村商业银行,160121
二仙桥北二路4号附2号-4,成华区,[],[],[],成都市,[],B001C8NOK0,[],"104.130649,30.682456",成都农商银行(三根香分理处),[],,[],四川省,[],[],2,028-83100162,金融保险服务;银行;农村商业银行,160121
宜城路17号附6,双流区,[],[],[],成都市,[],B001C7UVKF,[],"103.908782,30.501718",成都农商银行(胜利分理处),[],,[],四川省,[],[],2,028-85787093,金融保险服务;银行;农村商业银行,160121
三道堰镇湖广馆巷38号,郫都区,[],[],[],成都市,[],B0HG15T7BU,[],"103.916737,30.867440",成都农商银行(三道堰支行),[],,[],四川省,[],[],2,028-87981698,金融保险服务;银行;农村商业银行,160121
道明镇白塔路108-118号,崇州市,[],[],[],成都市,[],B0FFJ7I7LM,[],"103.602581,30.665949",成都农商银行(崇州道明分理处),[],,[],四川省,[],[],2,028-82230536;028-88395108,金融保险服务;银行;农村商业银行,160121
清泉镇平安路89号,青白江区,[],[],[],成都市,[],B001C7YJR0,[],"104.392948,30.744458",成都农商银行(青白江清泉分理处),[],,[],四川省,[],[],2,028-83655064;028-83655809,金融保险服务;银行;农村商业银行,160121
武阳西路314-318号,新津区,[],[],[],成都市,[],B001C804RW,[],"103.801519,30.414231",成都农商银行(新津水城支行),[],,[],四川省,[],[],2,028-82596104,金融保险服务;银行;农村商业银行,160121
高埂镇桥横东街11号,邛崃市,[],[],[],成都市,[],B001C7YJR4,[],"103.624120,30.402084",成都农商银行(高埂分理处),[],,[],四川省,[],[],2,028-88719063,金融保险服务;银行;农村商业银行,160121
又新镇新乐西街83号,金堂县,[],[],[],成都市,[],B001C7X8H8,[],"104.787304,30.570346",成都农商银行(又新分理处),[],,[],四川省,[],[],2,028-84971365,金融保险服务;银行;农村商业银行,160121
新建街288、290号,邛崃市,[],[],[],成都市,[],B001C7VSYD,[],"103.670865,30.351714",成都农商银行(牟礼分理处),[],,[],四川省,[],[],2,028-88721483,金融保险服务;银行;农村商业银行,160121
金府路777号金府五金机电城,金牛区,[],[],[],成都市,[],B001C7UCPS,[],"104.043237,30.716377",成都农商银行(机电城支行),[],,[],四川省,[],[],2,028-87691251;028-87691527,金融保险服务;银行;农村商业银行,160121
敬忠街64-66号,郫都区,[],[],[],成都市,[],B001C7U1YR,[],"103.864799,30.881392",成都农商银行(郫都支行),[],,[],四川省,[],[],2,[],金融保险服务;银行;农村商业银行,160121
徐兴路69号,都江堰市,[],[],[],成都市,[],B001C7U1V1,[],"103.677376,30.851132",成都农商银行(徐渡分理处),[],,[],四川省,[],[],2,028-87231391,金融保险服务;银行;农村商业银行,160121
上天街高何镇政府斜对面,邛崃市,[],[],[],成都市,[],B001C06RPX,[],"103.159010,30.322741",成都农商银行(高何分理处),[],,[],四川省,[],[],2,028-88738249,金融保险服务;银行;农村商业银行,160121
锦华路三段47-51,双流区,[],[],[],成都市,[],B0FFF00E0K,[],"103.984064,30.577657",成都农商银行(双流金色校园分理处),[],,[],四川省,[],[],2,028-85883818,金融保险服务;银行;农村商业银行,160121
金泉路37号,金牛区,[],[],[],成都市,[],B0FFH8VRK5,[],"104.010871,30.719652",成都农商银行(土桥分理处),[],,[],四川省,[],[],2,028-87502175,金融保险服务;银行;农村商业银行,160121
悦来镇惠通街1-7号、迎宾大道278-288号,大邑县,[],[],[],成都市,[],B001C8ODEW,[],"103.447890,30.618078",成都农商银行(大邑悦来支行),[],,[],四川省,[],[],2,028-88376264,金融保险服务;银行;农村商业银行,160121
武侯大道铁佛段120-122号,武侯区,[],[],[],成都市,[],B001C8O98B,[],"103.987868,30.612385",成都农商银行(铁佛分理处),[],,[],四川省,[],[],2,028-85360012,金融保险服务;银行;农村商业银行,160121
小夫路附近,彭州市,[],[],[],成都市,[],B001C8MD4Q,[],"103.912037,31.189700",成都农商银行(白鹿分理处),[],,[],四川省,[],[],2,028-83770238,金融保险服务;银行;农村商业银行,160121
新乐路139-143号,武侯区,[],[],[],成都市,[],B001C80RRL,[],"104.040455,30.605415",成都农商银行(和达分理处),[],,[],四川省,[],[],2,028-86037263,金融保险服务;银行;农村商业银行,160121
桃蹊路76-78号,成华区,[],[],[],成都市,[],B001C80IQ7,[],"104.108349,30.681515",成都农商银行(桃蹊分理处),[],,[],四川省,[],[],2,028-83252890,金融保险服务;银行;农村商业银行,160121
大林街道中山路138,双流区,[],[],[],成都市,[],B001C807T9,[],"104.122229,30.283283",成都农商银行(大林分理处),[],,[],四川省,[],[],2,028-85690020,金融保险服务;银行;农村商业银行,160121
牟礼镇新街社区塔子街57号,邛崃市,[],[],[],成都市,[],B001C7YKB3,[],"103.650659,30.350202",成都农商银行(战斗分理处),[],,[],四川省,[],[],2,028-88720412;028-88711199,金融保险服务;银行;农村商业银行,160121
桂花镇金桂西街51号,彭州市,[],[],[],成都市,[],B001C7YJX7,[],"103.791305,31.033640",成都农商银行(桂花分理处),[],,[],四川省,[],[],2,028-83832133,金融保险服务;银行;农村商业银行,160121
人和乡人和后街19号,青白江区,[],[],[],成都市,[],B001C7VEVC,[],"104.433350,30.695352",成都农商银行(人和分理处),[],,[],四川省,[],[],2,028-83644160,金融保险服务;银行;农村商业银行,160121
临济镇青华社区(石头)政府街46号,邛崃市,[],[],[],成都市,[],B001C7UY5O,[],"103.324967,30.307749",成都农商银行(石头分理处),[],,[],四川省,[],[],2,028-88785190,金融保险服务;银行;农村商业银行,160121
日新东街37-39,青白江区,[],[],[],成都市,[],B001C7U4W1,[],"104.295173,30.798721",成都农商银行(日新分理处),[],,[],四川省,[],[],2,028-83640463,金融保险服务;银行;农村商业银行,160121
广兴镇场镇,金堂县,[],[],[],成都市,[],B001C7UUPT,[],"104.791714,30.629110",成都农商银行(广兴分理处),[],,[],四川省,[],[],2,028-84030222,金融保险服务;银行;农村商业银行,160121
物流园区物流大道199号,新都区,[],[],[],成都市,[],B001C80L5U,[],"104.133029,30.795519",成都农商银行(新都物流园区分理处),[],,[],四川省,[],[],2,028-83909226,金融保险服务;银行;农村商业银行,160121
福庆路137-139号,青羊区,[],[],[],成都市,[],B001C8O4NP,[],"103.922593,30.673378",成都农商银行(非遗分理处),[],,[],四川省,[],[],2,028-62320850,金融保险服务;银行;农村商业银行,160121
国槐街1000号2栋1层4-6号,锦江区,[],[],[],成都市,[],B001C8NOCB,[],"104.132213,30.610283",成都农商银行(国槐分理处),[],,[],四川省,[],[],2,028-84093060;028-84792964,金融保险服务;银行;农村商业银行,160121
黄土乡康庄街17号,龙泉驿区,[],[],[],成都市,[],B001C7UGW6,[],"104.291087,30.684383",成都农商银行(黄土分理处),[],,[],四川省,[],[],2,028-84897196,金融保险服务;银行;农村商业银行,160121
冯家湾路207号,金牛区,[],[],[],成都市,[],B0GRLUMT20,[],"104.097308,30.762677",成都农商银行(万圣家园分理处),[],,[],四川省,[],[],2,[],金融保险服务;银行;农村商业银行,160121
甘溪镇北街87号,蒲江县,[],[],[],成都市,[],B001C7YKCY,[],"103.351698,30.253366",成都农商银行(甘溪镇分理处),[],,[],四川省,[],[],2,028-88641289,金融保险服务;银行;农村商业银行,160121
东部新区三岔街道湖滨西街69-71号,简阳市,[],[],[],成都市,[],B0HBL5CGNE,[],"104.296297,30.299132",成都农商银行(东部新区支行),[],,[],四川省,[],[],2,[],金融保险服务;银行;农村商业银行,160121
青城山镇盆景路22号,都江堰市,[],[],[],成都市,[],B0FFM7ELQR,[],"103.614511,30.786189",成都农商银行(都江堰安龙分理处),[],,[],四川省,[],[],2,028-87214371,金融保险服务;银行;农村商业银行,160121
华冠路13-34,成华区,[],[],[],成都市,[],B001C8MI0O,[],"104.172641,30.693895",成都农商银行(龙潭总部城分理处),[],,[],四川省,[],[],2,028-62024069,金融保险服务;银行;农村商业银行,160121
万安街622号,温江区,[],[],[],成都市,[],B001C8MCB6,[],"103.710774,30.831095",成都农商银行(温江汪家湾分理处),[],,[],四川省,[],[],2,028-82658172,金融保险服务;银行;农村商业银行,160121
北街7号,彭州市,[],[],[],成都市,[],B001C7VE41,[],"103.938072,31.088037",成都农商银行(彭州葛仙山分理处),[],,[],四川省,[],[],2,028-83866187,金融保险服务;银行;农村商业银行,160121
青江中路83-85号,青白江区,[],[],[],成都市,[],B001C09L4S,[],"104.254708,30.878414",成都农商银行(青白江玉带分理处),[],,[],四川省,[],[],2,[],金融保险服务;银行;农村商业银行,160121
向峨乡场镇,都江堰市,[],[],[],成都市,[],B0FFF4Z89S,[],"103.715190,31.087414",成都农商银行(向峨分理处),[],,[],四川省,[],[],2,028-87263161,金融保险服务;银行;农村商业银行,160121
城厢镇大东街83号,青白江区,[],[],[],成都市,[],B001C8MDJX,[],"104.322161,30.856243",成都农商银行(玉虹分理处),[],,[],四川省,[],[],2,028-83632754,金融保险服务;银行;农村商业银行,160121
石龙上街57-63,都江堰市,[],[],[],成都市,[],B001C8MBXM,[],"103.695053,30.996984",成都农商银行(都江堰胥家支行),[],,[],四川省,[],[],2,028-87224598,金融保险服务;银行;农村商业银行,160121
寿安街道新蒲路中国电信东北,蒲江县,[],[],[],成都市,[],B001C7UY6B,[],"103.590968,30.247889",成都农商银行(寿民分理处),[],,[],四川省,[],[],2,028-88616121,金融保险服务;银行;农村商业银行,160121
新繁街道高宁医院(高宁医院东北),新都区,[],[],[],成都市,[],B001C7U209,[],"103.962358,30.898285",成都农商银行(高宁分理处),[],,[],四川省,[],[],2,028-83072030,金融保险服务;银行;农村商业银行,160121
迎祥街附近,都江堰市,[],[],[],成都市,[],B001C7U1TE,[],"103.689324,30.896938",成都农商银行(祁园分理处),[],,[],四川省,[],[],2,028-87225237,金融保险服务;银行;农村商业银行,160121
临济镇新街139号,邛崃市,[],[],[],成都市,[],B001C0AJTE,[],"103.290614,30.264561",成都农商银行(临济分理处),[],,[],四川省,[],[],2,028-88786105,金融保险服务;银行;农村商业银行,160121
赛云台东一路5-7号,金牛区,[],[],[],成都市,[],B001C09IC2,[],"104.069236,30.702971",成都农商银行(洞子口支行),[],,[],四川省,[],[],2,028-83140472;028-83133180,金融保险服务;银行;农村商业银行,160121
夹关镇北岸街336号,邛崃市,[],[],[],成都市,[],B001C05X1X,[],"103.216268,30.256544",成都农商银行(夹关分理处),[],,[],四川省,[],[],2,028-88789205,金融保险服务;银行;农村商业银行,160121
北湖印象广场5-6号,成华区,[],[],[],成都市,[],B001C8OE40,[],"104.167830,30.716777",成都农商银行(同乐分理处),[],,[],四川省,[],[],2,028-84253274,金融保险服务;银行;农村商业银行,160121
硝矿北街5-7-9,新津区,[],[],[],成都市,[],B001C7YKBN,[],"103.885014,30.379074",成都农商银行(金华分理处),[],,[],四川省,[],[],2,028-82470130,金融保险服务;银行;农村商业银行,160121
蓉北商贸大道二段199号附03号,金牛区,[],[],[],成都市,[],B001C7WMUU,[],"104.058153,30.721283",成都农商银行(文光分理处),[],,[],四川省,[],[],2,028-83112175,金融保险服务;银行;农村商业银行,160121
回龙镇新兴街20-26号,邛崃市,[],[],[],成都市,[],B001C7UY7S,[],"103.685040,30.304044",成都农商银行(回龙分理处),[],,[],四川省,[],[],2,028-88755196,金融保险服务;银行;农村商业银行,160121
