address,adname,biz_ext,biz_type,childtype,cityname,distance,id,importance,location,name,parent,photos,pname,poiweight,shopid,shopinfo,tel,type,typecode
新都大道8号校研发大楼附楼1层,新都区,[],[],[],成都市,[],B001C8MEOV,[],"104.179599,30.820904",中国工商银行(西南石油大学支行),[],[],四川省,[],[],2,028-83045791,金融保险服务;银行;中国工商银行,160105
国宁西路98号,郫都区,[],[],[],成都市,[],B001C06O6K,[],"103.971394,30.759300",中国工商银行(成都犀浦支行),[],[],四川省,[],[],2,028-87851296,金融保险服务;银行;中国工商银行,160105
王贾路18号1栋103、104、105、106号,金牛区,[],[],[],成都市,[],B001C80IK1,[],"104.068811,30.718154",中国工商银行(成都王贾路支行),[],[],四川省,[],[],2,028-83556730;028-83556572,金融保险服务;银行;中国工商银行,160105
大北街4号附1,蒲江县,[],[],[],成都市,[],B001C8MU1C,[],"103.507286,30.196957",中国工商银行(蒲江支行),[],[],四川省,[],[],2,028-88522673;028-88522086;028-95588,金融保险服务;银行;中国工商银行,160105
新河路165号附2,青白江区,[],[],[],成都市,[],B001C8O5I3,[],"104.257901,30.888393",中国工商银行(新河路支行),[],[],四川省,[],[],2,028-83627695,金融保险服务;银行;中国工商银行,160105
马超西路128-132号,新都区,[],[],[],成都市,[],B001C8R6YI,[],"104.170589,30.811929",中国工商银行(马超西路支行),[],[],四川省,[],[],2,028-83968630;028-89397174,金融保险服务;银行;中国工商银行,160105
蜀源路11-17号,青羊区,[],[],[],成都市,[],B001C7VR9K,[],"104.004056,30.677434",中国工商银行(金阳路支行),[],[],四川省,[],[],2,028-81713150;028-81713273,金融保险服务;银行;中国工商银行,160105
正北上街38号,双流区,[],[],[],成都市,[],B001C7YLB2,[],"104.056335,30.506313",中国工商银行(华阳支行),[],[],四川省,[],[],2,028-85642710;028-85642354,金融保险服务;银行;中国工商银行,160105
兴乐北路151号,新都区,[],[],[],成都市,[],B0FFGFC7H7,[],"104.192117,30.810259",中国工商银行(城东支行),[],[],四川省,[],[],2,028-83972814,金融保险服务;银行;中国工商银行,160105
草市街64号,青羊区,[],[],[],成都市,[],B001C0AFUE,[],"104.075560,30.672150",中国工商银行(成都草市支行),[],[],四川省,[],[],2,028-86949130;028-86956055;95588,金融保险服务;银行;中国工商银行,160105
圣灯路155号,成华区,[],[],[],成都市,[],B001C8P62U,[],"104.124231,30.672132",中国工商银行(建设南路支行),[],[],四川省,[],[],2,028-62399137,金融保险服务;银行;中国工商银行,160105
蓉北商贸大道一段111号,金牛区,[],[],[],成都市,[],B001C80J6J,[],"104.063578,30.707944",中国工商银行(蓉北商贸大道支行),[],[],四川省,[],[],2,028-83131796;95588,金融保险服务;银行;中国工商银行,160105
一环路东五段103号中国工商银行大厦,锦江区,[],[],202,成都市,[],B001C7WQX0,[],"104.092873,30.645286",中国工商银行(芷泉支行营业室),B0FFGG7B1Y,[],四川省,[],[],2,95588;028-84441005;028-84442603,金融保险服务;银行;中国工商银行,160105
蜀汉路530号附1-7号,金牛区,[],[],[],成都市,[],B001C80J6K,[],"104.011403,30.694714",中国工商银行(蜀汉路支行),[],[],四川省,[],[],2,028-87522612;028-87542668,金融保险服务;银行;中国工商银行,160105
金府路799号金府国际1期2栋1单元5号,金牛区,[],[],202,成都市,[],B001C8NQFB,[],"104.043497,30.717541",中国工商银行(金府路支行),B0FFFPF3FV,[],四川省,[],[],2,028-87623086;028-87629786,金融保险服务;银行;中国工商银行,160105
何公路28附26号,郫都区,[],[],[],成都市,[],B001C801Y1,[],"103.878656,30.804126",中国工商银行(现代工业港支行),[],[],四川省,[],[],2,028-87921852;028-87921878;95588,金融保险服务;银行;中国工商银行,160105
芳草街28号3楼,武侯区,[],[],[],成都市,[],B0FFFABHF8,[],"104.051536,30.626742",中国工商银行(成都高新支行),[],[],四川省,[],[],2,028-85176086,金融保险服务;银行;中国工商银行,160105
犀浦街道兴业街南段168号,郫都区,[],[],[],成都市,[],B001C0AFV7,[],"103.971206,30.749342",中国工商银行(创业路支行),[],[],四川省,[],[],2,028-87848761;028-87848763;95588,金融保险服务;银行;中国工商银行,160105
望江路1号1幢附2号,武侯区,[],[],202,成都市,[],B001C7UQEV,[],"104.088749,30.639021",中国工商银行(培根路支行),B0FFFPBBWL,[],四川省,[],[],2,028-85292242;028-95588,金融保险服务;银行;中国工商银行,160105
滨江西路12号,锦江区,[],[],[],成都市,[],B001C7WQW2,[],"104.061862,30.647638",中国工商银行(滨江支行),[],[],四川省,[],[],2,028-86110182;028-86113536,金融保险服务;银行;中国工商银行,160105
大丰街道崇义社区文化街15-51号丰怡阳光A区1幢1层2号,新都区,[],[],[],成都市,[],B001C91Y83,[],"104.052503,30.763365",中国工商银行(成都大丰支行),[],[],四川省,[],[],2,028-83919506,金融保险服务;银行;中国工商银行,160105
槐树街51号附6-8号,青羊区,[],[],[],成都市,[],B001C7YQ9U,[],"104.052109,30.670051",中国工商银行(槐树街分理处),[],[],四川省,[],[],2,028-86980016;028-86980017,金融保险服务;银行;中国工商银行,160105
东升镇丛桂街71号,双流区,[],[],[],成都市,[],B001C7VR9W,[],"103.925345,30.573879",中国工商银行(双流支行),[],[],四川省,[],[],2,028-85822703;95588,金融保险服务;银行;中国工商银行,160105
鸥鹏大道9号附1号,龙泉驿区,[],[],[],成都市,[],B001C7VRAQ,[],"104.268950,30.559758",中国工商银行(龙泉广场支行),[],[],四川省,[],[],2,028-84851209,金融保险服务;银行;中国工商银行,160105
双建路83号,成华区,[],[],[],成都市,[],B001C8OL4L,[],"104.114657,30.680373",中国工商银行(成都双建路分理处),[],[],四川省,[],[],2,028-61301537;95588,金融保险服务;银行;中国工商银行,160105
雄州新城3号花园天津路口,简阳市,[],[],[],成都市,[],B0FFFRWJ49,[],"104.543008,30.408759",中国工商银行(天津路支行),[],[],四川省,[],[],2,028-27235353,金融保险服务;银行;中国工商银行,160105
群星路42-48号,金牛区,[],[],[],成都市,[],B001C8VK8U,[],"104.053913,30.703248",中国工商银行(成都群星路支行),[],[],四川省,[],[],2,028-87607902,金融保险服务;银行;中国工商银行,160105
青龙街25号,青羊区,[],[],[],成都市,[],B001C7WQVV,[],"104.064855,30.669834",中国工商银行(成都青龙支行),[],[],四川省,[],[],2,028-86639040;028-95588;028-86631347,金融保险服务;银行;中国工商银行,160105
驷马桥三路299号,成华区,[],[],[],成都市,[],B0GK4ZO9R6,[],"104.098869,30.691081",中国工商银行(高车支行),[],[],四川省,[],[],2,028-61283765;028-61284628,金融保险服务;银行;中国工商银行,160105
滨江路一段29号,金堂县,[],[],[],成都市,[],B001C0AFU8,[],"104.428770,30.849229",中国工商银行(滨江路支行),[],[],四川省,[],[],2,028-84932308;028-95588;028-84996628,金融保险服务;银行;中国工商银行,160105
二仙桥东3路1号成都理工大学-学术交流中心营业用房,成华区,[],[],[],成都市,[],B0FFIH7YEV,[],"104.138848,30.673549",中国工商银行(成都理工大学支行),[],[],四川省,[],[],2,028-84079415;95588,金融保险服务;银行;中国工商银行,160105
经天路4号14幢附58-59号,锦江区,[],[],[],成都市,[],B001C7UREL,[],"104.102595,30.602811",中国工商银行(经天路支行),[],[],四川省,[],[],2,028-85918055;028-85915133;95588,金融保险服务;银行;中国工商银行,160105
朝阳路254号,双流区,[],[],[],成都市,[],B001C0AFZH,[],"104.094577,30.559955",中国工商银行(中和支行),[],[],四川省,[],[],2,028-81503357;95588,金融保险服务;银行;中国工商银行,160105
东升镇三强东路一段9、11、13号,双流区,[],[],[],成都市,[],B001C7YOA8,[],"103.929003,30.568981",中国工商银行(三强东路支行),[],[],四川省,[],[],2,028-85810392,金融保险服务;银行;中国工商银行,160105
古柏路53号附3号,金牛区,[],[],[],成都市,[],B001C7UBEN,[],"104.054081,30.732721",中国工商银行(建机厂支行),[],[],四川省,[],[],2,028-83131659;028-83132025;95588,金融保险服务;银行;中国工商银行,160105
成龙大道二段888号总部经济港A区1幢1层,龙泉驿区,[],[],[],成都市,[],B001C8R8WI,[],"104.185636,30.566751",中国工商银行(成都总部经济港支行),[],[],四川省,[],[],2,028-65084336;028-65084338,金融保险服务;银行;中国工商银行,160105
龙泉东街68号,龙泉驿区,[],[],[],成都市,[],B001C7UWVN,[],"104.274030,30.557168",中国工商银行(龙泉支行营业室),[],[],四川省,[],[],2,028-84851367;028-84852345;95588,金融保险服务;银行;中国工商银行,160105
东华一路37号,成华区,[],[],[],成都市,[],B0FFGFV64M,[],"104.140157,30.681534",中国工商银行(机车厂分理处),[],[],四川省,[],[],2,028-84127679,金融保险服务;银行;中国工商银行,160105
盛兴路256号,金牛区,[],[],202,成都市,[],B001C93JL7,[],"104.013011,30.730933",中国工商银行(盛兴路支行),B001C93JL5,[],四川省,[],[],2,028-87509085;028-87507705,金融保险服务;银行;中国工商银行,160105
大学路2号附1号,武侯区,[],[],202,成都市,[],B0FFF644GL,[],"104.072775,30.642866",中国工商银行(大学路分理处),B0FFGBJ0EH,[],四川省,[],[],2,028-85449484;028-85435803;95588,金融保险服务;银行;中国工商银行,160105
淮口街道锦淮商业街1-103号3栋1层1号、19号,金堂县,[],[],[],成都市,[],B0FFF2FIXF,[],"104.565615,30.712148",中国工商银行(金堂淮洲支行),[],[],四川省,[],[],2,[],金融保险服务;银行;中国工商银行,160105
太升南路288号,青羊区,[],[],202,成都市,[],B001C8MIWC,[],"104.078781,30.667172",中国工商银行(太升南路分理处),B0FFGA4KLO,[],四川省,[],[],2,028-86629028;95588,金融保险服务;银行;中国工商银行,160105
滨河路三段7-9(华阳镇华兴大道府河音乐花园2号),双流区,[],[],[],成都市,[],B001C7UW2R,[],"104.056159,30.523714",中国工商银行(府河音乐花园支行),[],[],四川省,[],[],2,028-81505838;95588,金融保险服务;银行;中国工商银行,160105
昭觉寺南路276号,成华区,[],[],[],成都市,[],B0FFFVEQ5H,[],"104.104426,30.713866",中国工商银行(昭觉南路支行),[],[],四川省,[],[],2,028-83521057,金融保险服务;银行;中国工商银行,160105
安靖镇正义路998号,金牛区,[],[],[],成都市,[],B0FFGJ16T4,[],"104.037589,30.744436",中国工商银行(安靖分理处),[],[],四川省,[],[],2,028-87956696;028-64160495,金融保险服务;银行;中国工商银行,160105
东升镇白河路三段32号,双流区,[],[],[],成都市,[],B001C7UVL0,[],"103.911546,30.568018",中国工商银行(白河路支行),[],[],四川省,[],[],2,028-85803736;95588,金融保险服务;银行;中国工商银行,160105
双庆路8号万象城L1层198号,成华区,[],[],201,成都市,[],B0FFGR7H5F,[],"104.117012,30.649793",中国工商银行(成都万象城支行),B001C8O6UD,[],四川省,[],[],2,028-62399182;028-84450523,金融保险服务;银行;中国工商银行,160105
玉双路5-34号,成华区,[],[],[],成都市,[],B0FFFAAZ9F,[],"104.094552,30.655505",中国工商银行(玉双路支行),[],[],四川省,[],[],2,028-84325579,金融保险服务;银行;中国工商银行,160105
二环路北一段85号附20-26号,金牛区,[],[],[],成都市,[],B001C80FA2,[],"104.044764,30.694059",中国工商银行(二环路北一段支行),[],[],四川省,[],[],2,028-61669523,金融保险服务;银行;中国工商银行,160105
长顺下街1-9号,青羊区,[],[],[],成都市,[],B001C0AFYP,[],"104.056160,30.669630",中国工商银行(西马棚分理处),[],[],四川省,[],[],2,028-86693621;95588,金融保险服务;银行;中国工商银行,160105
锦尚西三路,武侯区,[],[],[],成都市,[],B0G271F552,[],"104.041709,30.579236",中国工商银行ATM,[],[],四川省,[],[],2,[],金融保险服务;自动提款机;中国工商银行ATM,160302
驷马桥三路299号,成华区,[],[],[],成都市,[],B0G23CD0R0,[],"104.098978,30.691022",中国工商银行24小时自助银行(成都高车支行),[],[],四川省,[],[],2,[],金融保险服务;自动提款机;中国工商银行ATM,160302
[],武侯区,[],[],[],成都市,[],B0G1371WTK,[],"104.038599,30.551467",中国工商银24小时自助银行,[],[],四川省,[],[],2,[],金融保险服务;自动提款机;中国工商银行ATM,160302
望丛中路与望东路交叉路口往东南约150米,郫都区,[],[],[],成都市,[],B0G10ADRIE,[],"103.892178,30.797001",中国工商银行24小时自助银行,[],[],四川省,[],[],2,[],金融保险服务;自动提款机;中国工商银行ATM,160302
西河街道黄泥堰路577号馨竹苑小区临街商铺7栋附116号,龙泉驿区,[],[],[],成都市,[],B0FFMDSVUN,[],"104.250168,30.643291",中国工商银行24小时自助银行(西河支行),[],[],四川省,[],[],2,[],金融保险服务;自动提款机;中国工商银行ATM,160302
锦华路三段(生态公益幼儿园南侧约250米),锦江区,[],[],[],成都市,[],B0FFM349S6,[],"104.096443,30.583162",中国工商银行24小时自助银行,[],[],四川省,[],[],2,[],金融保险服务;自动提款机;中国工商银行ATM,160302
天府一街380号,武侯区,[],[],[],成都市,[],B0FFLIEDW6,[],"104.056296,30.560808",中国工商银行24小时自助银行(天府一街支行),[],[],四川省,[],[],2,[],金融保险服务;自动提款机;中国工商银行ATM,160302
朝阳大道130附4,蒲江县,[],[],[],成都市,[],B0FFLEJ6X1,[],"103.512173,30.191581",中国工商银行24小时自助银行,[],[],四川省,[],[],2,[],金融保险服务;自动提款机;中国工商银行ATM,160302
兴业北街24号,郫都区,[],[],[],成都市,[],B0FFL82WHD,[],"103.978288,30.754299",中国工商银行24小时自助银行,[],[],四川省,[],[],2,[],金融保险服务;自动提款机;中国工商银行ATM,160302
湖畔路西段718号西北方向190米,双流区,[],[],[],成都市,[],B0FFL3S0NG,[],"104.074462,30.395569",中国工商银行24小时自助银行(科学城支行),[],[],四川省,[],[],2,[],金融保险服务;自动提款机;中国工商银行ATM,160302
通汇街219号,锦江区,[],[],[],成都市,[],B0FFL3EF0V,[],"104.114643,30.638075",中国工商银行24小时自助银行(通汇街支行),[],[],四川省,[],[],2,[],金融保险服务;自动提款机;中国工商银行ATM,160302
文家一巷2南70米,新都区,[],[],[],成都市,[],B0FFL0Z13M,[],"104.170330,30.827101",中国工商银行24小时自助银行,[],[],四川省,[],[],2,[],金融保险服务;自动提款机;中国工商银行ATM,160302
通幽巷,新津区,[],[],[],成都市,[],B0FFL0WXJU,[],"103.815007,30.484367",中国工商银行24小时自助银行,[],[],四川省,[],[],2,[],金融保险服务;自动提款机;中国工商银行ATM,160302
东风西街87西北60米,新都区,[],[],[],成都市,[],B0FFKZWC64,[],"104.268558,30.725164",中国工商银行24小时自助银行,[],[],四川省,[],[],2,[],金融保险服务;自动提款机;中国工商银行ATM,160302
利民路529号附近,新都区,[],[],[],成都市,[],B0FFKZQ5PL,[],"104.082671,30.756950",中国工商银行24小时自助银行(利民路支行),[],[],四川省,[],[],2,[],金融保险服务;自动提款机;中国工商银行ATM,160302
[],武侯区,[],[],[],成都市,[],B0FFKZM0GU,[],"104.037712,30.599396",中国工商银行(成都高新南三环路五段自助银行),[],[],四川省,[],[],2,[],金融保险服务;自动提款机;中国工商银行ATM,160302
团葛路东150米东升街道双巷村党支部附近,双流区,[],[],[],成都市,[],B0FFKYT2Q8,[],"103.893568,30.594767",中国工商银行24小时自助银行,[],[],四川省,[],[],2,[],金融保险服务;自动提款机;中国工商银行ATM,160302
凤凰大道620号,邛崃市,[],[],[],成都市,[],B0FFKXV9AD,[],"103.463303,30.400105",中国工商银行24小时自助银行(东星支行),[],[],四川省,[],[],2,[],金融保险服务;自动提款机;中国工商银行ATM,160302
协和路216号,彭州市,[],[],[],成都市,[],B0FFKXV4IT,[],"103.945202,30.932882",中国工商银行24小时自助银行,[],[],四川省,[],[],2,[],金融保险服务;自动提款机;中国工商银行ATM,160302
朝阳大道花都丽景2栋1单元1楼20-23号,蒲江县,[],[],[],成都市,[],B0FFKXGNN8,[],"103.522726,30.198106",中国工商银行24小时自助银行(朝阳大道支行),[],[],四川省,[],[],2,[],金融保险服务;自动提款机;中国工商银行ATM,160302
滨江路南二段129号附近,崇州市,[],[],[],成都市,[],B0FFKXAMIR,[],"103.660887,30.619567",中国工商银行24小时自助银行,[],[],四川省,[],[],2,[],金融保险服务;自动提款机;中国工商银行ATM,160302
柳南四路与柳浪湾北二街交叉口东南50米,温江区,[],[],[],成都市,[],B0FFKWHGHV,[],"103.828850,30.684561",中国工商银行24小时自助银行,[],[],四川省,[],[],2,[],金融保险服务;自动提款机;中国工商银行ATM,160302
南熏大道二段857号附近,温江区,[],[],[],成都市,[],B0FFKWG7NK,[],"103.837826,30.683233",中国工商银行24小时自助银行(两河路支行),[],[],四川省,[],[],2,[],金融保险服务;自动提款机;中国工商银行ATM,160302
南华路1698号附近,武侯区,[],[],[],成都市,[],B0FFKW4GYV,[],"104.037374,30.555226",中国工商银行24小时自助银行(盛邦街支行),[],[],四川省,[],[],2,[],金融保险服务;自动提款机;中国工商银行ATM,160302
椿树街与玫瑰街交叉口西南50米,锦江区,[],[],[],成都市,[],B0FFKVY3SH,[],"104.154513,30.602127",中国工商银行24小时自助银行(玫瑰街支行),[],[],四川省,[],[],2,[],金融保险服务;自动提款机;中国工商银行ATM,160302
马鞍东路17号-附6号南90米,金牛区,[],[],[],成都市,[],B0FFKVX8QQ,[],"104.087778,30.675138",中国工商银行24小时自助银行,[],[],四川省,[],[],2,[],金融保险服务;自动提款机;中国工商银行ATM,160302
都江堰大道三段与彩虹大道南段交叉路口往东南约100米,都江堰市,[],[],[],成都市,[],B0FFKTZKVU,[],"103.656596,30.985582",中国工商银行24小时自助银行,[],[],四川省,[],[],2,[],金融保险服务;自动提款机;中国工商银行ATM,160302
和美路与红星路南延线交叉口北100米,双流区,[],[],[],成都市,[],B0FFKODG4T,[],"104.089453,30.547440",中国工商银行ATM(和美路支行),[],[],四川省,[],[],2,[],金融保险服务;自动提款机;中国工商银行ATM,160302
万顺路一段289号附近,双流区,[],[],[],成都市,[],B0FFKMKPPJ,[],"104.026109,30.491655",中国工商银行24小时自助银行(顺兴路支行),[],[],四川省,[],[],2,[],金融保险服务;自动提款机;中国工商银行ATM,160302
宝峰路76附2,新津区,[],[],[],成都市,[],B0FFK1UFCA,[],"103.887253,30.381006",中国工商银行24小时自助银行,[],[],四川省,[],[],2,[],金融保险服务;自动提款机;中国工商银行ATM,160302
[],邛崃市,[],[],[],成都市,[],B0FFK0OPAO,[],"103.460912,30.410828",中国工商银行24小时自助银行,[],[],四川省,[],[],2,[],金融保险服务;自动提款机;中国工商银行ATM,160302
凤凰北大街619号皇冠假日酒店内,温江区,[],[],[],成都市,[],B0FFJ15R66,[],"103.889989,30.685665",中国工商银行自助银行,[],[],四川省,[],[],2,[],金融保险服务;自动提款机;中国工商银行ATM,160302
菁蓉镇大禹东街66号创客服务中心一楼,郫都区,[],[],[],成都市,[],B0FFIXKIUZ,[],"103.861540,30.781272",中国工商银行自助银行,[],[],四川省,[],[],2,[],金融保险服务;自动提款机;中国工商银行ATM,160302
新平镇龙泰路10号,新津区,[],[],[],成都市,[],B0FFIXKI7C,[],"103.780110,30.408924",中国工商银行24小时自助银行,[],[],四川省,[],[],2,[],金融保险服务;自动提款机;中国工商银行ATM,160302
四川省东街187号附近,邛崃市,[],[],[],成都市,[],B0FFIOYFF5,[],"103.465555,30.412063",中国工商银行24小时自助银行(东街),[],[],四川省,[],[],2,[],金融保险服务;自动提款机;中国工商银行ATM,160302
青城山镇豪生路33号青城(豪生)国际大酒店大厅,都江堰市,[],[],[],成都市,[],B0FFI9SYBU,[],"103.599471,30.894520",中国工商银行24小时自助银行(成都都江堰青城豪生国际酒店),[],[],四川省,[],[],2,[],金融保险服务;自动提款机;中国工商银行ATM,160302
东街与东街一巷交叉口北50米,新都区,[],[],[],成都市,[],B0FFHD7DQ6,[],"104.161409,30.827058",中国工商银行24小时自助银行,[],[],四川省,[],[],2,[],金融保险服务;自动提款机;中国工商银行ATM,160302
西芯大道18号东电中央研究院1楼大厅,郫都区,[],[],[],成都市,[],B0FFGSTD7N,[],"103.962497,30.742021",中国工商银行自助银行(成都青龙东电研究院),[],[],四川省,[],[],2,[],金融保险服务;自动提款机;中国工商银行ATM,160302
华阳街道办锦江路四段399号四川文化产业职业学院内,双流区,[],[],[],成都市,[],B0FFGFX4T9,[],"104.039294,30.518268",中国工商银行ATM(河池新居北),[],[],四川省,[],[],2,[],金融保险服务;自动提款机;中国工商银行ATM,160302
[],金牛区,[],[],[],成都市,[],B0FFFGLQGH,[],"104.058560,30.683241",中国工商银行24小时自助银行(通锦路),[],[],四川省,[],[],2,[],金融保险服务;自动提款机;中国工商银行ATM,160302
大弯南路206-212号,青白江区,[],[],3,成都市,[],B001C06PKS,[],"104.266999,30.871012",中国工商银行24小时自助银行(大弯南路分理处),B001C7VRAA,[],四川省,[],[],2,[],金融保险服务;自动提款机;中国工商银行ATM,160302
斑竹园镇毗河路1号,新都区,[],[],[],成都市,[],B0FFGIR33G,[],"104.070023,30.815378",中国工商银行24小时自助银行(毗河路),[],[],四川省,[],[],2,[],金融保险服务;自动提款机;中国工商银行ATM,160302
二环路西一段99号附12-13号,青羊区,[],[],3,成都市,[],B001C7WQWQ,[],"104.021379,30.658013",中国工商银行24小时自助银行(天邑花园支行),B001C06TYF,[],四川省,[],[],2,[],金融保险服务;自动提款机;中国工商银行ATM,160302
怡湖西路155-165号,青白江区,[],[],3,成都市,[],B001C7U2MA,[],"104.253372,30.881204",中国工商银行24小时自助银行(怡湖西路支行),B001C7U2IJ,[],四川省,[],[],2,[],金融保险服务;自动提款机;中国工商银行ATM,160302
犀浦街道浦兴街256号,郫都区,[],[],[],成都市,[],B0FFGIP09H,[],"103.964717,30.751799",中国工商银行24小时自助银行(浦兴街),[],[],四川省,[],[],2,[],金融保险服务;自动提款机;中国工商银行ATM,160302
一环路东五段103号中国工商银行大厦,锦江区,[],[],202,成都市,[],B001C7WQX1,[],"104.092899,30.645326",中国工商银行24小时自助银行(芷泉支行营业部),B0FFGG7B1Y,[],四川省,[],[],2,[],金融保险服务;自动提款机;中国工商银行ATM,160302
一环路东二段108号,成华区,[],[],3,成都市,[],B001C7WQWO,[],"104.101271,30.664377",中国工商银行24小时自助银行(沙河支行营业室),B001C7WQWN,[],四川省,[],[],2,[],金融保险服务;自动提款机;中国工商银行ATM,160302
北新大道二段877号成都海宁皮革城1层,新都区,[],[],202,成都市,[],B0FFFE1I4C,[],"104.080843,30.819109",中国工商银行24小时自助银行(白云村),B001C8RHCE,[],四川省,[],[],2,[],金融保险服务;自动提款机;中国工商银行ATM,160302
[],金牛区,[],[],3,成都市,[],B0FFFDVPJW,[],"104.054974,30.693717",中国工商银行24小时自助银行(圃园北路),B001C7WD4M,[],四川省,[],[],2,[],金融保险服务;自动提款机;中国工商银行ATM,160302
会展大道16附近,新都区,[],[],[],成都市,[],B0FFFVNA0E,[],"104.023359,30.841434",中国工商银行24小时自助银行(会展大道),[],[],四川省,[],[],2,[],金融保险服务;自动提款机;中国工商银行ATM,160302
西航港街道机场路常乐路二段12号附125、126、127、128,双流区,[],[],3,成都市,[],B001C8O0MO,[],"103.990097,30.574098",中国工商银行24小时自助银行(西南航空港支行),B001C8O3V9,[],四川省,[],[],2,[],金融保险服务;自动提款机;中国工商银行ATM,160302
世纪城路1089、1101-1103,武侯区,[],[],[],成都市,[],B0FFFODSM7,[],"104.072691,30.551117",中国工商银行24小时自助银行(城南支行),[],[],四川省,[],[],2,[],金融保险服务;自动提款机;中国工商银行ATM,160302
西体北路10号附1号,金牛区,[],[],3,成都市,[],B001C8RHIL,[],"104.059572,30.685651",中国工商银行24小时自助银行(白马寺支行),B001C06SVQ,[],四川省,[],[],2,[],金融保险服务;自动提款机;中国工商银行ATM,160302
红星路一段15号附2-7,锦江区,[],[],3,成都市,[],B001C7WQVR,[],"104.088322,30.667446",中国工商银行24小时自助银行(红星中路支行),B001C7WQVQ,[],四川省,[],[],2,[],金融保险服务;自动提款机;中国工商银行ATM,160302
三槐树路1号附1-4号,锦江区,[],[],3,成都市,[],B001C7WHY7,[],"104.091920,30.661778",中国工商银行24小时自助银行(成都猛追湾支行),B001C7WHY8,[],四川省,[],[],2,[],金融保险服务;自动提款机;中国工商银行ATM,160302
长顺下街1-9号,青羊区,[],[],3,成都市,[],B001C7VRBL,[],"104.055960,30.669576",中国工商银行24小时自助银行(西马棚支行),B001C0AFYP,[],四川省,[],[],2,[],金融保险服务;自动提款机;中国工商银行ATM,160302
西北桥北街157号,金牛区,[],[],[],成都市,[],B0FFFAC61R,[],"104.062837,30.688750",中国工商银行24小时自助银行(西北桥支行),[],[],四川省,[],[],2,[],金融保险服务;自动提款机;中国工商银行ATM,160302
尚锦路273号附近,郫都区,[],[],[],成都市,[],B0FFHQU6GL,[],"103.928969,30.779985",中国工商银行24小时自助银行(尚锦路支行),[],[],四川省,[],[],2,[],金融保险服务;自动提款机;中国工商银行ATM,160302
华阳大道一段237号,双流区,[],[],[],成都市,[],B0FFFPXYJZ,[],"104.046654,30.511974",中国工商银行24小时自助银行(华阳大道一段),[],[],四川省,[],[],2,[],金融保险服务;自动提款机;中国工商银行ATM,160302
安靖街道东风路131、133号,郫都区,[],[],[],成都市,[],B0FFG1UZNJ,[],"104.021431,30.764729",中国工商银行24小时自助银行(犀安路),[],[],四川省,[],[],2,[],金融保险服务;自动提款机;中国工商银行ATM,160302
惠民路410号附近,温江区,[],[],[],成都市,[],B0FFHCBZ5I,[],"103.865712,30.707660",中国工商银行24小时自助银行(惠民路),[],[],四川省,[],[],2,[],金融保险服务;自动提款机;中国工商银行ATM,160302
大石西路12号附6号,青羊区,[],[],3,成都市,[],B001C7WI0Y,[],"104.037186,30.651124",中国工商银行24小时自助银行(大石西路支行),B001C7WI0X,[],四川省,[],[],2,[],金融保险服务;自动提款机;中国工商银行ATM,160302
三河街办长龙社区毗河苑市场A区独栋1层,新都区,[],[],[],成都市,[],B0FFFADMXZ,[],"104.170115,30.779960",中国工商银行24小时自助银行(木兰山路),[],[],四川省,[],[],2,[],金融保险服务;自动提款机;中国工商银行ATM,160302
唐昌镇南正街79-87号,郫都区,[],[],3,成都市,[],B001C8MCMD,[],"103.825158,30.924286",中国工商银行24小时自助银行(唐昌支行),B001C7YJZG,[],四川省,[],[],2,[],金融保险服务;自动提款机;中国工商银行ATM,160302
天顺路122号,武侯区,[],[],3,成都市,[],B001C8MZOV,[],"104.071224,30.591699",中国工商银行24小时自助银行(天顺路支行),B001C7YL8F,[],四川省,[],[],2,[],金融保险服务;自动提款机;中国工商银行ATM,160302
同善桥南街9号附5号,青羊区,[],[],3,成都市,[],B001C7WDZ9,[],"104.022699,30.681159",中国工商银行24小时自助银行(同善桥南街支行),B001C7UBKW,[],四川省,[],[],2,[],金融保险服务;自动提款机;中国工商银行ATM,160302
成飞大道131-135号青羊工业总部基地,青羊区,[],[],3,成都市,[],B001C8N3WV,[],"103.961601,30.681999",中国工商银行24小时自助银行(青羊工业园区支行),B001C8MVDX,[],四川省,[],[],2,[],金融保险服务;自动提款机;中国工商银行ATM,160302
龙泉镇东街61号,龙泉驿区,[],[],[],成都市,[],B0H64BIH3L,[],"104.274126,30.557528",中国工商银行24小时自助银行,[],[],四川省,[],[],2,[],金融保险服务;自动提款机;中国工商银行ATM,160302
人民北路一段17号附1-3号,金牛区,[],[],3,成都市,[],B001C7WQWM,[],"104.072577,30.680504",中国工商银行24小时自助银行(人民北路支行),B001C7WQWL,[],四川省,[],[],2,[],金融保险服务;自动提款机;中国工商银行ATM,160302
黄苑街1-3号,金牛区,[],[],[],成都市,[],B001C92BEX,[],"104.017537,30.684926",中国工商银行24小时自助银行(黄苑街),[],[],四川省,[],[],2,[],金融保险服务;自动提款机;中国工商银行ATM,160302
营门口路56-60号,金牛区,[],[],3,成都市,[],B001C7WCAW,[],"104.042781,30.684084",中国工商银行ATM(营门口路),B001C06TZY,[],四川省,[],[],2,[],金融保险服务;自动提款机;中国工商银行ATM,160302
蜀源路11-17号,青羊区,[],[],3,成都市,[],B001C7VR9L,[],"104.003837,30.677449",中国工商银行24小时自助银行(金阳路支行),B001C7VR9K,[],四川省,[],[],2,[],金融保险服务;自动提款机;中国工商银行ATM,160302
望江路1号,武侯区,[],[],202,成都市,[],B001C7UQEU,[],"104.088611,30.639022",中国工商银行24小时自助银行(培根路支行),B0FFFPBBWL,[],四川省,[],[],2,[],金融保险服务;自动提款机;中国工商银行ATM,160302
均隆街17号交子公寓水岸银座底楼,锦江区,[],[],3,成都市,[],B001C7UMDM,[],"104.088559,30.650083",中国工商银行24小时自助银行(均隆街支行),B001C0AFWV,[],四川省,[],[],2,[],金融保险服务;自动提款机;中国工商银行ATM,160302
新都镇小北街一巷附2号,新都区,[],[],3,成都市,[],B001C7U4ST,[],"104.160950,30.827349",中国工商银行24小时自助银行(成都新都支行),B001C7U4H5,[],四川省,[],[],2,[],金融保险服务;自动提款机;中国工商银行ATM,160302
蜀南街与蜀南西路交叉口东50米,崇州市,[],[],[],成都市,[],B0FFGLWZ3P,[],"103.676314,30.618522",中国工商银行24小时自助银行(蜀南西路),[],[],四川省,[],[],2,[],金融保险服务;自动提款机;中国工商银行ATM,160302
天庆街196号附7号,邛崃市,[],[],[],成都市,[],B0FFGIY34V,[],"103.455733,30.411321",中国工商银行24小时自助银行(天庆街),[],[],四川省,[],[],2,[],金融保险服务;自动提款机;中国工商银行ATM,160302
临邛镇棉花街255号,邛崃市,[],[],[],成都市,[],B001C8R859,[],"103.464568,30.417470",中国工商银行24小时自助银行(城北名苑东南),[],[],四川省,[],[],2,[],金融保险服务;自动提款机;中国工商银行ATM,160302
车城东七路397号9附近,龙泉驿区,[],[],[],成都市,[],B0FFGALI5D,[],"104.242030,30.533909",中国工商银行24小时自助银行(柏合镇黎明小区西),[],[],四川省,[],[],2,[],金融保险服务;自动提款机;中国工商银行ATM,160302
航空港机场路近都段89号(西化院旁),双流区,[],[],[],成都市,[],B001C8O013,[],"103.992359,30.573516",中国工商银行24小时自助银行(月都家园西南),[],[],四川省,[],[],2,[],金融保险服务;自动提款机;中国工商银行ATM,160302
万科城市花园98-1-128号(花园街37),锦江区,[],[],202,成都市,[],B001C7UQB7,[],"104.113815,30.616386",中国工商银行24小时自助银行(静安路分理处),B0FFG21QL9,[],四川省,[],[],2,[],金融保险服务;自动提款机;中国工商银行ATM,160302
战旗东路4号附6号,青羊区,[],[],[],成都市,[],B001C92CGP,[],"104.021159,30.674256",中国工商银行24小时自助银行(战旗东路),[],[],四川省,[],[],2,[],金融保险服务;自动提款机;中国工商银行ATM,160302
紫荆东路96号紫竹苑4栋94号,武侯区,[],[],[],成都市,[],B001C8VXMO,[],"104.052363,30.615175",中国工商银行24小时自助银行(紫荆东路),[],[],四川省,[],[],2,[],金融保险服务;自动提款机;中国工商银行ATM,160302
内蒙古大道49-51号,大邑县,[],[],[],成都市,[],B001C8R8N3,[],"103.519708,30.573441",中国工商银行24小时自助银行,[],[],四川省,[],[],2,[],金融保险服务;自动提款机;中国工商银行ATM,160302
交大路203号附1号,金牛区,[],[],202,成都市,[],B001C80J3B,[],"104.041301,30.706331",中国工商银行24小时自助银行(交大路支行),B001C09KE9,[],四川省,[],[],2,[],金融保险服务;自动提款机;中国工商银行ATM,160302
双清南路1号附28号,青羊区,[],[],[],成都市,[],B0FFFABA4V,[],"104.016939,30.673012",中国工商银行24小时自助银行(双锦路),[],[],四川省,[],[],2,[],金融保险服务;自动提款机;中国工商银行ATM,160302
西街101-105号,新都区,[],[],[],成都市,[],B001C8NSON,[],"104.157934,30.826115",中国工商银行24小时自助银行(西街第二储蓄所),[],[],四川省,[],[],2,[],金融保险服务;自动提款机;中国工商银行ATM,160302
双林路198号,成华区,[],[],3,成都市,[],B001C7WF53,[],"104.105815,30.654749",中国工商银行24小时自助银行(新华公园支行),B001C7WF52,[],四川省,[],[],2,[],金融保险服务;自动提款机;中国工商银行ATM,160302
东升街道涧槽中街333号1层商铺,双流区,[],[],[],成都市,[],B0FFG23JYM,[],"103.906302,30.557657",中国工商银行24小时自助银行(涧槽中街),[],[],四川省,[],[],2,[],金融保险服务;自动提款机;中国工商银行ATM,160302
二环路西二段4号附4号,青羊区,[],[],[],成都市,[],B001C92BHN,[],"104.021973,30.664306",中国工商银行24小时自助银行(草堂晓苑西南),[],[],四川省,[],[],2,[],金融保险服务;自动提款机;中国工商银行ATM,160302
机场南四路68号四川航空大厦1层,双流区,[],[],202,成都市,[],B001C95CRP,[],"103.967435,30.570060",中国工商银行(成都川航支行),B001C04DA6,[],四川省,[],[],2,028-85861438,金融保险服务;银行;中国工商银行,160105
花径路115号附14-18号,成华区,[],[],[],成都市,[],B001C8VJJS,[],"104.071968,30.705433",中国工商银行24小时自助银行(花径路支行),[],[],四川省,[],[],2,[],金融保险服务;自动提款机;中国工商银行ATM,160302
健民路与全兴路交叉口东北50米,蒲江县,[],[],[],成都市,[],B0FFIUXLE8,[],"103.509089,30.188556",中国工商银行24小时自助银行,[],[],四川省,[],[],2,[],金融保险服务;自动提款机;中国工商银行ATM,160302
太中东街148-150号,新津区,[],[],[],成都市,[],B0FFF38LA7,[],"103.816993,30.418058",中国工商银行24小时自助银行(瑞通路),[],[],四川省,[],[],2,[],金融保险服务;自动提款机;中国工商银行ATM,160302
天府街西段17附近,温江区,[],[],[],成都市,[],B0FFFTKSMR,[],"103.795423,30.686719",中国工商银行24小时自助银行(天府街西段),[],[],四川省,[],[],2,[],金融保险服务;自动提款机;中国工商银行ATM,160302
郫筒镇何公路28号,郫都区,[],[],3,成都市,[],B001C800XK,[],"103.878555,30.803961",中国工商银行24小时自助银行(现代工业港支行),B001C801Y1,[],四川省,[],[],2,[],金融保险服务;自动提款机;中国工商银行ATM,160302
金泉路2号,金牛区,[],[],[],成都市,[],B001C8VK5Z,[],"104.015338,30.715139",中国工商银行ATM(金泉4号院东南),[],[],四川省,[],[],2,[],金融保险服务;自动提款机;中国工商银行ATM,160302
永康西路177-179号,崇州市,[],[],3,成都市,[],B001C8ODTL,[],"103.673913,30.621853",中国工商银行24小时自助银行(永康西路支行),B001C8OF2V,[],四川省,[],[],2,[],金融保险服务;自动提款机;中国工商银行ATM,160302
同安街道办事处锦绣路176号,龙泉驿区,[],[],[],成都市,[],B0FFFGUGJO,[],"104.307873,30.604881",中国工商银行24小时自助银行(锦绣路),[],[],四川省,[],[],2,[],金融保险服务;自动提款机;中国工商银行ATM,160302
栖霞路1号附10-13号,武侯区,[],[],3,成都市,[],B001C80BUE,[],"104.018332,30.641920",中国工商银行24小时自助银行(栖霞路分理处),B001C80BUD,[],四川省,[],[],2,[],金融保险服务;自动提款机;中国工商银行ATM,160302
藏卫路南二段817号,双流区,[],[],[],成都市,[],B0FFFDZP3D,[],"103.915467,30.554014",中国工商银行24小时自助银行(宜城大街),[],[],四川省,[],[],2,[],金融保险服务;自动提款机;中国工商银行ATM,160302
东升镇白河路三段32号,双流区,[],[],3,成都市,[],B001C7UVX6,[],"103.911384,30.568123",中国工商银行24小时自助银行(白河路支行),B001C7UVL0,[],四川省,[],[],2,[],金融保险服务;自动提款机;中国工商银行ATM,160302
建设路1号附25号金域蓝湾楼下,成华区,[],[],[],成都市,[],B0HGV7S3NY,[],"104.108032,30.670115",中国工商银行24小时自助银行(成都沙河建设路支行),[],[],四川省,[],[],2,[],金融保险服务;自动提款机;中国工商银行ATM,160302
[],大邑县,[],[],[],成都市,[],B0HG67FP10,[],"103.524963,30.586453",中国工商银行24小时自助银行,[],[],四川省,[],[],2,[],金融保险服务;自动提款机;中国工商银行ATM,160302
江宁南路(鹭湖宫8A),温江区,[],[],[],成都市,[],B0HB3G80AP,[],"103.829988,30.716629",中国工商银行24小时自助银行,[],[],四川省,[],[],2,[],金融保险服务;自动提款机;中国工商银行ATM,160302
桂溪西街60号锦江汇3号1层,武侯区,[],[],[],成都市,[],B0FFFAD480,[],"104.078297,30.601618",中国工商银行24小时自助银行(桂溪西街),[],[],四川省,[],[],2,[],金融保险服务;自动提款机;中国工商银行ATM,160302
西大街44-54号,彭州市,[],[],[],成都市,[],B001C7TJTS,[],"103.940737,30.983665",中国工商银行24小时自助银行(联升巷),[],[],四川省,[],[],2,[],金融保险服务;自动提款机;中国工商银行ATM,160302
一环路南一段24号四川大学望江校区,武侯区,[],[],[],成都市,[],B001C7Y9HK,[],"104.084379,30.632240",中国工商银行24小时自助银行(文华大道),[],[],四川省,[],[],2,[],金融保险服务;自动提款机;中国工商银行ATM,160302
九洋大道四川爱华学院南门附近,双流区,[],[],[],成都市,[],B0FFG3AEC6,[],"103.906216,30.637815",中国工商银行24小时自助银行(九洋大道),[],[],四川省,[],[],2,[],金融保险服务;自动提款机;中国工商银行ATM,160302
西航港成白路88号502栋24号西南方向36米,双流区,[],[],[],成都市,[],B001C8R8ZP,[],"104.017332,30.560887",中国工商银行24小时自助银行(蜀星公寓北),[],[],四川省,[],[],2,[],金融保险服务;自动提款机;中国工商银行ATM,160302
新河路165号,青白江区,[],[],3,成都市,[],B001C8O0JB,[],"104.257927,30.888515",中国工商银行24小时自助银行(新河路支行),B001C8O5I3,[],四川省,[],[],2,[],金融保险服务;自动提款机;中国工商银行ATM,160302
大石西路66号附12-14号,青羊区,[],[],3,成都市,[],B001C7YQ10,[],"104.026666,30.651122",中国工商银行24小时自助银行(成都紫藤支行),B001C7XYSW,[],四川省,[],[],2,[],金融保险服务;自动提款机;中国工商银行ATM,160302
南街126号附近,邛崃市,[],[],3,成都市,[],B0FFH82YYF,[],"103.460854,30.411033",中国工商银行24小时自助银行(邛崃支行营业室),B001C0AFZN,[],四川省,[],[],2,[],金融保险服务;自动提款机;中国工商银行ATM,160302
花都大道763-773号,新都区,[],[],3,成都市,[],B001C8O8ID,[],"104.060260,30.760597",中国工商银行24小时自助银行(花都大道支行),B001C8O87P,[],四川省,[],[],2,[],金融保险服务;自动提款机;中国工商银行ATM,160302
武阳中路213-215号,新津区,[],[],[],成都市,[],B001C8O3CB,[],"103.817307,30.410408",中国工商银行24小时自助银行,[],[],四川省,[],[],2,[],金融保险服务;自动提款机;中国工商银行ATM,160302
翔凤路248号,都江堰市,[],[],[],成都市,[],B0FFF3A5LS,[],"103.635291,30.978124",中国工商银行24小时自助银行(翔凤路),[],[],四川省,[],[],2,[],金融保险服务;自动提款机;中国工商银行ATM,160302
西河街道滨西社区开元南路50号,龙泉驿区,[],[],[],成都市,[],B0FFFZ367T,[],"104.231502,30.646373",中国工商银行24小时自助银行(滨西路),[],[],四川省,[],[],2,[],金融保险服务;自动提款机;中国工商银行ATM,160302
人民南路三段17号华西男生院附近,武侯区,[],[],[],成都市,[],B001C928T0,[],"104.071440,30.641023",中国工商银行24小时自助银行(校中路),[],[],四川省,[],[],2,[],金融保险服务;自动提款机;中国工商银行ATM,160302
逸都路6号伊藤洋华堂1F层,武侯区,[],[],201,成都市,[],B0FFG17K57,[],"104.020833,30.646150",中国工商银行ATM(伊藤洋华堂),B0FFF0DTTF,[],四川省,[],[],2,[],金融保险服务;自动提款机;中国工商银行ATM,160302
安德街道安平东路5号,郫都区,[],[],[],成都市,[],B0FFFQ1X7D,[],"103.802418,30.867963",中国工商银行24小时自助银行(安平东路),[],[],四川省,[],[],2,[],金融保险服务;自动提款机;中国工商银行ATM,160302
新乐中街277号神仙树馨苑404号,武侯区,[],[],[],成都市,[],B0FFFCT3DC,[],"104.036795,30.608281",中国工商银行24小时自助银行(新乐路),[],[],四川省,[],[],2,[],金融保险服务;自动提款机;中国工商银行ATM,160302
金房苑西路43号,金牛区,[],[],[],成都市,[],B0FFIWASQD,[],"104.038494,30.693736",中国工商银行24小时自助银行(金房苑南路),[],[],四川省,[],[],2,[],金融保险服务;自动提款机;中国工商银行ATM,160302
府青路一段19号附2-5,成华区,[],[],3,成都市,[],B001C80GQC,[],"104.094677,30.675724",中国工商银行24小时自助银行(石油路支行),B001C80GQD,[],四川省,[],[],2,[],金融保险服务;自动提款机;中国工商银行ATM,160302
玉双路10号附1号-中测院离行式,成华区,[],[],[],成都市,[],B001C7Y9XV,[],"104.094731,30.655407",中国工商银行24小时自助银行(玉双路支行),[],[],四川省,[],[],2,[],金融保险服务;自动提款机;中国工商银行ATM,160302
"肖家河北街39,41号",武侯区,[],[],3,成都市,[],B001C7Y9W8,[],"104.041900,30.634097",中国工商银行24小时自助银行(高升桥东路分理处),B001C7Y9T9,[],四川省,[],[],2,[],金融保险服务;自动提款机;中国工商银行ATM,160302
东风路北一巷11号附2号,成华区,[],[],3,成都市,[],B001C7WQVO,[],"104.092454,30.651929",中国工商银行24小时自助银行(东风路支行),B001C7WQVN,[],四川省,[],[],2,[],金融保险服务;自动提款机;中国工商银行ATM,160302
清江中路10号附4-6号,青羊区,[],[],3,成都市,[],B001C7WE1L,[],"104.015515,30.671560",中国工商银行24小时自助银行(清江中路支行),B001C7WE1K,[],四川省,[],[],2,[],金融保险服务;自动提款机;中国工商银行ATM,160302
桂湖东路115-131号,新都区,[],[],3,成都市,[],B001C05GQT,[],"104.166276,30.823669",中国工商银行24小时自助银行(成都桂湖支行),B001C8MYPO,[],四川省,[],[],2,[],金融保险服务;自动提款机;中国工商银行ATM,160302
黄金东一路437号,金牛区,[],[],[],成都市,[],B001C8O9QT,[],"103.992812,30.708756",中国工商银行24小时自助银行(黄金东一路),[],[],四川省,[],[],2,[],金融保险服务;自动提款机;中国工商银行ATM,160302
唐安东路1-5附近,崇州市,[],[],[],成都市,[],B0FFFT3MXU,[],"103.680049,30.632765",中国工商银行24小时自助银行(崇庆北路),[],[],四川省,[],[],2,[],金融保险服务;自动提款机;中国工商银行ATM,160302
郫筒街道郫筒镇望东路81号丽阳春天4栋1层1-4号,郫都区,[],[],3,成都市,[],B001C91XLY,[],"103.894376,30.799240",中国工商银行24小时自助银行(成都支行),B001C91XLZ,[],四川省,[],[],2,[],金融保险服务;自动提款机;中国工商银行ATM,160302
桫椤路中段与河滨南路交叉口南50米,蒲江县,[],[],[],成都市,[],B0FFGLC3HM,[],"103.511056,30.196337",中国工商银行ATM,[],[],四川省,[],[],2,[],金融保险服务;自动提款机;中国工商银行ATM,160302
十里大道二段53号,金堂县,[],[],3,成都市,[],B001C800XJ,[],"104.410371,30.860395",中国工商银行24小时自助银行(金堂广场支行),B001C801XX,[],四川省,[],[],2,[],金融保险服务;自动提款机;中国工商银行ATM,160302
二环路南四段16附27号,武侯区,[],[],[],成都市,[],B0FFFW3Z0H,[],"104.041112,30.628147",中国工商银行24小时自助银行(二环路南四段),[],[],四川省,[],[],2,[],金融保险服务;自动提款机;中国工商银行ATM|金融保险服务;银行;中国工商银行,160302|160105
双建路83号,成华区,[],[],3,成都市,[],B001C8OKS6,[],"104.114696,30.680292",中国工商银行24小时自助银行(成都双建路分理处),B001C8OL4L,[],四川省,[],[],2,[],金融保险服务;自动提款机;中国工商银行ATM,160302
马鞍北路5-7号,金牛区,[],[],[],成都市,[],B001C7YPM6,[],"104.086865,30.676425",中国工商银行24小时自助银行(马鞍北路),[],[],四川省,[],[],2,[],金融保险服务;自动提款机;中国工商银行ATM,160302
武侯祠大街232号,武侯区,[],[],3,成都市,[],B001C7WQWX,[],"104.049235,30.644067",中国工商银行24小时自助银行(武侯祠支行),B001C7WQWW,[],四川省,[],[],2,[],金融保险服务;自动提款机;中国工商银行ATM,160302
一环路西三段92号,金牛区,[],[],3,成都市,[],B001C7VR9Q,[],"104.041370,30.675627",中国工商银行24小时自助银行(抚琴支行),B001C7VR9P,[],四川省,[],[],2,[],金融保险服务;自动提款机;中国工商银行ATM,160302
学府大道313号附近,金堂县,[],[],[],成都市,[],B0FFG14NSV,[],"104.460417,30.849051",中国工商银行24小时自助银行(学府大道),[],[],四川省,[],[],2,[],金融保险服务;自动提款机;中国工商银行ATM,160302
玉龙街73号、复兴街105号,金堂县,[],[],[],成都市,[],B0FFG380PX,[],"104.437850,30.854105",中国工商银行24小时自助银行(玉龙街),[],[],四川省,[],[],2,[],金融保险服务;自动提款机;中国工商银行ATM,160302
东街185-187号,邛崃市,[],[],3,成都市,[],B001C0AFVR,[],"103.465670,30.411995",中国工商银行24小时自助银行(东街分理处),B001C0AFVP,[],四川省,[],[],2,[],金融保险服务;自动提款机;中国工商银行ATM,160302
崇阳街道三元街85号,崇州市,[],[],3,成都市,[],B001C7UI1U,[],"103.674084,30.632189",中国工商银行24小时自助银行(三元街分理处),B001C7UI1T,[],四川省,[],[],2,[],金融保险服务;自动提款机;中国工商银行ATM,160302
郫都区政务中心,郫都区,[],[],[],成都市,[],B0FFIPSG0L,[],"103.902512,30.795793",中国工商银行24小时自助银行(成都郫都区政府2号楼),[],[],四川省,[],[],2,[],金融保险服务;自动提款机;中国工商银行ATM,160302
小南街123号附8-9号,青羊区,[],[],3,成都市,[],B001C7WI3Z,[],"104.052985,30.654345",中国工商银行24小时自助银行(小南街支行),B001C7WI3Y,[],四川省,[],[],2,[],金融保险服务;自动提款机;中国工商银行ATM,160302
成龙大道一段9号4栋1-3号,锦江区,[],[],3,成都市,[],B001C8MRK6,[],"104.134994,30.595768",中国工商银行24小时自助银行(成龙大道支行),B001C8N110,[],四川省,[],[],2,[],金融保险服务;自动提款机;中国工商银行ATM,160302
聚霞路1号,金牛区,[],[],3,成都市,[],B0FFJBVR9J,[],"104.086200,30.791242",中国工商银行24小时自助银行(成都国际商贸城支行),B001C805CO,[],四川省,[],[],2,[],金融保险服务;自动提款机;中国工商银行ATM,160302
江源镇四川水利职业技术学院校园内,崇州市,[],[],[],成都市,[],B0FFIVYL9N,[],"103.777780,30.630504",工商银行成都崇州四川水利学院职校自助银行,[],[],四川省,[],[],2,[],金融保险服务;自动提款机;中国工商银行ATM,160302
安德街道安平西路133、135、137号,郫都区,[],[],3,成都市,[],B001C8P68X,[],"103.794721,30.874157",中国工商银行24小时自助银行(安德支行),B001C8P6IF,[],四川省,[],[],2,[],金融保险服务;自动提款机;中国工商银行ATM,160302
长安路194,温江区,[],[],[],成都市,[],B001C8OBX2,[],"103.853700,30.698966",中国工商银行24小时自助银行,[],[],四川省,[],[],2,[],金融保险服务;自动提款机;中国工商银行ATM,160302
倪家桥路1号,武侯区,[],[],3,成都市,[],B001C06S1L,[],"104.066417,30.625357",中国工商银行24小时自助银行(跳伞塔支行),B001C06T1P,[],四川省,[],[],2,[],金融保险服务;自动提款机;中国工商银行ATM,160302
甲子东道64号,大邑县,[],[],[],成都市,[],B0FFF3ABMD,[],"103.531386,30.581111",中国工商银行24小时自助银行(甲子东道),[],[],四川省,[],[],2,[],金融保险服务;自动提款机;中国工商银行ATM,160302
观音桥56号附9室,锦江区,[],[],202,成都市,[],B001C92F8C,[],"104.106825,30.617945",中国工商银行24小时自助银行(观音桥街),B0FFF7BJV1,[],四川省,[],[],2,[],金融保险服务;自动提款机;中国工商银行ATM,160302
华金大道2段406号1栋附2号,青白江区,[],[],[],成都市,[],B0FFFDWER8,[],"104.257246,30.883117",中国工商银行24小时自助银行(华金大道),[],[],四川省,[],[],2,[],金融保险服务;自动提款机;中国工商银行ATM,160302
暑袜北三街19号附1号,锦江区,[],[],[],成都市,[],B001C7XDQ2,[],"104.075008,30.658126",中国工商银行24小时自助银行(成都锦江支行),[],[],四川省,[],[],2,[],金融保险服务;自动提款机;中国工商银行ATM,160302
望丛西路446号,郫都区,[],[],[],成都市,[],B001C8OCXR,[],"103.883135,30.818826",中国工商银行24小时自助银行(望丛分理处),[],[],四川省,[],[],2,[],金融保险服务;自动提款机;中国工商银行ATM,160302
国学巷37号四川大学华西医院,武侯区,[],[],202,成都市,[],B0FFFABE5X,[],"104.060368,30.641741",中国工商银行24小时自助银行(华西医院分理处),B0FFF5W5XV,[],四川省,[],[],2,[],金融保险服务;自动提款机;中国工商银行ATM,160302
中和大道3段66号附14、16号,双流区,[],[],[],成都市,[],B0FFFOE1E7,[],"104.092214,30.549763",中国工商银行24小时自助银行(中和大道三段),[],[],四川省,[],[],2,[],金融保险服务;自动提款机;中国工商银行ATM,160302
犀浦街道珠江路26号,郫都区,[],[],3,成都市,[],B0FFFYIUX4,[],"103.965421,30.758578",中国工商银行ATM(成都珠江路支行),B001C06S8F,[],四川省,[],[],2,[],金融保险服务;自动提款机;中国工商银行ATM,160302
双龙路488号怡和新城E2区14-1-3号,龙泉驿区,[],[],202,成都市,[],B0FFFACTLT,[],"104.259975,30.576286",中国工商银行24小时自助银行(竹苑西),B0FFJ1IF7Z,[],四川省,[],[],2,[],金融保险服务;自动提款机;中国工商银行ATM,160302
天长路59号附5号,武侯区,[],[],[],成都市,[],B001C8R9N9,[],"104.076212,30.593841",中国工商银行24小时自助银行(天长路),[],[],四川省,[],[],2,[],金融保险服务;自动提款机;中国工商银行ATM,160302
锦城大道837号,武侯区,[],[],3,成都市,[],B001C8O8G2,[],"104.056590,30.575067",中国工商银行24小时自助银行(民丰大道分理处),B001C8O8YS,[],四川省,[],[],2,[],金融保险服务;自动提款机;中国工商银行ATM,160302
蒲阳路461号,都江堰市,[],[],[],成都市,[],B001C0AFXF,[],"103.632879,31.003925",中国工商银行24小时自助银行(鸿园大楼北),[],[],四川省,[],[],2,[],金融保险服务;自动提款机;中国工商银行ATM,160302
大丰街道方元路222号附9号,新都区,[],[],[],成都市,[],B0FFG6CYRB,[],"104.064638,30.769874",中国工商银行24小时自助银行(方元路),[],[],四川省,[],[],2,[],金融保险服务;自动提款机;中国工商银行ATM,160302
育英路南段199号人民医院门诊部1层,新都区,[],[],[],成都市,[],B0FFGXGWBX,[],"104.177744,30.791866",中国工商银行ATM(人民医院),[],[],四川省,[],[],2,[],金融保险服务;自动提款机;中国工商银行ATM,160302
川大路三段金色校园广场1号,双流区,[],[],202,成都市,[],B0FFFHFHZM,[],"103.990045,30.550174",中国工商银行24小时自助银行(川大西路分理处),B001C937OV,[],四川省,[],[],2,[],金融保险服务;自动提款机;中国工商银行ATM,160302
都江堰大道319号,都江堰市,[],[],[],成都市,[],B001C80JLX,[],"103.653607,30.987147",中国工商银行24小时自助银行(幸福大道自助银行),[],[],四川省,[],[],2,[],金融保险服务;自动提款机;中国工商银行ATM,160302
奎光路399-471号,都江堰市,[],[],[],成都市,[],B0FFIJW3N2,[],"103.619231,30.983027",中国工商银行24小时自助银行(奎光路),[],[],四川省,[],[],2,[],金融保险服务;自动提款机;中国工商银行ATM,160302
杨桥路188-192号(位于双流黄甲镇),双流区,[],[],[],成都市,[],B0FFF2IQ79,[],"103.968998,30.531246",中国工商银行24小时自助银行(杨桥路分理处),[],[],四川省,[],[],2,[],金融保险服务;自动提款机;中国工商银行ATM,160302
学府路二段12号,双流区,[],[],[],成都市,[],B001C7VR9C,[],"103.995159,30.580363",中国工商银行ATM(学府路二段),[],[],四川省,[],[],2,[],金融保险服务;自动提款机;中国工商银行ATM,160302
成都市高新西区新业路88号天奥电子股份有限公司食堂内,郫都区,[],[],[],成都市,[],B0FFI893A3,[],"103.957418,30.727896",中国工商银行自助银行(成都金牛天奥电子),[],[],四川省,[],[],2,[],金融保险服务;自动提款机;中国工商银行ATM,160302
金凤街131号上风港时代广场3栋1层,武侯区,[],[],202,成都市,[],B0FFH6RAW5,[],"103.970525,30.608573",中国工商银行24小时自助银行(金兴支行),B001C95ALM,[],四川省,[],[],2,[],金融保险服务;自动提款机;中国工商银行ATM,160302
火神庙路63号附52龙湖丽景A区5号楼,成华区,[],[],[],成都市,[],B0FFFWBCM5,[],"104.170286,30.706459",中国工商银行24小时自助银行(火神庙北一路),[],[],四川省,[],[],2,[],金融保险服务;自动提款机;中国工商银行ATM,160302
航都大街二段850,双流区,[],[],[],成都市,[],B0FFI8NFFQ,[],"103.933342,30.591108",中国工商银行24小时自助银行(航都大街二段),[],[],四川省,[],[],2,[],金融保险服务;自动提款机;中国工商银行ATM,160302
华阳滨河路三段1号附1号,双流区,[],[],3,成都市,[],B001C7UWHZ,[],"104.056184,30.523671",中国工商银行24小时自助银行(府河音乐花园支行),B001C7UW2R,[],四川省,[],[],2,[],金融保险服务;自动提款机;中国工商银行ATM,160302
南环路154号附近,邛崃市,[],[],[],成都市,[],B001C8O23P,[],"103.459230,30.404993",中国工商银行24小时自助银行(长松路),[],[],四川省,[],[],2,[],金融保险服务;自动提款机;中国工商银行ATM,160302
长华路52号,武侯区,[],[],[],成都市,[],B001C92COI,[],"104.083953,30.611878",中国工商银行24小时自助银行(长华路),[],[],四川省,[],[],2,[],金融保险服务;自动提款机;中国工商银行ATM,160302
东升街道长冶路三段144号1层商铺,双流区,[],[],[],成都市,[],B001C9232S,[],"103.930695,30.561263",中国工商银行24小时自助银行(长冶路三段),[],[],四川省,[],[],2,[],金融保险服务;自动提款机;中国工商银行ATM,160302
一环路南1段24号四川大学望江校区,武侯区,[],[],[],成都市,[],B001C7YAO1,[],"104.085311,30.630153",中国工商银行ATM(望江医院东南),[],[],四川省,[],[],2,[],金融保险服务;自动提款机;中国工商银行ATM,160302
金凤路433号附近,金堂县,[],[],[],成都市,[],B0FFJA9XHP,[],"104.394554,30.850032",中国工商银行24小时自助银行,[],[],四川省,[],[],2,[],金融保险服务;自动提款机;中国工商银行ATM,160302
北大街294号,郫都区,[],[],[],成都市,[],B0FFG7IXDQ,[],"103.891679,30.812345",中国工商银行24小时自助银行(北大街),[],[],四川省,[],[],2,[],金融保险服务;自动提款机;中国工商银行ATM,160302
金科南路1号,金牛区,[],[],3,成都市,[],B001C8R83C,[],"103.994011,30.712845",中国工商银行24小时自助银行(成都高新西部园区支行),B001C807VL,[],四川省,[],[],2,[],金融保险服务;自动提款机;中国工商银行ATM,160302
新光华街9号附3-9号,锦江区,[],[],[],成都市,[],B001C8O7VI,[],"104.067586,30.652872",中国工商银行24小时自助银行(新光华街),[],[],四川省,[],[],2,[],金融保险服务;自动提款机;中国工商银行ATM,160302
柳台大道东段208四川交通职业技术学院,温江区,[],[],[],成都市,[],B0FFFGV6JI,[],"103.812493,30.688523",中国工商银行24小时自助银行(柳台大道东段),[],[],四川省,[],[],2,[],金融保险服务;自动提款机;中国工商银行ATM,160302
科华一路1号,郫都区,[],[],3,成都市,[],B001C8O3ZQ,[],"103.904110,30.796597",中国工商银行24小时自助银行(鹃城支行),B001C8MFD8,[],四川省,[],[],2,[],金融保险服务;自动提款机;中国工商银行ATM,160302
青城山镇青源国际大酒店一楼大厅,都江堰市,[],[],[],成都市,[],B0FFI7HJZS,[],"103.598854,30.897806",中国工商银行自助银行(成都都江堰青源国际大酒店),[],[],四川省,[],[],2,[],金融保险服务;自动提款机;中国工商银行ATM,160302
东升街道三强北路二段88号锦绣华都40栋1层6号商铺,双流区,[],[],202,成都市,[],B0FFFE4L1B,[],"103.937014,30.572794",中国工商银行24小时自助银行(锦绣华都路),B0FFF8JEGZ,[],四川省,[],[],2,[],金融保险服务;自动提款机;中国工商银行ATM,160302
五津西路4号附3,新津区,[],[],3,成都市,[],B001C7VRBR,[],"103.811475,30.414340",中国工商银行24小时自助银行(五津西路支行),B001C7VRBQ,[],四川省,[],[],2,[],金融保险服务;自动提款机;中国工商银行ATM,160302
金阳街2号附近,金堂县,[],[],[],成都市,[],B001C8VK1I,[],"104.407710,30.851461",中国工商银行24小时自助银行(金阳街),[],[],四川省,[],[],2,[],金融保险服务;自动提款机;中国工商银行ATM,160302
汇源街270-272号,邛崃市,[],[],3,成都市,[],B0FFIOY4CN,[],"103.469542,30.405307",中国工商银行24小时自助银行(东星支行),B001C7VRAJ,[],四川省,[],[],2,[],金融保险服务;自动提款机;中国工商银行ATM,160302
朝阳湖大佛坪蜀秀宾馆,蒲江县,[],[],[],成都市,[],B0FFIPTXBX,[],"103.440998,30.162577",中国工商银行自助银行(成都蒲江蜀秀宾馆),[],[],四川省,[],[],2,[],金融保险服务;自动提款机;中国工商银行ATM,160302
簇桥中街58号,武侯区,[],[],3,成都市,[],B001C7VRAD,[],"103.999361,30.602962",中国工商银行24小时自助银行(成都簇桥支行),B001C05RX9,[],四川省,[],[],2,[],金融保险服务;自动提款机;中国工商银行ATM,160302
[],锦江区,[],[],[],成都市,[],B0FFG7GX8Q,[],"104.126115,30.617828",中国工商银行24小时自助银行(氯寺),[],[],四川省,[],[],2,[],金融保险服务;自动提款机;中国工商银行ATM,160302
金履四路2号,武侯区,[],[],[],成都市,[],B001C95AAQ,[],"103.987884,30.610168",中国工商银行24小时自助银行(金履四路支行),[],[],四川省,[],[],2,[],金融保险服务;自动提款机;中国工商银行ATM,160302
邛陶路143附近,邛崃市,[],[],[],成都市,[],B0FFJBGEVZ,[],"103.453197,30.406536",中国工商银行24小时自助银行,[],[],四川省,[],[],2,[],金融保险服务;自动提款机;中国工商银行ATM,160302
临邛镇司马大道168号,邛崃市,[],[],[],成都市,[],B0FFI88M0Q,[],"103.452268,30.402483",中国工商银行24小时自助银行,[],[],四川省,[],[],2,[],金融保险服务;自动提款机;中国工商银行ATM,160302
江安河东路中段1号,都江堰市,[],[],3,成都市,[],B001C80JMI,[],"103.626246,30.979643",中国工商银行24小时自助银行(江安河东路支行),B001C80JW3,[],四川省,[],[],2,[],金融保险服务;自动提款机;中国工商银行ATM,160302
长柏路481-483号,龙泉驿区,[],[],[],成都市,[],B0FFFSNCN9,[],"104.266636,30.551314",中国工商银行24小时自助银行(长柏路),[],[],四川省,[],[],2,[],金融保险服务;自动提款机;中国工商银行ATM,160302
锦东路568号摩根中心2号楼1层1号,锦江区,[],[],202,成都市,[],B001C8P7PX,[],"104.103823,30.640343",中国工商银行24小时自助银行(锦东路支行),B001C8XFNG,[],四川省,[],[],2,[],金融保险服务;自动提款机;中国工商银行ATM,160302
五里墩支路五里墩路路口附近,金牛区,[],[],[],成都市,[],B001C7WBUL,[],"104.030981,30.691518",中国工商银行24小时自助银行(茶店子支行),[],[],四川省,[],[],2,[],金融保险服务;自动提款机;中国工商银行ATM,160302
青江东路185-201号,青白江区,[],[],3,成都市,[],B0FFFDWERQ,[],"104.259582,30.878448",中国工商银行24小时自助银行(成都青白江支行),B001C7VRB7,[],四川省,[],[],2,[],金融保险服务;自动提款机;中国工商银行ATM,160302
柳台大道1166号中医药大学校内,温江区,[],[],[],成都市,[],B0FFFHJ7B2,[],"103.804914,30.685014",中国工商银行24小时自助银行,[],[],四川省,[],[],2,[],金融保险服务;自动提款机;中国工商银行ATM,160302
龙泉东街68号,龙泉驿区,[],[],3,成都市,[],B001C8NNU0,[],"104.273939,30.557268",中国工商银行24小时自助银行(龙泉支行营业室),B001C7UWVN,[],四川省,[],[],2,[],金融保险服务;自动提款机;中国工商银行ATM,160302
郫都区正义路998号附5,金牛区,[],[],[],成都市,[],B0FFGJ10I3,[],"104.037575,30.744465",中国工商银行24小时自助银行(安靖分理处),[],[],四川省,[],[],2,[],金融保险服务;自动提款机;中国工商银行ATM,160302
工业大道东段363号,新都区,[],[],3,成都市,[],B001C8R9HZ,[],"104.168886,30.801391",中国工商银行24小时自助银行(工业大道支行),B001C8R6TQ,[],四川省,[],[],2,[],金融保险服务;自动提款机;中国工商银行ATM,160302
机投镇武青北路8号,武侯区,[],[],3,成都市,[],B001C809HB,[],"103.978235,30.650886",中国工商银行24小时自助银行(武青北路分理处),B001C809HA,[],四川省,[],[],2,[],金融保险服务;自动提款机;中国工商银行ATM,160302
成都市郫都区百草路37号,郫都区,[],[],[],成都市,[],B0FFG7SN5F,[],"103.977427,30.734537",中国工商银行24小时自助银行(百草路),[],[],四川省,[],[],2,[],金融保险服务;自动提款机;中国工商银行ATM,160302
电子路84-88号,新都区,[],[],[],成都市,[],B001C0656H,[],"104.151286,30.816097",中国工商银行24小时自助银行(永星职工医院西南),[],[],四川省,[],[],2,[],金融保险服务;自动提款机;中国工商银行ATM,160302
经开区南二路3625号附近,龙泉驿区,[],[],[],成都市,[],B0FFGI0SDA,[],"104.170878,30.563036",中国工商银行24小时自助银行(经开区南二路),[],[],四川省,[],[],2,[],金融保险服务;自动提款机;中国工商银行ATM,160302
泰安北路140-148号,彭州市,[],[],[],成都市,[],B0FFFPA6FL,[],"103.953099,30.994186",中国工商银行24小时自助银行(彭州泰安北路支行),[],[],四川省,[],[],2,[],金融保险服务;自动提款机;中国工商银行ATM,160302
华润路2号,锦江区,[],[],3,成都市,[],B001C7WGDU,[],"104.090240,30.612035",中国工商银行24小时自助银行(华润路支行),B001C7WGDT,[],四川省,[],[],2,[],金融保险服务;自动提款机;中国工商银行ATM,160302
中和镇朝阳路金桂花园丹桂苑1幢12-13号,双流区,[],[],202,成都市,[],B001C0AFZI,[],"104.094717,30.559860",中国工商银行24小时自助银行(中和支行),B0FFFPX990,[],四川省,[],[],2,[],金融保险服务;自动提款机;中国工商银行ATM,160302
东升街道迎春路三段136号一楼底层的商铺,双流区,[],[],[],成都市,[],B001C91Z1Y,[],"103.919483,30.579616",中国工商银行24小时自助银行(迎春路三段支行),[],[],四川省,[],[],2,[],金融保险服务;自动提款机;中国工商银行ATM,160302
府青路二段16号附1号,成华区,[],[],3,成都市,[],B001C7WQVH,[],"104.099226,30.682429",中国工商银行24小时自助银行(成都八里庄支行),B001C05RR4,[],四川省,[],[],2,[],金融保险服务;自动提款机;中国工商银行ATM,160302
蜀州北路240-248号,崇州市,[],[],3,成都市,[],B001C8NPRC,[],"103.670047,30.639658",中国工商银行24小时自助银行(蜀州北路支行),B001C0AFY0,[],四川省,[],[],2,[],金融保险服务;自动提款机;中国工商银行ATM,160302
新开寺街60号,青羊区,[],[],[],成都市,[],B001C8OKPZ,[],"104.077799,30.671421",中国工商银行24小时自助银行(新开寺街),[],[],四川省,[],[],2,[],金融保险服务;自动提款机;中国工商银行ATM,160302
成华大道新鸿路101-103号,成华区,[],[],[],成都市,[],B001C7YOUM,[],"104.099981,30.662242",中国工商银行24小时自助银行(成华大道新鸿路),[],[],四川省,[],[],2,[],金融保险服务;自动提款机;中国工商银行ATM,160302
中街136-138附近,龙泉驿区,[],[],[],成都市,[],B001C8NOP7,[],"104.270056,30.560418",中国工商银行24小时自助银行(中街),[],[],四川省,[],[],2,[],金融保险服务;自动提款机;中国工商银行ATM,160302
洗面桥东一街8号附29-30号,武侯区,[],[],[],成都市,[],B0FFG7IVN2,[],"104.056504,30.638431",中国工商银行24小时自助银行(天竺园西北),[],[],四川省,[],[],2,[],金融保险服务;自动提款机;中国工商银行ATM,160302
金罗路3号附7号,金牛区,[],[],[],成都市,[],B001C8VJS2,[],"104.033967,30.675943",中国工商银行ATM(营康路),[],[],四川省,[],[],2,[],金融保险服务;自动提款机;中国工商银行ATM,160302
天彭镇牡丹东路60、62号1层,彭州市,[],[],[],成都市,[],B0FFI81RM4,[],"103.959743,30.989816",中国工商银行自助银行(成都彭州新城支行),[],[],四川省,[],[],2,[],金融保险服务;自动提款机;中国工商银行ATM,160302
东升镇广都大道89号,双流区,[],[],[],成都市,[],B0FFFABQBM,[],"103.924100,30.560945",中国工商银行24小时自助银行(广都大道一段),[],[],四川省,[],[],2,[],金融保险服务;自动提款机;中国工商银行ATM,160302
水碾河路25号4幢1层1号、4幢2层1号,成华区,[],[],3,成都市,[],B001C8OQO5,[],"104.104554,30.646421",中国工商银行24小时自助银行(双桥子支行),B001C8OQRH,[],四川省,[],[],2,[],金融保险服务;自动提款机;中国工商银行ATM,160302
一环路南三段28号附14号,武侯区,[],[],3,成都市,[],B001C7YA0E,[],"104.057698,30.633081",中国工商银行24小时自助银行(一环路南三段分理处),B001C7US16,[],四川省,[],[],2,[],金融保险服务;自动提款机;中国工商银行ATM,160302
双楠路9号,武侯区,[],[],3,成都市,[],B001C7WQW7,[],"104.028253,30.645298",中国工商银行24小时自助银行(双楠小区支行),B001C7WQW6,[],四川省,[],[],2,[],金融保险服务;自动提款机;中国工商银行ATM,160302
九兴大道2号附5,武侯区,[],[],3,成都市,[],B001C7VRA5,[],"104.042089,30.619913",中国工商银行24小时自助银行(成都永丰路支行),B001C7VRA4,[],四川省,[],[],2,[],金融保险服务;自动提款机;中国工商银行ATM,160302
抚琴西路250号,金牛区,[],[],3,成都市,[],B001C7UCH6,[],"104.032771,30.680445",中国工商银行24小时自助银行(成都抚琴西路支行),B001C06W7H,[],四川省,[],[],2,[],金融保险服务;自动提款机;中国工商银行ATM,160302
蜀汉路142号,金牛区,[],[],[],成都市,[],B001C06DK4,[],"104.026723,30.684122",中国工商银行24小时自助银行(中路分理处),[],[],四川省,[],[],2,[],金融保险服务;自动提款机;中国工商银行ATM,160302
高新区世纪城新会展中心时尚天堂街区010-1-5号,武侯区,[],[],[],成都市,[],B001C0AFUJ,[],"104.074927,30.553075",中国工商银行24小时自助银行(成都城南支行),[],[],四川省,[],[],2,[],金融保险服务;自动提款机;中国工商银行ATM,160302
人民南路三段26号附5号,武侯区,[],[],[],成都市,[],B001C8MYHE,[],"104.066172,30.635709",中国工商银行24小时自助银行(人民南路三段),[],[],四川省,[],[],2,[],金融保险服务;自动提款机;中国工商银行ATM,160302
晋吉北路109-113号附近,武侯区,[],[],[],成都市,[],B0FFFTVLUS,[],"104.002391,30.641268",中国工商银行24小时自助银行(晋吉北路),[],[],四川省,[],[],2,[],金融保险服务;自动提款机;中国工商银行ATM,160302
大丰街道崇义社区文化街15-51号丰怡阳光A区1幢1层2号,新都区,[],[],202,成都市,[],B001C91Y82,[],"104.052211,30.763369",中国工商银行24小时自助银行(成都大丰支行),B0FFFPYU9L,[],四川省,[],[],2,[],金融保险服务;自动提款机;中国工商银行ATM,160302
蒲阳路85-87号,都江堰市,[],[],[],成都市,[],B001C7TJTO,[],"103.625999,30.999834",中国工商银行24小时自助银行(蒲阳路),[],[],四川省,[],[],2,[],金融保险服务;自动提款机;中国工商银行ATM,160302
四川机场集团公司商务楼1层,双流区,[],[],3,成都市,[],B001C8RACE,[],"103.963399,30.568240",中国工商银行24小时自助银行(机场支行),B001C8O25W,[],四川省,[],[],2,[],金融保险服务;自动提款机;中国工商银行ATM,160302
经一路238号,青羊区,[],[],3,成都市,[],B001C8N3F0,[],"103.965289,30.697789",中国工商银行24小时自助银行(黄田坝支行),B001C0AFWH,[],四川省,[],[],2,[],金融保险服务;自动提款机;中国工商银行ATM,160302
灵龙路494-506号,龙泉驿区,[],[],3,成都市,[],B001C8MRHP,[],"104.176413,30.652466",中国工商银行24小时自助银行(十陵支行),B001C7Y43B,[],四川省,[],[],2,[],金融保险服务;自动提款机;中国工商银行ATM,160302
花园路115号,彭州市,[],[],[],成都市,[],B001C8OMAK,[],"103.947760,30.991365",中国工商银行24小时自助银行(花园路),[],[],四川省,[],[],2,[],金融保险服务;自动提款机;中国工商银行ATM,160302
蜀汉路530号附1-7号,金牛区,[],[],3,成都市,[],B001C7YOQY,[],"104.011533,30.694585",中国工商银行24小时自助银行(蜀汉路支行),B001C80J6K,[],四川省,[],[],2,[],金融保险服务;自动提款机;中国工商银行ATM,160302
鸥鹏大道9号附1号,龙泉驿区,[],[],3,成都市,[],B001C7VRAR,[],"104.269025,30.559689",中国工商银行24小时自助银行(龙泉广场支行),B001C7VRAQ,[],四川省,[],[],2,[],金融保险服务;自动提款机;中国工商银行ATM,160302
紫荆西路31-33号,武侯区,[],[],3,成都市,[],B001C7UT62,[],"104.048456,30.616764",中国工商银行24小时自助银行(成都紫荆西路支行),B001C7UT63,[],四川省,[],[],2,[],金融保险服务;自动提款机;中国工商银行ATM,160302
东大街27-29号,温江区,[],[],3,成都市,[],B001C7VRA1,[],"103.837425,30.698709",中国工商银行24小时自助银行(温江支行),B001C06GVD,[],四川省,[],[],2,[],金融保险服务;自动提款机;中国工商银行ATM,160302
武科东二路11号附4号,武侯区,[],[],3,成都市,[],B001C0AFYK,[],"103.989813,30.630338",中国工商银行24小时自助银行(成都武侯科技园支行),B001C0AFYJ,[],四川省,[],[],2,[],金融保险服务;自动提款机;中国工商银行ATM,160302
公平惠民路211号,温江区,[],[],[],成都市,[],B0FFF0F7DO,[],"103.860884,30.706467",中国工商银行24小时自助银行(温江区气象局东北),[],[],四川省,[],[],2,[],金融保险服务;自动提款机;中国工商银行ATM,160302
康兮路青城二十四院69号27栋1层1-2号,都江堰市,[],[],[],成都市,[],B001C8OL4D,[],"103.622210,30.974562",中国工商银行24小时自助银行(安轻路支行),[],[],四川省,[],[],2,[],金融保险服务;自动提款机;中国工商银行ATM,160302
天府中路37号,彭州市,[],[],3,成都市,[],B001C7VRBK,[],"103.943707,30.978329",中国工商银行24小时自助银行(外南分理处),B001C7VRBJ,[],四川省,[],[],2,[],金融保险服务;自动提款机;中国工商银行ATM,160302
牧电路9号附6号,青羊区,[],[],[],成都市,[],B0FFGZY0HO,[],"104.033577,30.666045",中国工商银行24小时自助银行(牧电路),[],[],四川省,[],[],2,[],金融保险服务;自动提款机;中国工商银行ATM,160302
琉璃路305号(东湖国际),锦江区,[],[],[],成都市,[],B001C8VJNC,[],"104.093261,30.615823",中国工商银行24小时自助银行(琉璃路),[],[],四川省,[],[],2,[],金融保险服务;自动提款机;中国工商银行ATM,160302
双荆路99-101号,成华区,[],[],3,成都市,[],B001C8P5YE,[],"104.095739,30.708467",中国工商银行24小时自助银行(双荆路支行),B001C8P6RI,[],四川省,[],[],2,[],金融保险服务;自动提款机;中国工商银行ATM,160302
解放路一段18号,金牛区,[],[],3,成都市,[],B001C7VRBI,[],"104.084739,30.685065",中国工商银行24小时自助银行(外北支行),B001C7VRBH,[],四川省,[],[],2,[],金融保险服务;自动提款机;中国工商银行ATM,160302
十二桥路21号,金牛区,[],[],[],成都市,[],B001C0AFZ3,[],"104.045495,30.663921",中国工商银行24小时自助银行(新罗路分理处),[],[],四川省,[],[],2,[],金融保险服务;自动提款机;中国工商银行ATM,160302
蜀州中路374-380号,崇州市,[],[],[],成都市,[],B0FFF3ABJN,[],"103.668836,30.623829",中国工商银行24小时自助银行(崇州蜀州中路支行),[],[],四川省,[],[],2,[],金融保险服务;自动提款机;中国工商银行ATM,160302
湖滨路268号,新都区,[],[],[],成都市,[],B001C92AE7,[],"104.159072,30.817700",中国工商银行24小时自助银行(湖滨路),[],[],四川省,[],[],2,[],金融保险服务;自动提款机;中国工商银行ATM,160302
黄田坝高坎村三组310号,青羊区,[],[],[],成都市,[],B0FFGSRK37,[],"103.950105,30.707951",中国工商银行自助银行(成都草市川大华西卫校),[],[],四川省,[],[],2,[],金融保险服务;自动提款机;中国工商银行ATM,160302
二环路北一段85号附20-26号,金牛区,[],[],3,成都市,[],B001C80FA3,[],"104.044644,30.694021",中国工商银行24小时自助银行(成都二环路北一段支行),B001C80FA2,[],四川省,[],[],2,[],金融保险服务;自动提款机;中国工商银行ATM,160302
广场路北一段114-122,金牛区,[],[],3,成都市,[],B001C8R8FK,[],"103.950620,30.780970",中国工商银行24小时自助银行,B001C8R8FH,[],四川省,[],[],2,[],金融保险服务;自动提款机;中国工商银行ATM,160302
犀浦街道兴业街南段118号,郫都区,[],[],3,成都市,[],B001C0AFV8,[],"103.971172,30.749403",中国工商银行24小时自助银行(创业路支行),B001C0AFV7,[],四川省,[],[],2,[],金融保险服务;自动提款机;中国工商银行ATM,160302
中和大道中段99号卡斯摩广场19栋1楼,双流区,[],[],[],成都市,[],B0FFFEAYTL,[],"104.085877,30.548464",中国工商银行24小时自助银行(成都高新中和大道二段自助银行),[],[],四川省,[],[],2,[],金融保险服务;自动提款机;中国工商银行ATM,160302
橡树林路90号,锦江区,[],[],[],成都市,[],B001C8P7N3,[],"104.093104,30.623857",中国工商银行24小时自助银行(橡树林路),[],[],四川省,[],[],2,[],金融保险服务;自动提款机;中国工商银行ATM,160302
西南市街113号,彭州市,[],[],[],成都市,[],B0FFFGLQOR,[],"103.939113,30.982044",中国工商银行24小时自助银行(西南市街),[],[],四川省,[],[],2,[],金融保险服务;自动提款机;中国工商银行ATM,160302
滨江路一段29号现代商住小区31-32号,金堂县,[],[],3,成都市,[],B001C80KKM,[],"104.428819,30.849178",中国工商银行24小时自助银行(滨江路支行),B001C0AFU8,[],四川省,[],[],2,[],金融保险服务;自动提款机;中国工商银行ATM,160302
鹭岛路15-19号,武侯区,[],[],3,成都市,[],B001C7XYTT,[],"104.012620,30.644930",中国工商银行24小时自助银行(鹭岛支行),B001C7VRB9,[],四川省,[],[],2,[],金融保险服务;自动提款机;中国工商银行ATM,160302
广场路,简阳市,[],[],[],成都市,[],B0340012GP,[],"104.541958,30.384473",中国工商银行24小时自助银行(阳晨分理处),[],[],四川省,[],[],2,[],金融保险服务;自动提款机;中国工商银行ATM,160302
罗家碾街31号1幢,青羊区,[],[],[],成都市,[],B0FFGCBKIO,[],"104.029308,30.674691",中国工商银行24小时自助银行(大庆路),[],[],四川省,[],[],2,[],金融保险服务;自动提款机;中国工商银行ATM,160302
建设北路三段289号附13-附19号,成华区,[],[],3,成都市,[],B001C7WQWH,[],"104.124163,30.680250",中国工商银行24小时自助银行(成都二仙桥支行),B0FFF3Z3FY,[],四川省,[],[],2,[],金融保险服务;自动提款机;中国工商银行ATM,160302
建设北路二段4号电子科技大学沙河校区内,成华区,[],[],[],成都市,[],B0FFG34VFA,[],"104.099779,30.677408",中国工商银行ATM(学生公寓13栋西南),[],[],四川省,[],[],2,[],金融保险服务;自动提款机;中国工商银行ATM,160302
五津西路133号,新津区,[],[],[],成都市,[],B001C8R8AX,[],"103.806237,30.415249",中国工商银行24小时自助银行(惠安路),[],[],四川省,[],[],2,[],金融保险服务;自动提款机;中国工商银行ATM,160302
槐树街51号附6-8号,青羊区,[],[],3,成都市,[],B001C7YQ9V,[],"104.052261,30.670173",中国工商银行24小时自助银行(春熙支行),B001C7YQ9U,[],四川省,[],[],2,[],金融保险服务;自动提款机;中国工商银行ATM,160302
科园南路93临附近,武侯区,[],[],[],成都市,[],B0FFFPU0VX,[],"104.030479,30.616029",中国工商银行ATM(科园南路),[],[],四川省,[],[],2,[],金融保险服务;自动提款机;中国工商银行ATM,160302
金福路140号附近,青羊区,[],[],[],成都市,[],B0FFFDXCTB,[],"103.974601,30.688980",中国工商银行24小时自助银行(清河分理处),[],[],四川省,[],[],2,[],金融保险服务;自动提款机;中国工商银行ATM,160302
南三环路五段188号美洲花园101栋1层8号,武侯区,[],[],[],成都市,[],B001C94OZN,[],"104.038032,30.600823",中国工商银行24小时自助银行(美洲北路),[],[],四川省,[],[],2,[],金融保险服务;自动提款机;中国工商银行ATM,160302
清江东路362号附3号,青羊区,[],[],3,成都市,[],B001C0AFVW,[],"104.023217,30.670255",中国工商银行24小时自助银行(峨影支行),B001C06AUE,[],四川省,[],[],2,[],金融保险服务;自动提款机;中国工商银行ATM,160302
简城镇北街90号,简阳市,[],[],3,成都市,[],B03400MO3F,[],"104.547709,30.394002",中国工商银行24小时自助银行(简阳支行营业室),B034000XUU,[],四川省,[],[],2,[],金融保险服务;自动提款机;中国工商银行ATM,160302
实业街9号附1号,青羊区,[],[],3,成都市,[],B001C7Y7N1,[],"104.055307,30.665265",中国工商银行24小时自助银行(成都实业街支行),B001C0AFXU,[],四川省,[],[],2,[],金融保险服务;自动提款机;中国工商银行ATM,160302
指挥街38-40号,锦江区,[],[],3,成都市,[],B001C0AFZF,[],"104.067373,30.649971",中国工商银行24小时自助银行(指挥街支行),B001C060P6,[],四川省,[],[],2,[],金融保险服务;自动提款机;中国工商银行ATM,160302
天仁路381-385号,武侯区,[],[],[],成都市,[],B0FFF33WVW,[],"104.069075,30.601947",中国工商银行24小时自助银行(天仁路支行),[],[],四川省,[],[],2,[],金融保险服务;自动提款机;中国工商银行ATM,160302
一环路南一段57号附1号,武侯区,[],[],202,成都市,[],B0FFH7WVG8,[],"104.077400,30.634481",中国工商银行24小时自助银行(东大支行营业室),B001C7V8MK,[],四川省,[],[],2,[],金融保险服务;自动提款机;中国工商银行ATM,160302
简城镇政府街148-156号,简阳市,[],[],3,成都市,[],B03400MNZ9,[],"104.548535,30.390256",中国工商银行24小时自助银行(简阳政府街分理处),B0340000FC,[],四川省,[],[],2,[],金融保险服务;自动提款机;中国工商银行ATM,160302
金府路799号金府国际一期1栋1单元5号,金牛区,[],[],202,成都市,[],B001C8NP2P,[],"104.043435,30.717515",中国工商银行24小时自助银行(金府路支行),B0FFG7Q2HG,[],四川省,[],[],2,[],金融保险服务;自动提款机;中国工商银行ATM,160302
锦东路555号附11号,锦江区,[],[],3,成都市,[],B001C7VRB5,[],"104.105818,30.640324",中国工商银行24小时自助银行(牛市口分理处),B001C7VRB4,[],四川省,[],[],2,[],金融保险服务;自动提款机;中国工商银行ATM,160302
建材路527号,龙泉驿区,[],[],[],成都市,[],B0FFGHOO37,[],"104.275398,30.576314",中国工商银行24小时自助银行(建材路499号院西北),[],[],四川省,[],[],2,[],金融保险服务;自动提款机;中国工商银行ATM,160302
通盈街753-755号,锦江区,[],[],[],成都市,[],B001C8P6J2,[],"104.111078,30.628441",中国工商银行24小时自助银行(通盈街),[],[],四川省,[],[],2,[],金融保险服务;自动提款机;中国工商银行ATM,160302
物流大道88号招商楼1层,新都区,[],[],3,成都市,[],B001C80KP2,[],"104.132316,30.795129",中国工商银行24小时自助银行(物流大道支行),B001C80KZI,[],四川省,[],[],2,[],金融保险服务;自动提款机;中国工商银行ATM,160302
东坡路423-431号,青羊区,[],[],3,成都市,[],B001C7WEIV,[],"103.993810,30.661057",中国工商银行24小时自助银行(东坡大道支行),B001C7WEIU,[],四川省,[],[],2,[],金融保险服务;自动提款机;中国工商银行ATM,160302
解放路二段4号附1,金牛区,[],[],3,成都市,[],B001C7UAMI,[],"104.079385,30.677223",中国工商银行24小时自助银行(簸箕街支行),B001C0AFZS,[],四川省,[],[],2,[],金融保险服务;自动提款机;中国工商银行ATM,160302
金福路367-375号,青羊区,[],[],3,成都市,[],B001C805LA,[],"103.986089,30.678627",中国工商银行24小时自助银行(金福路支行),B001C805L9,[],四川省,[],[],2,[],金融保险服务;自动提款机;中国工商银行ATM,160302
广福桥北街6号附16-附20,武侯区,[],[],[],成都市,[],B0FFH8MPML,[],"104.034836,30.641409",中国工商银行24小时自助银行(广福桥北街支行),[],[],四川省,[],[],2,[],金融保险服务;自动提款机;中国工商银行ATM,160302
桐梓林北路10号附1号,武侯区,[],[],3,成都市,[],B0FFFFK2OD,[],"104.062457,30.616406",中国工商银行24小时自助银行(桐梓林北街支行),B001C7URQ7,[],四川省,[],[],2,[],金融保险服务;自动提款机;中国工商银行ATM,160302
外北街7号,都江堰市,[],[],[],成都市,[],B001C8OMRL,[],"103.622362,31.001810",中国工商银行24小时自助银行(外北街),[],[],四川省,[],[],2,[],金融保险服务;自动提款机;中国工商银行ATM,160302
东升三强东路一段9-13号,双流区,[],[],3,成都市,[],B001C80J69,[],"103.928988,30.568993",中国工商银行24小时自助银行(三强东路支行),B001C7YOA8,[],四川省,[],[],2,[],金融保险服务;自动提款机;中国工商银行ATM,160302
永兴路37-39号(永辉超市旁),温江区,[],[],[],成都市,[],B0FFF2RE0Z,[],"103.854277,30.686514",中国工商银行24小时自助银行(永兴路),[],[],四川省,[],[],2,[],金融保险服务;自动提款机;中国工商银行ATM,160302
琴台路10-16号,青羊区,[],[],3,成都市,[],B001C0AFUW,[],"104.045015,30.658058",中国工商银行24小时自助银行(青羊宫支行),B001C06FQO,[],四川省,[],[],2,[],金融保险服务;自动提款机;中国工商银行ATM,160302
蜀汉路333号附2号,金牛区,[],[],3,成都市,[],B001C0AFVL,[],"104.016986,30.690953",中国工商银行ATM(东电集团分理处),B001C0AFVK,[],四川省,[],[],2,[],金融保险服务;自动提款机;中国工商银行ATM,160302
提督街50号,锦江区,[],[],3,成都市,[],B001C7WHV6,[],"104.074731,30.659734",中国工商银行24小时自助银行(成都提督街支行),B001C7WHV5,[],四川省,[],[],2,[],金融保险服务;自动提款机;中国工商银行ATM,160302
双桥路与双桥路南二街交叉口北50米,成华区,[],[],[],成都市,[],B0FFGC45GV,[],"104.109509,30.648927",中国工商银行24小时自助银行(双桥路),[],[],四川省,[],[],2,[],金融保险服务;自动提款机;中国工商银行ATM,160302
科华中路9号王府井百货1F层,武侯区,[],[],201,成都市,[],B0FFF3GC68,[],"104.076552,30.618759",中国工商银行ATM(王府井百货),B001C80PPV,[],四川省,[],[],2,[],金融保险服务;自动提款机;中国工商银行ATM,160302
净居寺南街56号之附1-附2号,锦江区,[],[],3,成都市,[],B001C8PLBB,[],"104.103568,30.622269",中国工商银行24小时自助银行(净居寺南街支行),B001C8PLTO,[],四川省,[],[],2,[],金融保险服务;自动提款机;中国工商银行ATM,160302
双庆路99号附9-14号,成华区,[],[],3,成都市,[],B001C8MONY,[],"104.115487,30.652564",中国工商银行24小时自助银行(万年场支行),B001C8MONZ,[],四川省,[],[],2,[],金融保险服务;自动提款机;中国工商银行ATM,160302
瑞星路99号附26-28号,青羊区,[],[],3,成都市,[],B001C80CB0,[],"103.995406,30.667211",中国工商银行24小时自助银行(瑞星路支行),B001C80CAZ,[],四川省,[],[],2,[],金融保险服务;自动提款机;中国工商银行ATM,160302
科华北路58号附3号,武侯区,[],[],3,成都市,[],B001C7VRA9,[],"104.076243,30.625084",中国工商银行24小时自助银行(成都棕北支行),B001C7VRA8,[],四川省,[],[],2,[],金融保险服务;自动提款机;中国工商银行ATM,160302
望丛西路299号附近,郫都区,[],[],[],成都市,[],B0FFG7GV7L,[],"103.881065,30.814822",中国工商银行24小时自助银行(西江苑东南),[],[],四川省,[],[],2,[],金融保险服务;自动提款机;中国工商银行ATM,160302
中柏路169号附6-附8,双流区,[],[],[],成都市,[],B0FFFODOZL,[],"104.094178,30.555600",中国工商银行24小时自助银行(高新支行),[],[],四川省,[],[],2,[],金融保险服务;自动提款机;中国工商银行ATM,160302
解放路一段75号附8号,金牛区,[],[],[],成都市,[],B0FFFAC7ZJ,[],"104.087468,30.688253",中国工商银行24小时自助银行(解放路一段),[],[],四川省,[],[],2,[],金融保险服务;自动提款机;中国工商银行ATM,160302
肖家村二巷96号,金牛区,[],[],[],成都市,[],B0FFF2EIGT,[],"104.075922,30.687847",中国工商银行24小时自助银行(草市铁路支行),[],[],四川省,[],[],2,[],金融保险服务;自动提款机;中国工商银行ATM,160302
金耀路15号,金牛区,[],[],[],成都市,[],B001C94P33,[],"104.013294,30.706687",中国工商银行24小时自助银行(蜀跃路),[],[],四川省,[],[],2,[],金融保险服务;自动提款机;中国工商银行ATM,160302
晋阳路215号之附9-12号,武侯区,[],[],3,成都市,[],B001C7YPHN,[],"103.999639,30.649849",中国工商银行24小时自助银行(晋康街分理处),B001C7YPH5,[],四川省,[],[],2,[],金融保险服务;自动提款机;中国工商银行ATM,160302
桐梓林南路12号,武侯区,[],[],3,成都市,[],B001C7Y77C,[],"104.057847,30.611917",中国工商银行24小时自助银行(林南路支行),B001C7Y9XJ,[],四川省,[],[],2,[],金融保险服务;自动提款机;中国工商银行ATM,160302
科华街1号附3号,武侯区,[],[],3,成都市,[],B001C7WGN9,[],"104.079630,30.623485",中国工商银行24小时自助银行(九眼桥支行),B001C7UQHG,[],四川省,[],[],2,[],金融保险服务;自动提款机;中国工商银行ATM,160302
科华南路3号附20号,武侯区,[],[],3,成都市,[],B001C7WGCU,[],"104.077807,30.609098",中国工商银行24小时自助银行(科华南路支行),B001C7WGCT,[],四川省,[],[],2,[],金融保险服务;自动提款机;中国工商银行ATM,160302
东大街65号,郫都区,[],[],3,成都市,[],B001C7VRBS,[],"103.888122,30.808070",中国工商银行24小时自助银行(郫都支行营业室),B001C0AFZP,[],四川省,[],[],2,[],金融保险服务;自动提款机;中国工商银行ATM,160302
北大街230附近,彭州市,[],[],[],成都市,[],B001C7U1NH,[],"103.942675,30.988736",中国工商银行24小时自助银行(金彭中路储蓄所),[],[],四川省,[],[],2,[],金融保险服务;自动提款机;中国工商银行ATM,160302
东城根上街93号(桂楼大厦1层),青羊区,[],[],3,成都市,[],B001C0AFVF,[],"104.060281,30.661294",中国工商银行24小时自助银行(东城根街支行),B001C05HXE,[],四川省,[],[],2,[],金融保险服务;自动提款机;中国工商银行ATM,160302
德通桥路121号、和平路382号、384号、386号,温江区,[],[],[],成都市,[],B0FFG7RQ6B,[],"103.821690,30.695179",中国工商银行24小时自助银行(德通桥分理处),[],[],四川省,[],[],2,[],金融保险服务;自动提款机;中国工商银行ATM,160302
水杉街176-180,锦江区,[],[],[],成都市,[],B0FFFCVN4O,[],"104.126665,30.603209",中国工商银行24小时自助银行(水杉街支行),[],[],四川省,[],[],2,[],金融保险服务;自动提款机;中国工商银行ATM,160302
罗家碾街31号附27号,青羊区,[],[],[],成都市,[],B001C8VJNF,[],"104.026591,30.672788",中国工商银行24小时自助银行(罗家碾街),[],[],四川省,[],[],2,[],金融保险服务;自动提款机;中国工商银行ATM,160302
三江路248号附近,金堂县,[],[],[],成都市,[],B0FFGHQRHP,[],"104.435574,30.858432",中国工商银行24小时自助银行(幸福横路),[],[],四川省,[],[],2,[],金融保险服务;自动提款机;中国工商银行ATM,160302
迎宾路132-138号,都江堰市,[],[],3,成都市,[],B001C8OLRR,[],"103.637572,30.982965",中国工商银行24小时自助银行(迎宾大道支行),B001C8OLAP,[],四川省,[],[],2,[],金融保险服务;自动提款机;中国工商银行ATM,160302
太平寺路7-2号,武侯区,[],[],[],成都市,[],B0FFHGBT23,[],"104.030140,30.601008",中国工商银行24小时自助银行(太平寺路),[],[],四川省,[],[],2,[],金融保险服务;自动提款机;中国工商银行ATM,160302
武青北路21号附1号,武侯区,[],[],[],成都市,[],B0FFF2XC9B,[],"103.976799,30.659275",中国工商银行24小时自助银行(武青北路支行),[],[],四川省,[],[],2,[],金融保险服务;自动提款机;中国工商银行ATM,160302
华府大道一段848-856号,双流区,[],[],3,成都市,[],B001C8R8F4,[],"104.051787,30.526900",中国工商银行24小时自助银行(华府大道支行),B001C8OO27,[],四川省,[],[],2,[],金融保险服务;自动提款机;中国工商银行ATM,160302
成飞大道英国小镇小区C079号,青羊区,[],[],3,成都市,[],B001C8N3FC,[],"103.964461,30.689098",中国工商银行24小时自助银行(成飞大道支行),B001C807VJ,[],四川省,[],[],2,[],金融保险服务;自动提款机;中国工商银行ATM,160302
龙工南路777号2栋1楼1号、2号、3号、4号,龙泉驿区,[],[],[],成都市,[],B0FFIIUXO5,[],"104.255889,30.541983",中国工商银行24小时自助银行(鲸龙路),[],[],四川省,[],[],2,[],金融保险服务;自动提款机;中国工商银行ATM,160302
培风路80号12栋一层4号,青羊区,[],[],202,成都市,[],B0FFFRYEK0,[],"103.979625,30.663853",中国工商银行24小时自助银行(培风路),B0FFFPCQTY,[],四川省,[],[],2,[],金融保险服务;自动提款机;中国工商银行ATM,160302
五福路69号,温江区,[],[],[],成都市,[],B0FFHLWFI3,[],"103.872426,30.670543",中国工商银行24小时自助银行,[],[],四川省,[],[],2,[],金融保险服务;自动提款机;中国工商银行ATM,160302
大东街17-37号,崇州市,[],[],3,成都市,[],B001C0AFV6,[],"103.673581,30.629033",中国工商银行24小时自助银行(崇州支行营业室),B001C0AFV5,[],四川省,[],[],2,[],金融保险服务;自动提款机;中国工商银行ATM,160302
东升街道办棠湖南路二段9-13号,双流区,[],[],[],成都市,[],B001C924WZ,[],"103.919319,30.567752",中国工商银行24小时自助银行(棠湖南路二段),[],[],四川省,[],[],2,[],金融保险服务;自动提款机;中国工商银行ATM,160302
星河路96-13号附近,金牛区,[],[],[],成都市,[],B0FFG352UU,[],"104.048323,30.707289",中国工商银行24小时自助银行,[],[],四川省,[],[],2,[],金融保险服务;自动提款机;中国工商银行ATM,160302
蜀辉路1-7号,青羊区,[],[],3,成都市,[],B001C80DV7,[],"103.996995,30.677658",中国工商银行24小时自助银行(蜀辉路支行),B001C80DV6,[],四川省,[],[],2,[],金融保险服务;自动提款机;中国工商银行ATM,160302
二环路西二段66号附1号,青羊区,[],[],202,成都市,[],B001C7UCEK,[],"104.026367,30.677967",中国工商银行24小时自助银行(清溪支行),B001C7WJQA,[],四川省,[],[],2,[],金融保险服务;自动提款机;中国工商银行ATM,160302
昭觉寺南路与荆竹中路交叉口东100米,成华区,[],[],[],成都市,[],B0FFFZBT09,[],"104.104361,30.713893",中国工商银行24小时自助银行(昭觉南路支行),[],[],四川省,[],[],2,[],金融保险服务;自动提款机;中国工商银行ATM,160302
长城西一路158、160、162号,武侯区,[],[],3,成都市,[],B001C8O3IC,[],"104.030892,30.633025",中国工商银行24小时自助银行(长城西一路支行),B001C8O6UF,[],四川省,[],[],2,[],金融保险服务;自动提款机;中国工商银行ATM,160302
四川大学西区综合楼(一环路南三段),武侯区,[],[],[],成都市,[],B001C7Y9AS,[],"104.079223,30.633260",中国工商银行ATM(四川大学支行),[],[],四川省,[],[],2,[],金融保险服务;自动提款机;中国工商银行ATM,160302
龙平路102号成都人民商场F1层,龙泉驿区,[],[],201,成都市,[],B0FFFACAIY,[],"104.266119,30.563357",中国工商银行24小时自助银行(亚热带商城东北),B001C80559,[],四川省,[],[],2,[],金融保险服务;自动提款机;中国工商银行ATM,160302
太平街229号,都江堰市,[],[],[],成都市,[],B001C9298P,[],"103.626235,30.989434",中国工商银行24小时自助银行(太平街),[],[],四川省,[],[],2,[],金融保险服务;自动提款机;中国工商银行ATM,160302
文昌路4号附近,武侯区,[],[],[],成都市,[],B0FFGFU26U,[],"103.996233,30.597889",中国工商银行24小时自助银行(簇桥支行),[],[],四川省,[],[],2,[],金融保险服务;自动提款机;中国工商银行ATM,160302
晨辉路6号1栋1层3-5号,锦江区,[],[],3,成都市,[],B001C7WQVL,[],"104.100506,30.611164",中国工商银行24小时自助银行(晨辉路支行),B001C7WQVK,[],四川省,[],[],2,[],金融保险服务;自动提款机;中国工商银行ATM,160302
金盾路52号附1号,青羊区,[],[],[],成都市,[],B0FFFZJGK6,[],"104.061404,30.654345",中国工商银行24小时自助银行(成都陕西街支行),[],[],四川省,[],[],2,[],金融保险服务;自动提款机;中国工商银行ATM,160302
石羊场路与锦晖西三街交叉路口东北侧,武侯区,[],[],[],成都市,[],B0FFJKTLP1,[],"104.044470,30.586312",中国工商银行24小时自助银行,[],[],四川省,[],[],2,[],金融保险服务;自动提款机;中国工商银行ATM,160302
科兴路与科兴路东段交叉口西南50米,温江区,[],[],[],成都市,[],B0FFITLA2Q,[],"103.825535,30.669948",中国工商银行24小时自助银行,[],[],四川省,[],[],2,[],金融保险服务;自动提款机;中国工商银行ATM,160302
长寿路4号之附2-附4号,武侯区,[],[],3,成都市,[],B001C7WG9Y,[],"104.074948,30.612171",中国工商银行24小时自助银行(长寿路支行),B001C05UUO,[],四川省,[],[],2,[],金融保险服务;自动提款机;中国工商银行ATM,160302
东大街65,郫都区,[],[],[],成都市,[],B0FFIWAWWT,[],"103.887935,30.808134",中国工商银行24小时自助银行(王府商业街),[],[],四川省,[],[],2,[],金融保险服务;自动提款机;中国工商银行ATM,160302
团结街道学院路67号理工大学广播影视学院,郫都区,[],[],[],成都市,[],B001C8OCFL,[],"103.980873,30.823042",中国工商银行ATM(鸿盛花园东北),[],[],四川省,[],[],2,[],金融保险服务;自动提款机;中国工商银行ATM,160302
武侯大道双楠段36号附8-10号,武侯区,[],[],3,成都市,[],B001C7WQWV,[],"104.018642,30.638183",中国工商银行24小时自助银行(武侯大道支行),B001C05RNR,[],四川省,[],[],2,[],金融保险服务;自动提款机;中国工商银行ATM,160302
新义路3号11号楼,武侯区,[],[],3,成都市,[],B001C7UTZ1,[],"104.040506,30.604017",中国工商银行24小时自助银行(新义路支行),B001C7UTZ2,[],四川省,[],[],2,[],金融保险服务;自动提款机;中国工商银行ATM,160302
益州大道中段1256号,武侯区,[],[],[],成都市,[],B0FFF3AE9R,[],"104.056367,30.544835",中国工商银行24小时自助银行(成都银泰中心西北),[],[],四川省,[],[],2,[],金融保险服务;自动提款机;中国工商银行ATM,160302
来凤路376-378号,温江区,[],[],3,成都市,[],B001C7YOOV,[],"103.826735,30.699705",中国工商银行24小时自助银行(来凤路支行),B001C7YOOU,[],四川省,[],[],2,[],金融保险服务;自动提款机;中国工商银行ATM,160302
凤溪大道中段97号附6-7号,温江区,[],[],[],成都市,[],B001C7VRBP,[],"103.842189,30.689316",中国工商银行24小时自助银行,[],[],四川省,[],[],2,[],金融保险服务;自动提款机;中国工商银行ATM,160302
大弯中路3-19,青白江区,[],[],3,成都市,[],B001C7VRAY,[],"104.269286,30.876057",中国工商银行24小时自助银行(大弯中路支行),B001C7VRAX,[],四川省,[],[],2,[],金融保险服务;自动提款机;中国工商银行ATM,160302
天府二街1268号,武侯区,[],[],[],成都市,[],B0FFG7IWHK,[],"104.038656,30.551466",中国工商银行24小时自助银行(建发・天府鹭洲东南),[],[],四川省,[],[],2,[],金融保险服务;自动提款机;中国工商银行ATM,160302
静康路190-206号,锦江区,[],[],3,成都市,[],B001C8OTC1,[],"104.115853,30.619400",中国工商银行24小时自助银行(静康路分理处),B001C8R7ZP,[],四川省,[],[],2,[],金融保险服务;自动提款机;中国工商银行ATM,160302
东升镇陕西街4号,双流区,[],[],[],成都市,[],B001C8MQ9H,[],"103.923295,30.571711",中国工商银行24小时自助银行(陕西街储蓄所),[],[],四川省,[],[],2,[],金融保险服务;自动提款机;中国工商银行ATM,160302
航空路6号附7号,武侯区,[],[],3,成都市,[],B001C7WGB7,[],"104.070254,30.616031",中国工商银行24小时自助银行(航空路支行),B001C7UR29,[],四川省,[],[],2,[],金融保险服务;自动提款机;中国工商银行ATM,160302
南大街与文庙巷交叉口东50米,郫都区,[],[],[],成都市,[],B0FFI79L1U,[],"103.886346,30.808650",中国工商银行24小时自助银行,[],[],四川省,[],[],2,[],金融保险服务;自动提款机;中国工商银行ATM,160302
书院街214号,郫都区,[],[],[],成都市,[],B0FFGCFC2R,[],"103.887514,30.804135",中国工商银行24小时自助银行(书院街),[],[],四川省,[],[],2,[],金融保险服务;自动提款机;中国工商银行ATM,160302
吉泰路598附近,武侯区,[],[],[],成都市,[],B0FFFODOGK,[],"104.064630,30.546617",中国工商银行24小时自助银行(天府三街支行),[],[],四川省,[],[],2,[],金融保险服务;自动提款机;中国工商银行ATM,160302
天乙街265-267号,都江堰市,[],[],[],成都市,[],B001C8QD81,[],"103.619629,30.989365",中国工商银行24小时自助银行(蒲阳路),[],[],四川省,[],[],2,[],金融保险服务;自动提款机;中国工商银行ATM,160302
天府大道北段18号,武侯区,[],[],[],成都市,[],B001C8O8H1,[],"104.065264,30.592744",中国工商银行24小时自助银行(天府大道支行),[],[],四川省,[],[],2,[],金融保险服务;自动提款机;中国工商银行ATM,160302
都江堰大道132号附2-3,都江堰市,[],[],3,成都市,[],B001C7ZWO1,[],"103.638883,30.989325",中国工商银行24小时自助银行(都江堰东门支行),B001C7ZWO0,[],四川省,[],[],2,[],金融保险服务;自动提款机;中国工商银行ATM,160302
赞元街113-115号,温江区,[],[],[],成都市,[],B001C7Y42N,[],"103.839233,30.696685",中国工商银行ATM,[],[],四川省,[],[],2,[],金融保险服务;自动提款机;中国工商银行ATM,160302
郫筒镇南大街159号,郫都区,[],[],[],成都市,[],B001C0AFYG,[],"103.884069,30.807548",中国工商银行24小时自助银行(望丛分理处),[],[],四川省,[],[],2,[],金融保险服务;自动提款机;中国工商银行ATM,160302
二环路北三段388号,金牛区,[],[],202,成都市,[],B001C7WQWJ,[],"104.078764,30.693870",中国工商银行ATM,B001C03D32,[],四川省,[],[],2,[],金融保险服务;自动提款机;中国工商银行ATM,160302
成都航天医院第一住院楼,龙泉驿区,[],[],[],成都市,[],B0FFHN2B43,[],"104.263062,30.546877",中国工商银行24小时自助银行,[],[],四川省,[],[],2,[],金融保险服务;自动提款机;中国工商银行ATM,160302
东街124号,大邑县,[],[],3,成都市,[],B001C8NQVV,[],"103.525678,30.586621",中国工商银行24小时自助银行(大邑支行),B001C8NQCX,[],四川省,[],[],2,[],金融保险服务;自动提款机;中国工商银行ATM,160302
华金大道二段269-273号,青白江区,[],[],3,成都市,[],B001C7VRAT,[],"104.262426,30.883567",中国工商银行24小时自助银行(华金大道支行),B001C0AFWG,[],四川省,[],[],2,[],金融保险服务;自动提款机;中国工商银行ATM,160302
大件路文星段168号西南民族大学双流校区,双流区,[],[],[],成都市,[],B0FFFA5LB0,[],"103.967327,30.563480",中国工商银行ATM(红杏大道),[],[],四川省,[],[],2,[],金融保险服务;自动提款机;中国工商银行ATM,160302
金彭西路361-363号1层,彭州市,[],[],[],成都市,[],B0FFIITL5N,[],"103.933163,30.987856",中国工商银行24小时自助银行(金彭西路),[],[],四川省,[],[],2,[],金融保险服务;自动提款机;中国工商银行ATM,160302
航天路106附近,温江区,[],[],[],成都市,[],B0FFFACTOQ,[],"103.841320,30.692479",中国工商银行24小时自助银行(航天路),[],[],四川省,[],[],2,[],金融保险服务;自动提款机;中国工商银行ATM,160302
机场路成都双流国际机场3F层,双流区,[],[],201,成都市,[],B0FFGF9I8K,[],"103.954672,30.567510",中国工商银行ATM(成都双流国际机场),B001C06GIA,[],四川省,[],[],2,[],金融保险服务;自动提款机;中国工商银行ATM,160302
花园街118号,简阳市,[],[],[],成都市,[],B0FFIAXDIQ,[],"104.546286,30.389525",中国工商银行24小时自助银行(成都简阳简城镇花园街),[],[],四川省,[],[],2,[],金融保险服务;自动提款机;中国工商银行ATM,160302
武阳中路35号附10,新津区,[],[],3,成都市,[],B001C7YQF5,[],"103.812829,30.411144",中国工商银行24小时自助银行(武阳路支行),B001C7YQF4,[],四川省,[],[],2,[],金融保险服务;自动提款机;中国工商银行ATM,160302
昭觉寺横路99号附7-9号,成华区,[],[],3,成都市,[],B001C7YQ16,[],"104.105408,30.701268",中国工商银行24小时自助银行(成都昭觉横街分理处),B001C7YQ15,[],四川省,[],[],2,[],金融保险服务;自动提款机;中国工商银行ATM,160302
二环路东五段5号,锦江区,[],[],3,成都市,[],B001C7WGP5,[],"104.098991,30.626603",中国工商银行24小时自助银行(龙舟路支行),B001C05HRY,[],四川省,[],[],2,[],金融保险服务;自动提款机;中国工商银行ATM,160302
蜀辉路1-7号,青羊区,[],[],[],成都市,[],B001C80DV6,[],"103.997188,30.677664",中国工商银行(蜀辉路分理处)(装修中),[],[],四川省,[],[],2,028-61967239;028-61967029,金融保险服务;银行;中国工商银行,160105
青龙街25号附1号,青羊区,[],[],3,成都市,[],B001C7WQVW,[],"104.064894,30.669714",中国工商银行24小时自助银行(青龙支行营业室)(装修中),B001C7WQVV,[],四川省,[],[],2,[],金融保险服务;自动提款机;中国工商银行ATM,160302
长安大道522号附16-附20,邛崃市,[],[],3,成都市,[],B001C8O36O,[],"103.477581,30.402977",中国工商银行24小时自助银行(长安大道支行)(暂停营业),B001C8NZVQ,[],四川省,[],[],2,[],金融保险服务;自动提款机;中国工商银行ATM,160302
建设北路一段76号,成华区,[],[],3,成都市,[],B001C0AFZD,[],"104.090671,30.670328",中国工商银行24小时自助银行(成都游乐园支行)(暂停营业),B001C0AFZC,[],四川省,[],[],2,[],金融保险服务;自动提款机;中国工商银行ATM,160302
一环路西三段129号,金牛区,[],[],[],成都市,[],B001C929X8,[],"104.041947,30.677563",中国工商银行24小时自助银行(一环路西三段)(装修中),[],[],四川省,[],[],2,[],金融保险服务;自动提款机;中国工商银行ATM,160302
港通北三路1899号成都工贸职业技术学院,郫都区,[],[],[],成都市,[],B0FFGLE5ZQ,[],"103.959859,30.791798",中国工商银行24小时自助银行(广场路北三段)(暂停营业),[],[],四川省,[],[],2,[],金融保险服务;自动提款机;中国工商银行ATM,160302
桂湖西路32-34号,新都区,[],[],3,成都市,[],B001C0AFW7,[],"104.154666,30.822937",中国工商银行24小时自助银行(桂湖西路支行)(暂停营业),B001C0AFW6,[],四川省,[],[],2,[],金融保险服务;自动提款机;中国工商银行ATM,160302
锦里西路96号附1-附3,青羊区,[],[],3,成都市,[],B001C7WQW5,[],"104.046061,30.656431",中国工商银行24小时自助银行(西较场支行)(装修中),B001C7VR9U,[],四川省,[],[],2,[],金融保险服务;自动提款机;中国工商银行ATM,160302
三环路东二段华泰路33号,成华区,[],[],3,成都市,[],B001C8OE6U,[],"104.167223,30.692153",中国工商银行24小时自助银行(龙潭工业园区支行)(装修中),B001C8OFA3,[],四川省,[],[],2,[],金融保险服务;自动提款机;中国工商银行ATM,160302
赵镇十里大道一段339号,金堂县,[],[],[],成都市,[],B001C8R94A,[],"104.421718,30.856911",中国工商银行24小时自助银行(金堂支行营业部)(装修中),[],[],四川省,[],[],2,[],金融保险服务;自动提款机;中国工商银行ATM,160302
清江东路122号附2-5号,青羊区,[],[],3,成都市,[],B001C7YPKJ,[],"104.033851,30.668449",中国工商银行24小时自助银行(罗家碾支行)(装修中),B001C080T9,[],四川省,[],[],2,[],金融保险服务;自动提款机;中国工商银行ATM,160302
东明街2,双流区,[],[],3,成都市,[],B001C7YO3Z,[],"103.925316,30.573870",中国工商银行24小时自助银行(双流支行)(装修中),B001C7VR9W,[],四川省,[],[],2,[],金融保险服务;自动提款机;中国工商银行ATM,160302
杨桥路190,双流区,[],[],[],成都市,[],B0FFF2DXE9,[],"103.969004,30.531256",中国工商银行(杨桥路分理处),[],[],四川省,[],[],2,028-85690537,金融保险服务;银行;中国工商银行,160105
交大路203号附1-4号,金牛区,[],[],202,成都市,[],B001C0AFWL,[],"104.041359,30.706305",中国工商银行(交大路支行),B001C09KE9,[],四川省,[],[],2,028-87622372;028-87628525,金融保险服务;银行;中国工商银行,160105
北泉路409号附2号,龙泉驿区,[],[],[],成都市,[],B001C8NPFQ,[],"104.248887,30.568336",中国工商银行(驿泉路支行),[],[],四川省,[],[],2,028-84872873;028-84872516,金融保险服务;银行;中国工商银行,160105
花都大道769号,新都区,[],[],[],成都市,[],B001C8O87P,[],"104.060369,30.760661",中国工商银行(花都大道支行),[],[],四川省,[],[],2,028-83915608,金融保险服务;银行;中国工商银行,160105
武侯大道铁佛段金履四路2号(近邓小平广场),武侯区,[],[],[],成都市,[],B001C95AAP,[],"103.987931,30.610240",中国工商银行(金履四路支行),[],[],四川省,[],[],2,028-69390810,金融保险服务;银行;中国工商银行,160105
文光路9号,青羊区,[],[],[],成都市,[],B001C807VJ,[],"103.964322,30.688895",中国工商银行(成飞大道支行),[],[],四川省,[],[],2,028-87071101;028-87079593;028-87409984,金融保险服务;银行;中国工商银行,160105
大弯中路51号,青白江区,[],[],[],成都市,[],B001C7VRAX,[],"104.269285,30.876263",中国工商银行(大弯中路支行),[],[],四川省,[],[],2,028-83301805;95588,金融保险服务;银行;中国工商银行,160105
中德・英伦城邦K区新程大道93号,双流区,[],[],[],成都市,[],B0FFMDBOQL,[],"104.074136,30.504085",中国工商银行(新程大道支行),[],[],四川省,[],[],2,028-61103100,金融保险服务;银行;中国工商银行,160105
玫瑰街64、66号(春树街623、625、627号),锦江区,[],[],[],成都市,[],B0FFLKIVFS,[],"104.154511,30.602163",中国工商银行(成都玫瑰街支行),[],[],四川省,[],[],2,028-60217355;028-60217359,金融保险服务;银行;中国工商银行,160105
阳光街18号112,金牛区,[],[],202,成都市,[],B001C8P712,[],"103.981220,30.721134",中国工商银行(蜀西路支行),B001C8QJIY,[],四川省,[],[],2,028-86797105;028-86797051,金融保险服务;银行;中国工商银行,160105
金科南路1号,金牛区,[],[],[],成都市,[],B001C807VL,[],"103.994116,30.712781",中国工商银行(西部园区支行),[],[],四川省,[],[],2,028-87509756;028-95588,金融保险服务;银行;中国工商银行,160105
建设北路一段76号通美大厦内,成华区,[],[],202,成都市,[],B001C0AFZC,[],"104.090680,30.670330",中国工商银行(游乐园支行),B001C04BE1,[],四川省,[],[],2,028-83370469;028-83378760;95588,金融保险服务;银行;中国工商银行,160105
"东大街下东大街段216号花样年.喜年广场1栋1楼1,2号",锦江区,[],[],[],成都市,[],B001C8OOW4,[],"104.082922,30.649844",中国工商银行(东大街支行),[],[],四川省,[],[],2,028-86617901;028-86666830;028-95588,金融保险服务;银行;中国工商银行,160105
经一路217号,青羊区,[],[],[],成都市,[],B001C0AFWH,[],"103.965290,30.697812",中国工商银行(黄田坝支行),[],[],四川省,[],[],2,028-87415959,金融保险服务;银行;中国工商银行,160105
华府大道一段848-856号,双流区,[],[],202,成都市,[],B001C8OO27,[],"104.051990,30.526946",中国工商银行(华府大道支行),B0FFGB3V06,[],四川省,[],[],2,028-62580352;028-62580350,金融保险服务;银行;中国工商银行,160105
涌泉街道清泉北街31-35,温江区,[],[],[],成都市,[],B001C8MVT7,[],"103.877744,30.679263",中国工商银行(温泉大道支行),[],[],四川省,[],[],2,028-82601365,金融保险服务;银行;中国工商银行,160105
文井街345-351号,崇州市,[],[],[],成都市,[],B0FFGA3NN5,[],"103.660984,30.638840",中国工商银行24小时自助银行(成温邛公路),[],[],四川省,[],[],2,[],金融保险服务;自动提款机;中国工商银行ATM,160302
双庆路99号附9-14号,成华区,[],[],[],成都市,[],B001C8MONZ,[],"104.115416,30.652469",中国工商银行(成都万年场支行),[],[],四川省,[],[],2,028-84295019,金融保险服务;银行;中国工商银行,160105
经天路4号14幢附58号,锦江区,[],[],3,成都市,[],B001C7UREM,[],"104.102527,30.602939",中国工商银行24小时自助银行(芷泉支行经天路分理处),B001C7UREL,[],四川省,[],[],2,[],金融保险服务;自动提款机;中国工商银行ATM,160302
锦里西路96号附1-3号,青羊区,[],[],[],成都市,[],B001C7VR9U,[],"104.046066,30.656445",中国工商银行(西较场支行),[],[],四川省,[],[],2,028-86125320;028-86127612,金融保险服务;银行;中国工商银行,160105
均隆街17号交子公寓水岸银座底楼,锦江区,[],[],[],成都市,[],B001C0AFWV,[],"104.088541,30.650055",中国工商银行(均隆街支行),[],[],四川省,[],[],2,028-84435138;028-84439378,金融保险服务;银行;中国工商银行,160105
营门口路56-60号,金牛区,[],[],[],成都市,[],B001C06TZY,[],"104.042759,30.684050",中国工商银行(花牌坊支行),[],[],四川省,[],[],2,028-87734616;028-87735228;95588,金融保险服务;银行;中国工商银行,160105
滨江东路158号之附7号-附8,锦江区,[],[],[],成都市,[],B001C80NDF,[],"104.080539,30.644835",中国工商银行(滨江东路支行),[],[],四川省,[],[],2,028-83164612;028-85369425,金融保险服务;银行;中国工商银行,160105
青江东路185-201号,青白江区,[],[],[],成都市,[],B0FFG0W6VE,[],"104.259689,30.878430",中国工商银行(成都青白江支行),[],[],四川省,[],[],2,028-83301804;028-83305741;95588,金融保险服务;银行;中国工商银行,160105
东风路北一巷11号附2号,成华区,[],[],[],成都市,[],B001C7WQVN,[],"104.092421,30.652008",中国工商银行(成都东风路支行),[],[],四川省,[],[],2,028-84446783;95588,金融保险服务;银行;中国工商银行,160105
倪家桥路11号附5-6号,武侯区,[],[],[],成都市,[],B001C7VR9M,[],"104.058304,30.624994",中国工商银行(倪家桥支行),[],[],四川省,[],[],2,028-85371721;028-85554992;95588,金融保险服务;银行;中国工商银行,160105
小北街一巷附2号,新都区,[],[],[],成都市,[],B001C7U4H5,[],"104.161076,30.827042",中国工商银行(成都新都支行),[],[],四川省,[],[],2,028-83972021,金融保险服务;银行;中国工商银行,160105
水杉街蓝谷地1栋1层3-4号,锦江区,[],[],[],成都市,[],B0FFFCVN2D,[],"104.126742,30.603147",中国工商银行(水杉街支行),[],[],四川省,[],[],2,028-85925383;028-85925283,金融保险服务;银行;中国工商银行,160105
文昌路2号,武侯区,[],[],[],成都市,[],B0G0C5WTZZ,[],"103.996436,30.597773",中国工商银行(成都百锦支行),[],[],四川省,[],[],2,028-85020776;028-85028506,金融保险服务;银行;中国工商银行,160105
玉沙路142号,青羊区,[],[],[],成都市,[],B0G31NX3AL,[],"104.078732,30.667284",中国工商银行(玉沙路分理处),[],[],四川省,[],[],2,95588,金融保险服务;银行;中国工商银行,160105
九江镇蛟龙工业港蛟龙大道53-57号,双流区,[],[],202,成都市,[],B001C8083U,[],"103.910914,30.604950",中国工商银行(双流蛟龙支行),B0FFF2VYQ4,[],四川省,[],[],2,028-85739051,金融保险服务;银行;中国工商银行,160105
广场路C9栋,简阳市,[],[],[],成都市,[],B0FFFTLWVP,[],"104.542012,30.384505",中国工商银行(川空储蓄所),[],[],四川省,[],[],2,028-27987283;028-27987237,金融保险服务;银行;中国工商银行,160105
赵镇十里大道二段53号附27-33号,金堂县,[],[],[],成都市,[],B001C801XX,[],"104.410244,30.860284",中国工商银行(金堂广场支行),[],[],四川省,[],[],2,028-84931622;028-84996692,金融保险服务;银行;中国工商银行,160105
武科东二路11号附4号,武侯区,[],[],[],成都市,[],B001C0AFYJ,[],"103.989863,30.630432",中国工商银行(武侯科技园支行),[],[],四川省,[],[],2,028-85372363,金融保险服务;银行;中国工商银行,160105
红星路四段9号附1-2号,锦江区,[],[],[],成都市,[],B001C7UOVY,[],"104.075397,30.647515",中国工商银行(成都盐市口支行),[],[],四川省,[],[],2,028-86716192;028-88716519;95588,金融保险服务;银行;中国工商银行,160105
三洞桥路20号附2号,金牛区,[],[],202,成都市,[],B001C7WQVX,[],"104.050843,30.675482",中国工商银行(石灰街支行),B001C7WOYZ,[],四川省,[],[],2,028-87701731;95588,金融保险服务;银行;中国工商银行,160105
工业大道东段399号,新都区,[],[],[],成都市,[],B001C8R6TQ,[],"104.168901,30.801388",中国工商银行(新都工业大道支行),[],[],四川省,[],[],2,028-61601971,金融保险服务;银行;中国工商银行,160105
天韵路150号高新国际广场D座1层103号,武侯区,[],[],202,成都市,[],B001C8O7Z9,[],"104.065603,30.592928",中国工商银行,B0FFF9VG3L,[],四川省,[],[],2,028-85319725,金融保险服务;银行;中国工商银行,160105
科华一路1号,郫都区,[],[],[],成都市,[],B001C8MFD8,[],"103.903922,30.796634",中国工商银行(鹃城支行),[],[],四川省,[],[],2,028-65328319;028-87827465,金融保险服务;银行;中国工商银行,160105
广场路北一段118号,金牛区,[],[],[],成都市,[],B001C8R8FH,[],"103.950382,30.780785",中国工商银行(红光支行),[],[],四川省,[],[],2,[],金融保险服务;银行;中国工商银行,160105
华星路2号大陆玉沙生活广场1层,锦江区,[],[],202,成都市,[],B001C7WHY8,[],"104.092037,30.661834",中国工商银行(成都猛追湾支行),B001C808AH,[],四川省,[],[],2,028-86962329;028-86962203;95588,金融保险服务;银行;中国工商银行,160105
建设路66号附4号,龙泉驿区,[],[],[],成都市,[],B001C7UWNF,[],"104.273833,30.560652",中国工商银行(建设路支行),[],[],四川省,[],[],2,028-84866997,金融保险服务;银行;中国工商银行,160105
锦泉街285-291号,温江区,[],[],[],成都市,[],B0FFFFLTIT,[],"103.855976,30.688896",中国工商银行(成都锦泉街支行),[],[],四川省,[],[],2,028-61710506,金融保险服务;银行;中国工商银行,160105
金福路357-375号,青羊区,[],[],[],成都市,[],B001C805L9,[],"103.985785,30.678993",中国工商银行(金福路支行),[],[],四川省,[],[],2,028-61863215;028-61863190,金融保险服务;银行;中国工商银行,160105
东大街27号,温江区,[],[],[],成都市,[],B001C06GVD,[],"103.837604,30.698739",中国工商银行(温江支行营业室),[],[],四川省,[],[],2,028-82722758;028-82722849,金融保险服务;银行;中国工商银行,160105
大石西路66号附12-14号,青羊区,[],[],[],成都市,[],B001C7XYSW,[],"104.026714,30.651093",中国工商银行(紫藤支行),[],[],四川省,[],[],2,028-87016713;028-87016512;95588,金融保险服务;银行;中国工商银行,160105
灵龙路494-506号,龙泉驿区,[],[],[],成都市,[],B001C7Y43B,[],"104.176266,30.652506",中国工商银行(十陵支行),[],[],四川省,[],[],2,028-84600057,金融保险服务;银行;中国工商银行,160105
致顺路555号,成华区,[],[],[],成都市,[],B0FFGACCL1,[],"104.114685,30.699402",中国工商银行(成都致顺路支行),[],[],四川省,[],[],2,028-83280425;028-83280176,金融保险服务;银行;中国工商银行,160105
郫筒镇望东路83号,郫都区,[],[],[],成都市,[],B001C91XLZ,[],"103.894192,30.799162",中国工商银行(望东路支行),[],[],四川省,[],[],2,028-69080681;028-69080682,金融保险服务;银行;中国工商银行,160105
万科路4号1幢101-102号、2幢105-07号,成华区,[],[],[],成都市,[],B001C7ZZ3Q,[],"104.154528,30.625264",中国工商银行(万科路支行),[],[],四川省,[],[],2,028-84754155,金融保险服务;银行;中国工商银行,160105
西体路1号(中地大厦1栋1层4-8号),金牛区,[],[],[],成都市,[],B001C7YL2D,[],"104.056292,30.678931",中国工商银行(成都金牛通锦桥支行),[],[],四川省,[],[],2,028-87668715;028-87668891;95588,金融保险服务;银行;中国工商银行,160105
郫都区福梓路261,郫都区,[],[],[],成都市,[],B0FFFV3ZH2,[],"103.989259,30.747998",中国工商银行24小时自助银行(福梓路),[],[],四川省,[],[],2,[],金融保险服务;自动提款机;中国工商银行ATM,160302
成龙大道一段9号4栋1-3,锦江区,[],[],[],成都市,[],B001C8N110,[],"104.135087,30.595820",中国工商银行(成龙大道分理处),[],[],四川省,[],[],2,028-84777808,金融保险服务;银行;中国工商银行,160105
武青北路21号附1号,武侯区,[],[],[],成都市,[],B001C8R9V1,[],"103.976820,30.659266",中国工商银行(武青北路支行),[],[],四川省,[],[],2,028-85024712,金融保险服务;银行;中国工商银行,160105
静康路190-206号,锦江区,[],[],[],成都市,[],B001C8R7ZP,[],"104.115672,30.619359",中国工商银行(成都静康路支行),[],[],四川省,[],[],2,028-61389931,金融保险服务;银行;中国工商银行,160105
新乐南街111号附3号,武侯区,[],[],[],成都市,[],B001C7UTZ2,[],"104.040491,30.603983",中国工商银行(新义路分理处),[],[],四川省,[],[],2,028-85178351;028-85191061;028-95588,金融保险服务;银行;中国工商银行,160105
希望路1号,新津区,[],[],[],成都市,[],B001C8O3A6,[],"103.812648,30.424092",中国工商银行(新津支行),[],[],四川省,[],[],2,028-82521642;95588;028-82522043,金融保险服务;银行;中国工商银行,160105
成飞大道131-135号青羊工业总部基地,青羊区,[],[],[],成都市,[],B001C8MVDX,[],"103.961582,30.681986",中国工商银行(青羊工业园支行),[],[],四川省,[],[],2,028-61311357;028-61311356,金融保险服务;银行;中国工商银行,160105
赵镇十里大道一段339号,金堂县,[],[],[],成都市,[],B0FFFWEA00,[],"104.421458,30.856832",中国工商银行(金堂支行),[],[],四川省,[],[],2,028-84015761;028-84983129,金融保险服务;银行;中国工商银行,160105
一环路北一段436号附1-2号,金牛区,[],[],[],成都市,[],B001C06SVQ,[],"104.059537,30.685674",中国工商银行(成都白马寺支行),[],[],四川省,[],[],2,028-87664609,金融保险服务;银行;中国工商银行,160105
同善桥南街9号附5号,青羊区,[],[],[],成都市,[],B001C7UBKW,[],"104.022675,30.681168",中国工商银行(成都同善桥南街支行),[],[],四川省,[],[],2,028-87373887;95588,金融保险服务;银行;中国工商银行,160105
犀浦街道珠江路26号中铁十五局西南工程综合大楼1层,郫都区,[],[],[],成都市,[],B001C06S8F,[],"103.965505,30.758616",中国工商银行(成都珠江路支行),[],[],四川省,[],[],2,028-87859532;028-87851296;95588,金融保险服务;银行;中国工商银行,160105
都江堰大道131-135号,都江堰市,[],[],[],成都市,[],B001C0AFVS,[],"103.629969,30.992068",中国工商银行(都江堰东门支行),[],[],四川省,[],[],2,028-87133194;95588,金融保险服务;银行;中国工商银行,160105
蜀州中路374-380号,崇州市,[],[],[],成都市,[],B0FFF00ATR,[],"103.668856,30.623889",中国工商银行(崇州蜀州中路支行),[],[],四川省,[],[],2,028-82272043,金融保险服务;银行;中国工商银行,160105
红星路一段15号,锦江区,[],[],[],成都市,[],B001C7WQVQ,[],"104.088309,30.667379",中国工商银行(红星中路支行),[],[],四川省,[],[],2,028-86912596;028-86911367;95588,金融保险服务;银行;中国工商银行,160105
二环路西二段66号附1号,青羊区,[],[],[],成都市,[],B001C0AFXI,[],"104.026203,30.677886",中国工商银行(成都清溪支行),[],[],四川省,[],[],2,028-87312117;028-87318161;95588,金融保险服务;银行;中国工商银行,160105
五丁路6号附1号,金牛区,[],[],[],成都市,[],B001C7YL6N,[],"104.065426,30.683102",中国工商银行(成都铁道支行),[],[],四川省,[],[],2,028-83171005,金融保险服务;银行;中国工商银行,160105
南街110-114号,邛崃市,[],[],[],成都市,[],B001C0AFZN,[],"103.460846,30.411013",中国工商银行(邛崃支行营业部),[],[],四川省,[],[],2,028-88791793;028-88791741,金融保险服务;银行;中国工商银行,160105
益州大道中段1256号(近天府三街),武侯区,[],[],[],成都市,[],B0HBOAKVGG,[],"104.056370,30.544785",中国工商银行,[],[],四川省,[],[],2,95588,金融保险服务;银行;中国工商银行,160105
新驿南街4号,龙泉驿区,[],[],[],成都市,[],B0G3T7PUAL,[],"104.273805,30.560636",中国工商银行(新驿南街分理处),[],[],四川省,[],[],2,95588,金融保险服务;银行;中国工商银行,160105
高新西区百草路777号(金辉悦府)四号楼4-1-5号、4-1-6号、4-1-19号,郫都区,[],[],[],成都市,[],B0FFLJFN4H,[],"103.960953,30.744578",中国工商银行(东方电气支行),[],[],四川省,[],[],2,028-64330559,金融保险服务;银行;中国工商银行,160105
沙湾路258号摩尔百货F1层(沙湾国际会展中心南侧),金牛区,[],[],[],成都市,[],B0FFL5E0FI,[],"104.050513,30.690751",中国工商银行(金牛支行营业室),[],[],四川省,[],[],2,95588,金融保险服务;银行;中国工商银行,160105
桂湖东路115-131号,新都区,[],[],[],成都市,[],B001C8MYPO,[],"104.166343,30.823697",中国工商银行是24小时自助银行服务,[],[],四川省,[],[],2,028-83972814;95588,金融保险服务;银行;中国工商银行,160105
洪河中路705号,龙泉驿区,[],[],[],成都市,[],B0FFF00DGY,[],"104.167069,30.615017",中国工商银行(洪河大道支行),[],[],四川省,[],[],2,028-84635452;028-84635453;95588,金融保险服务;银行;中国工商银行,160105
藩库街9号,锦江区,[],[],[],成都市,[],B0FFKITR12,[],"104.082455,30.657909",中国工商银行(锦江支行),[],[],四川省,[],[],2,028-86740105;028-86612180;028-95588,金融保险服务;银行;中国工商银行,160105
锦东路568号摩根中心2号楼1层1号,锦江区,[],[],202,成都市,[],B001C8P7V6,[],"104.103723,30.640462",中国工商银行(锦东路支行),B001C8XFNG,[],四川省,[],[],2,028-86618351,金融保险服务;银行;中国工商银行,160105
高新技术产业开发区九兴大道2号,武侯区,[],[],[],成都市,[],B001C7VRA4,[],"104.042035,30.619912",中国工商银行(成都永丰路支行),[],[],四川省,[],[],2,028-85160211;028-85199048,金融保险服务;银行;中国工商银行,160105
二环路东五段5号,锦江区,[],[],[],成都市,[],B001C05HRY,[],"104.098996,30.626522",中国工商银行(成都龙舟路支行),[],[],四川省,[],[],2,028-84525355;028-84529216,金融保险服务;银行;中国工商银行,160105
剑南大道中段998号世豪广场1层C104,武侯区,[],[],202,成都市,[],B0FFF9UOHI,[],"104.045621,30.550313",中国工商银行(剑南大道支行),B0FFF9UNIK,[],四川省,[],[],2,028-83166226,金融保险服务;银行;中国工商银行,160105
天顺路116号,武侯区,[],[],[],成都市,[],B001C7YL8F,[],"104.071220,30.591755",中国工商银行(天顺路支行),[],[],四川省,[],[],2,028-85359638;028-85359366;95588,金融保险服务;银行;中国工商银行,160105
逸都路6号附24号,武侯区,[],[],[],成都市,[],B0FFH7CCG0,[],"104.020809,30.645085",中国工商银行(同辉支行),[],[],四川省,[],[],2,028-87020962;95588,金融保险服务;银行;中国工商银行,160105
郫筒街道东大街65号,郫都区,[],[],[],成都市,[],B001C0AFZP,[],"103.887946,30.808161",中国工商银行(成都郫都支行),[],[],四川省,[],[],2,028-87865170;028-87862156,金融保险服务;银行;中国工商银行,160105
都江堰大道132号附2-3,都江堰市,[],[],[],成都市,[],B001C7ZWO0,[],"103.638937,30.989312",中国工商银行(幸福家园支行),[],[],四川省,[],[],2,028-87269810;028-89742266,金融保险服务;银行;中国工商银行,160105
[],温江区,[],[],[],成都市,[],B0FFKCYRMG,[],"103.837686,30.683179",中国工商银行(两河路支行),[],[],四川省,[],[],2,028-82767426,金融保险服务;银行;中国工商银行,160105
南华路1615-1619号,武侯区,[],[],[],成都市,[],B0FFJPXK8K,[],"104.037380,30.555012",中国工商银行(盛邦街支行),[],[],四川省,[],[],2,028-85194879,金融保险服务;银行;中国工商银行,160105
康兮路青城二十四院69号27栋1层1-2号,都江堰市,[],[],[],成都市,[],B001C8YXBE,[],"103.622194,30.974572",中国工商银行(安轻路支行),[],[],四川省,[],[],2,028-61727395,金融保险服务;银行;中国工商银行,160105
金色校园广场1号,双流区,[],[],202,成都市,[],B001C8MQXE,[],"103.989903,30.550167",中国工商银行(川大西路支行),B001C937OV,[],四川省,[],[],2,028-85860291;028-85860292;028-62583075,金融保险服务;银行;中国工商银行,160105
天府大道北段1700号新世纪环球中心1F层,武侯区,[],[],202,成都市,[],B0FFF5TMCU,[],"104.064855,30.571303",中国工商银行(天府支行),B0FFFAF652,[],四川省,[],[],2,028-87344865,金融保险服务;银行;中国工商银行,160105
天华路9号,武侯区,[],[],[],成都市,[],B0FFGOO08I,[],"104.072504,30.551084",中国工商银行(城南支行),[],[],四川省,[],[],2,028-85331587;95588,金融保险服务;银行;中国工商银行,160105
芳草街28号,武侯区,[],[],[],成都市,[],B001C7VR9H,[],"104.051544,30.626586",中国工商银行(成都高新支行营业室),[],[],四川省,[],[],2,028-85176086,金融保险服务;银行;中国工商银行|金融保险服务;银行相关;银行相关,160105|160200
清江东路362号附3号,青羊区,[],[],[],成都市,[],B001C06AUE,[],"104.023211,30.670237",中国工商银行(峨影支行),[],[],四川省,[],[],2,028-87311221;028-95588;028-87314600,金融保险服务;银行;中国工商银行,160105
怡湖西路155-165号,青白江区,[],[],[],成都市,[],B001C7U2IJ,[],"104.253425,30.881240",中国工商银行(怡湖西路支行),[],[],四川省,[],[],2,028-83306850;028-83301816,金融保险服务;银行;中国工商银行,160105
华泰路33号附1号,成华区,[],[],[],成都市,[],B001C8OFA3,[],"104.167255,30.692015",中国工商银行(龙潭工业园区支行),[],[],四川省,[],[],2,028-84251793;028-84251702,金融保险服务;银行;中国工商银行,160105
双流机场内六号路四川机场集团公司商务楼1层,双流区,[],[],[],成都市,[],B001C8O25W,[],"103.963340,30.568273",中国工商银行(机场支行),[],[],四川省,[],[],2,028-85206529,金融保险服务;银行;中国工商银行,160105
建设北路三段289号附13-附19号,成华区,[],[],[],成都市,[],B0FFF3Z3FY,[],"104.124115,30.680419",中国工商银行(成都二仙桥支行),[],[],四川省,[],[],2,028-84123966;95588,金融保险服务;银行;中国工商银行,160105
武阳中路35附6,新津区,[],[],[],成都市,[],B001C7YQF4,[],"103.812759,30.411159",中国工商银行(新津武阳路支行),[],[],四川省,[],[],2,028-82522046;95588,金融保险服务;银行;中国工商银行,160105
和平路382-386号,温江区,[],[],[],成都市,[],B0FFFZAXK3,[],"103.821689,30.695345",中国工商银行(德通桥分理处),[],[],四川省,[],[],2,028-82708810,金融保险服务;银行;中国工商银行,160105
红星路四段9号附1-2号,锦江区,[],[],3,成都市,[],B001C7WQWZ,[],"104.075469,30.647671",中国工商银行24小时自助银行(盐市口支行营业室),B001C7UOVY,[],四川省,[],[],2,[],金融保险服务;自动提款机;中国工商银行ATM,160302
桂湖西路32-34号,新都区,[],[],[],成都市,[],B001C0AFW6,[],"104.154718,30.822952",中国工商银行(桂湖西路支行),[],[],四川省,[],[],2,028-83971307,金融保险服务;银行;中国工商银行,160105
净居寺南街56号之附1-附2号,锦江区,[],[],[],成都市,[],B001C8PLTO,[],"104.103544,30.622305",中国工商银行(净居寺南街支行),[],[],四川省,[],[],2,[],金融保险服务;银行;中国工商银行,160105
天彭镇牡丹东路60-62号,彭州市,[],[],[],成都市,[],B0FFHI7IMS,[],"103.959755,30.989830",中国工商银行(新城支行),[],[],四川省,[],[],2,028-68819189;95588,金融保险服务;银行;中国工商银行,160105
朝阳南路468-478号,彭州市,[],[],[],成都市,[],B001C8OPFR,[],"103.951619,30.976891",中国工商银行(彭州朝阳南路支行),[],[],四川省,[],[],2,028-83891106;028-83701060,金融保险服务;银行;中国工商银行,160105
木兰镇龙和国际茶城1栋1层,新都区,[],[],[],成都市,[],B0H61UR873,[],"104.200436,30.737490",中国工商银行24小时自助银行,[],[],四川省,[],[],2,[],金融保险服务;自动提款机;中国工商银行ATM,160302
武侯祠大街232号,武侯区,[],[],[],成都市,[],B001C7WQWW,[],"104.049230,30.644047",中国工商银行(成都武侯祠支行),[],[],四川省,[],[],2,028-85563157;028-85551224;028-95588,金融保险服务;银行;中国工商银行,160105
国学巷37号四川大学华西医院,武侯区,[],[],[],成都市,[],B0FFFABE5R,[],"104.060468,30.641649",中国工商银行(华西医院分理处),[],[],四川省,[],[],2,028-85422125;028-85422085,金融保险服务;银行;中国工商银行,160105
中环路一品天下大街932号,金牛区,[],[],[],成都市,[],B001C93B3A,[],"104.039301,30.700830",中国工商银行(一品天下分理处),[],[],四川省,[],[],2,028-61669172,金融保险服务;银行;中国工商银行,160105
高升桥东路17号附24号,武侯区,[],[],[],成都市,[],B001C7Y9T9,[],"104.041699,30.634007",中国工商银行(高升桥东路分理处),[],[],四川省,[],[],2,028-85182100,金融保险服务;银行;中国工商银行,160105
双楠路9号,武侯区,[],[],202,成都市,[],B001C7WQW6,[],"104.028183,30.645256",中国工商银行(双楠小区支行),B001C0AF82,[],四川省,[],[],2,028-85076925;95588,金融保险服务;银行;中国工商银行,160105
永陵路39号,金牛区,[],[],[],成都市,[],B001C7VR9P,[],"104.041262,30.675487",中国工商银行(成都抚琴支行),[],[],四川省,[],[],2,028-87749762;028-87749761,金融保险服务;银行;中国工商银行,160105
常乐二段12号附125-128号,双流区,[],[],[],成都市,[],B001C8O3V9,[],"103.990180,30.574118",中国工商银行(西南航空港支行),[],[],四川省,[],[],2,028-85881722;028-95588,金融保险服务;银行;中国工商银行,160105
金沙遗址路68号,青羊区,[],[],[],成都市,[],B0FFG016JS,[],"104.004213,30.682771",中国工商银行(金沙遗址路分理处),[],[],四川省,[],[],2,028-81712360,金融保险服务;银行;中国工商银行,160105
一环路南三段28号附10-14号,武侯区,[],[],[],成都市,[],B001C7US16,[],"104.057716,30.633085",中国工商银行(一环路南三段分理处),[],[],四川省,[],[],2,028-85903885;028-85903497,金融保险服务;银行;中国工商银行,160105
东坡路423、425、427、429、431号,青羊区,[],[],[],成都市,[],B001C7WEIU,[],"103.993698,30.661059",中国工商银行(东坡大道支行),[],[],四川省,[],[],2,028-81720027;028-81720032,金融保险服务;银行;中国工商银行,160105
大石西路12号附6号,青羊区,[],[],[],成都市,[],B001C7WI0X,[],"104.037236,30.651122",中国工商银行(大石西路支行),[],[],四川省,[],[],2,95588,金融保险服务;银行;中国工商银行,160105
解放路二段4号附1号,金牛区,[],[],[],成都市,[],B001C0AFZS,[],"104.079413,30.677260",中国工商银行(成都簸箕街支行),[],[],四川省,[],[],2,028-83222348;028-83228403,金融保险服务;银行;中国工商银行,160105
百叶路1号电子科技大学成都学院,郫都区,[],[],[],成都市,[],B0FFFEPQ1Z,[],"103.966390,30.729331",中国工商银行ATM(科创路),[],[],四川省,[],[],2,[],金融保险服务;自动提款机;中国工商银行ATM,160302
指挥街38-40号,锦江区,[],[],[],成都市,[],B001C060P6,[],"104.067336,30.649933",中国工商银行(指挥街支行),[],[],四川省,[],[],2,028-86661397;028-86659141;95588,金融保险服务;银行;中国工商银行,160105
长安大道522号附16-附20,邛崃市,[],[],[],成都市,[],B001C8NZVQ,[],"103.477594,30.402898",中国工商银行(长安大道支行),[],[],四川省,[],[],2,028-88762067;028-88770253,金融保险服务;银行;中国工商银行,160105
晨辉路6号一栋1楼3-5号,锦江区,[],[],[],成都市,[],B001C7WQVK,[],"104.100525,30.611182",中国工商银行(成都晨辉路支行),[],[],四川省,[],[],2,028-85922083;028-85922091;95588,金融保险服务;银行;中国工商银行,160105
高新西区科新路8号,郫都区,[],[],[],成都市,[],B001C0AFUL,[],"103.917562,30.772082",中国工商银行(高新综合保税区支行),[],[],四川省,[],[],2,028-87955666,金融保险服务;银行;中国工商银行,160105
锦城大道831-837号,武侯区,[],[],[],成都市,[],B001C8O8YS,[],"104.056534,30.575104",中国工商银行(民丰大道支行),[],[],四川省,[],[],2,028-85975733;028-85977231,金融保险服务;银行;中国工商银行,160105
双林北支路200号,成华区,[],[],[],成都市,[],B0FFFEMVCS,[],"104.110499,30.657078",中国工商银行(成都双林北支路支行),[],[],四川省,[],[],2,028-84339907;028-84333490,金融保险服务;银行;中国工商银行,160105
江安路446、448号,温江区,[],[],[],成都市,[],B0FFIIU6Q8,[],"103.882311,30.687538",中国工商银行24小时自助银行(江安路),[],[],四川省,[],[],2,[],金融保险服务;自动提款机;中国工商银行ATM,160302
人民北路一段17号附1-3号,金牛区,[],[],202,成都市,[],B001C7WQWL,[],"104.072573,30.680483",中国工商银行(人民北路支行),B001C06DAS,[],四川省,[],[],2,028-83225779;028-83226669;95588,金融保险服务;银行;中国工商银行,160105
双荆路99-101号,成华区,[],[],[],成都市,[],B001C8P6RI,[],"104.095863,30.708494",中国工商银行,[],[],四川省,[],[],2,028-84350290;028-84350559,金融保险服务;银行;中国工商银行,160105
水碾河路25号4幢1层1号、4幢2层1号,成华区,[],[],[],成都市,[],B001C8OQRH,[],"104.104497,30.646460",中国工商银行(双桥子支行),[],[],四川省,[],[],2,028-84471150;028-84443541;028-95588,金融保险服务;银行;中国工商银行,160105
一环路南一段57号附1号,武侯区,[],[],[],成都市,[],B001C0AFVJ,[],"104.077503,30.634622",中国工商银行(东大支行),[],[],四川省,[],[],2,028-85442173;028-85453153,金融保险服务;银行;中国工商银行,160105
简城镇北街90号,简阳市,[],[],[],成都市,[],B034000XUU,[],"104.547531,30.394153",中国工商银行(简阳支行),[],[],四川省,[],[],2,028-27222977;028-27227243,金融保险服务;银行;中国工商银行,160105
贝森南路99号,青羊区,[],[],[],成都市,[],B001C7UCO5,[],"104.003608,30.669467",中国工商银行(成都贝森南路支行),[],[],四川省,[],[],2,028-81702682;028-81702262;95588,金融保险服务;银行;中国工商银行,160105
新繁街道正东街64-70号,新都区,[],[],[],成都市,[],B001C0AFYW,[],"104.019445,30.874493",中国工商银行(新繁支行),[],[],四川省,[],[],2,028-83080050;028-83080324;95588,金融保险服务;银行;中国工商银行,160105
解放北路一段18号,金牛区,[],[],[],成都市,[],B001C7VRBH,[],"104.084801,30.685145",中国工商银行(外北支行),[],[],四川省,[],[],2,028-83331686;028-83336393;95588,金融保险服务;银行;中国工商银行,160105
小南街123号附8-9(冠城花园3期5幢1层7-9号),青羊区,[],[],[],成都市,[],B001C7WI3Y,[],"104.053012,30.654316",中国工商银行(小南街支行),[],[],四川省,[],[],2,028-86125503;028-86128323;95588,金融保险服务;银行;中国工商银行,160105
司马大道366号43栋10,邛崃市,[],[],[],成都市,[],B001C8R6J1,[],"103.456680,30.399145",中国工商银行24小时自助银行(玉带街),[],[],四川省,[],[],2,[],金融保险服务;自动提款机;中国工商银行ATM,160302
二环路西一段99号附12-13号,青羊区,[],[],[],成都市,[],B001C06TYF,[],"104.021390,30.658023",中国工商银行(天邑花园支行),[],[],四川省,[],[],2,028-87397683;028-87397682;95588,金融保险服务;银行;中国工商银行,160105
大邑大道433号,大邑县,[],[],[],成都市,[],B0FFLCN4PF,[],"103.527580,30.567715",中国工商银行(大邑大道支行),[],[],四川省,[],[],2,028-88292870;028-88298607;028-88268607,金融保险服务;银行;中国工商银行,160105
建设路1号附25号金域蓝湾楼下,成华区,[],[],[],成都市,[],B0FFLA836L,[],"104.108120,30.670245",中国工商银行(建设路支行),[],[],四川省,[],[],2,028-84313264,金融保险服务;银行;中国工商银行,160105
晋原街道东街118号,大邑县,[],[],[],成都市,[],B0FFIXIBSL,[],"103.524946,30.586475",中国工商银行(大邑支行),[],[],四川省,[],[],2,028-88292172;028-88261882;95588,金融保险服务;银行;中国工商银行,160105
星艺大道90号,温江区,[],[],[],成都市,[],B001C94ZU3,[],"103.783479,30.751721",中国工商银行24小时自助银行(天河盛景盛和苑东南),[],[],四川省,[],[],2,[],金融保险服务;自动提款机;中国工商银行ATM,160302
唐昌镇南正街79-87号,郫都区,[],[],[],成都市,[],B001C7YJZG,[],"103.825184,30.924269",中国工商银行(唐昌支行),[],[],四川省,[],[],2,028-87869269;028-87859497;95588,金融保险服务;银行;中国工商银行,160105
瑞星路99号附26-28号,青羊区,[],[],[],成都市,[],B001C80CAZ,[],"103.995503,30.667154",中国工商银行(瑞星路支行),[],[],四川省,[],[],2,028-81716871;028-81716801,金融保险服务;银行;中国工商银行,160105
提督街50号,锦江区,[],[],[],成都市,[],B001C7WHV5,[],"104.074663,30.6597",中国工商银行(提督支行),[],[],四川省,[],[],2,028-86751641;028-86616907,金融保险服务;银行;中国工商银行,160105
春熙路北段50号,锦江区,[],[],[],成都市,[],B001C7WQWD,[],"104.078265,30.657074",中国工商银行(春熙路步行街支行),[],[],四川省,[],[],2,028-86663907,金融保险服务;银行;中国工商银行,160105
清江中路10号附4-6号,青羊区,[],[],[],成都市,[],B001C7WE1K,[],"104.015403,30.671569",中国工商银行(清江中路支行),[],[],四川省,[],[],2,028-87371557;95588,金融保险服务;银行;中国工商银行,160105
宏济新路世纪朝阳5栋底层营业房,锦江区,[],[],202,成都市,[],B001C7UPNM,[],"104.095110,30.638932",中国工商银行(宏济新路分理处),B0FFG07821,[],四川省,[],[],2,028-84519593;028-84519633,金融保险服务;银行;中国工商银行,160105
昭觉横街99号,成华区,[],[],[],成都市,[],B001C7YQ15,[],"104.105358,30.701209",中国工商银行(成都昭觉横街支行),[],[],四川省,[],[],2,028-83511833;028-95588,金融保险服务;银行;中国工商银行,160105
静安路5号四川师范大学内,锦江区,[],[],[],成都市,[],B0FFF3OKJ0,[],"104.123513,30.608924",中国工商银行(四川师范大学支行),[],[],四川省,[],[],2,028-84760313;028-84766813,金融保险服务;银行;中国工商银行,160105
科华街1号附3号,武侯区,[],[],[],成都市,[],B001C7UQHG,[],"104.079767,30.623488",中国工商银行(九眼桥支行),[],[],四川省,[],[],2,028-85460468;028-85460498;95588,金融保险服务;银行;中国工商银行,160105
肖家村二巷96-98号,金牛区,[],[],[],成都市,[],B0FFF2EIGW,[],"104.075979,30.687844",中国工商银行(草市铁路支行),[],[],四川省,[],[],2,028-83181327;028-83192855,金融保险服务;银行;中国工商银行,160105
总府路35号附1-4号,锦江区,[],[],[],成都市,[],B001C7WQWF,[],"104.076656,30.659106",中国工商银行(四川省分行),[],[],四川省,[],[],2,028-86616907;028-86616793;95588,金融保险服务;银行;中国工商银行,160105
物流大道88号招商楼1层,新都区,[],[],[],成都市,[],B001C80KZI,[],"104.132337,30.795095",中国工商银行(物流大道支行),[],[],四川省,[],[],2,028-83935046,金融保险服务;银行;中国工商银行,160105
青羊大道7号附1-5号,青羊区,[],[],[],成都市,[],B001C8VB38,[],"104.007895,30.656409",中国工商银行(成都青羊大道支行),[],[],四川省,[],[],2,028-87032207;028-87032108,金融保险服务;银行;中国工商银行,160105
北站西二巷4号附2-3号,金牛区,[],[],[],成都市,[],B001C06W7H,[],"104.032723,30.680414",中国工商银行(抚琴西路支行),[],[],四川省,[],[],2,028-83170671;028-83197060;028-87776880,金融保险服务;银行;中国工商银行,160105
武侯大道双楠段36号附8-10号,武侯区,[],[],[],成都市,[],B001C05RNR,[],"104.018616,30.638182",中国工商银行(成都武侯大道支行),[],[],四川省,[],[],2,028-85094008,金融保险服务;银行;中国工商银行,160105
东风路与大古井街交叉口东50米,简阳市,[],[],[],成都市,[],B0FFG6SXCK,[],"104.554329,30.385173",中国工商银行24小时自助银行(大古井街),[],[],四川省,[],[],2,[],金融保险服务;自动提款机;中国工商银行ATM,160302
天府大道南段龙灯山路379号,双流区,[],[],[],成都市,[],B001C8OB2S,[],"104.071517,30.510721",中国工商银行(龙灯山路支行),[],[],四川省,[],[],2,028-85639795;028-85639315,金融保险服务;银行;中国工商银行,160105
桐梓林南路12号,武侯区,[],[],[],成都市,[],B001C7Y9XJ,[],"104.057847,30.611895",中国工商银行(桐梓林南路支行),[],[],四川省,[],[],2,028-85177928;028-85178809;95588,金融保险服务;银行;中国工商银行,160105
龙灯山路1段379号2层,双流区,[],[],3,成都市,[],B001C8OPKG,[],"104.071449,30.510733",中国工商银行24小时自助银行(龙灯山路支行),B001C8OB2S,[],四川省,[],[],2,[],金融保险服务;自动提款机;中国工商银行ATM,160302
二环路北一段111号,金牛区,[],[],[],成都市,[],B0FFHGDO0O,[],"104.053695,30.695366",中国工商银行24小时自助银行(西南交通大学支行),[],[],四川省,[],[],2,[],金融保险服务;自动提款机;中国工商银行ATM,160302
星辉中路1号附3-5号万宝大厦,金牛区,[],[],202,成都市,[],B001C8VK9Z,[],"104.084666,30.673853",中国工商银行24小时自助银行(星辉中路支行),B001C7Y4FX,[],四川省,[],[],2,[],金融保险服务;自动提款机;中国工商银行ATM,160302
晋原镇东街,大邑县,[],[],[],成都市,[],B0G06GM1ZE,[],"103.530039,30.591369",中国工商银行,[],[],四川省,[],[],2,[],金融保险服务;银行;中国工商银行,160105
朝阳大道335号7幢2单元1层14号,蒲江县,[],[],[],成都市,[],B0FFLLBHQM,[],"103.522519,30.198011",中国工商银行(朝阳大道支行),[],[],四川省,[],[],2,028-88592278,金融保险服务;银行;中国工商银行,160105
江安路442、444、446、448号,温江区,[],[],[],成都市,[],B0FFL1RD74,[],"103.882233,30.687473",中国工商银行(江安路支行),[],[],四川省,[],[],2,028-82724609,金融保险服务;银行;中国工商银行,160105
通汇街219、221、223、225,锦江区,[],[],[],成都市,[],B0FFKNKJR2,[],"104.114583,30.638118",中国工商银行(成都通汇街支行),[],[],四川省,[],[],2,028-63042812;95588,金融保险服务;银行;中国工商银行,160105
龙梓街215号,郫都区,[],[],[],成都市,[],B0FFKL66S5,[],"103.988579,30.749783",中国工商银行(西南交大新区支行),[],[],四川省,[],[],2,028-62093181,金融保险服务;银行;中国工商银行,160105
天府一街与益州大道中段交叉口西北50米,武侯区,[],[],[],成都市,[],B0FFKHUAMW,[],"104.056256,30.560757",中国工商银行(天府一街支行),[],[],四川省,[],[],2,028-62093367,金融保险服务;银行;中国工商银行,160105
南湖逸家楼下商铺,双流区,[],[],[],成都市,[],B0FFKHG9UZ,[],"104.026192,30.491726",中国工商银行(成都顺兴路支行),[],[],四川省,[],[],2,[],金融保险服务;银行;中国工商银行,160105
西河街道黄泥堰路577号馨竹苑小区临街商铺7栋附116号,龙泉驿区,[],[],[],成都市,[],B0FFKE03D4,[],"104.250412,30.643093",中国工商银行(西河支行),[],[],四川省,[],[],2,028-84852544,金融保险服务;银行;中国工商银行,160105
南街9号,大邑县,[],[],[],成都市,[],B0FFKCGXGH,[],"103.521763,30.585285",中国工商银行(大邑晋原支行),[],[],四川省,[],[],2,028-88296979;028-88292172,金融保险服务;银行;中国工商银行,160105
都江堰大道376号金融中心4号楼,都江堰市,[],[],[],成都市,[],B0FFJHSDYP,[],"103.656523,30.985602",中国工商银行(都江堰支行营业室),[],[],四川省,[],[],2,[],金融保险服务;银行;中国工商银行,160105
天府大道南二段天府菁蓉中心D区A6号楼5层附近,双流区,[],[],[],成都市,[],B0FFJG4XPH,[],"104.074429,30.395723",中国工商银行(天府科学城支行),[],[],四川省,[],[],2,[],金融保险服务;银行;中国工商银行,160105
[],彭州市,[],[],[],成都市,[],B0FFF6BIH1,[],"103.942634,30.988735",中国工商银行(成都高新西部园区支行),[],[],四川省,[],[],2,[],金融保险服务;银行;中国工商银行,160105
迎宾路132-138号,都江堰市,[],[],[],成都市,[],B001C8OLAP,[],"103.637453,30.983061",中国工商银行(迎宾大道支行),[],[],四川省,[],[],2,028-87267148,金融保险服务;银行;中国工商银行,160105
晋原街道东街124号,大邑县,[],[],[],成都市,[],B001C8NQCX,[],"103.525017,30.586466",中国工商银行(大邑支行营业室),[],[],四川省,[],[],2,028-88292535,金融保险服务;银行;中国工商银行,160105
"锦东路555号附11,12号",锦江区,[],[],[],成都市,[],B001C7VRB4,[],"104.105817,30.640318",中国工商银行(成都牛市口支行),[],[],四川省,[],[],2,[],金融保险服务;银行;中国工商银行,160105
大弯南路212号,青白江区,[],[],[],成都市,[],B001C7VRAA,[],"104.266949,30.870966",中国工商银行(大弯南路分理处),[],[],四川省,[],[],2,028-83601317;028-83601812,金融保险服务;银行;中国工商银行,160105
锦屏大道19号,大邑县,[],[],[],成都市,[],B001C955NE,[],"103.547073,30.599314",中国工商银行24小时自助银行(芙蓉横街),[],[],四川省,[],[],2,[],金融保险服务;自动提款机;中国工商银行ATM,160302
西北桥北街157号府河市场,金牛区,[],[],[],成都市,[],B0FFFAC61H,[],"104.062773,30.688645",中国工商银行(西北桥支行),[],[],四川省,[],[],2,028-83170671,金融保险服务;银行;中国工商银行,160105
五里墩路2号,金牛区,[],[],[],成都市,[],B0FFF45BSB,[],"104.031090,30.691667",中国工商银行(茶店子支行),[],[],四川省,[],[],2,028-87522477;028-87538251;95588,金融保险服务;银行;中国工商银行,160105
淮州大道356附近,金堂县,[],[],[],成都市,[],B0FFF07YVU,[],"104.565602,30.712152",中国工商银行24小时自助银行(淮州支行),[],[],四川省,[],[],2,[],金融保险服务;自动提款机;中国工商银行ATM,160302
兴乐北路151号,新都区,[],[],[],成都市,[],B0FFGFC6IF,[],"104.192109,30.810216",中国工商银行24小时自助银行(成都城东支行),[],[],四川省,[],[],2,[],金融保险服务;自动提款机;中国工商银行ATM,160302
金盾路52号附1号,青羊区,[],[],[],成都市,[],B0FFGNT2E9,[],"104.061207,30.654280",中国工商银行(成都陕西街街支行),[],[],四川省,[],[],2,028-81706071,金融保险服务;银行;中国工商银行,160105
蜀汉路333号附2号,金牛区,[],[],[],成都市,[],B001C0AFVK,[],"104.016869,30.691040",中国工商银行(东电集团支行),[],[],四川省,[],[],2,028-87530813;028-87530286,金融保险服务;银行;中国工商银行,160105
安德街道安平西路133、135、137号,郫都区,[],[],[],成都市,[],B001C8P6IF,[],"103.794797,30.874137",中国工商银行(安平西路支行),[],[],四川省,[],[],2,028-87868897;028-67152437,金融保险服务;银行;中国工商银行,160105
贾家街道105号,简阳市,[],[],[],成都市,[],B0FFH0XE4M,[],"104.358806,30.433444",中国工商银行24小时自助银行(贾家街道),[],[],四川省,[],[],2,[],金融保险服务;自动提款机;中国工商银行ATM,160302
华阳街道丽都街195号,双流区,[],[],[],成都市,[],B0FFFAC64U,[],"104.060054,30.504579",中国工商银行24小时自助银行(双峰岭西南),[],[],四川省,[],[],2,[],金融保险服务;自动提款机;中国工商银行ATM,160302
惠王陵东路109四川城市职业学院,龙泉驿区,[],[],[],成都市,[],B001C8VJU6,[],"104.167084,30.615027",中国工商银行24小时自助银行(恋日家园分理处),[],[],四川省,[],[],2,[],金融保险服务;自动提款机;中国工商银行ATM,160302
光华东三路与光华北四路交叉路口西北侧(西城尚锦),青羊区,[],[],[],成都市,[],B0FFK6AFTG,[],"103.959946,30.672138",中国工商银行24小时自助银行(光华东三路分理处),[],[],四川省,[],[],2,[],金融保险服务;自动提款机;中国工商银行ATM,160302
合作路附近,郫都区,[],[],[],成都市,[],B001C8VK1E,[],"103.917519,30.762691",中国工商银行24小时自助银行,[],[],四川省,[],[],2,[],金融保险服务;自动提款机;中国工商银行ATM,160302
光华村街21-25号,青羊区,[],[],3,成都市,[],B001C7VRAP,[],"104.018069,30.662558",中国工商银行24小时自助银行(光华村支行),B001C0AFW1,[],四川省,[],[],2,[],金融保险服务;自动提款机;中国工商银行ATM,160302
星辉中路1号附3-5号万宝大厦,金牛区,[],[],202,成都市,[],B001C7UB1K,[],"104.084642,30.673837",中国工商银行(星辉中路支行),B001C7Y4FX,[],四川省,[],[],2,028-83333179;028-83386758,金融保险服务;银行;中国工商银行,160105
晋阳路215号之附9-12号,武侯区,[],[],[],成都市,[],B001C7YPH5,[],"103.999575,30.650012",中国工商银行(晋康街支行),[],[],四川省,[],[],2,028-87438053;95588,金融保险服务;银行;中国工商银行,160105
光华村街21-25号,青羊区,[],[],[],成都市,[],B001C0AFW1,[],"104.018069,30.662539",中国工商银行(光华村支行),[],[],四川省,[],[],2,028-87317057,金融保险服务;银行;中国工商银行,160105
中南大街与滨江西路交叉口东100米,锦江区,[],[],[],成都市,[],B0FFK8XJZ3,[],"104.061413,30.648030",中国工商银行24小时自助银行,[],[],四川省,[],[],2,[],金融保险服务;自动提款机;中国工商银行ATM,160302
天府二街999号伊藤洋华堂L1层,武侯区,[],[],201,成都市,[],B0FFFODRP1,[],"104.044524,30.550692",中国工商银行ATM(伊藤洋华堂),B001C8O160,[],四川省,[],[],2,[],金融保险服务;自动提款机;中国工商银行ATM,160302
紫荆西路31-33号,武侯区,[],[],[],成都市,[],B001C7UT63,[],"104.048385,30.616956",中国工商银行(紫荆西路支行),[],[],四川省,[],[],2,028-85182833;028-95588,金融保险服务;银行;中国工商银行,160105
双庆路8号万象城L1层,成华区,[],[],201,成都市,[],B0FFJV0G9X,[],"104.115998,30.649800",中国工商银行ATM(万象城),B001C8O6UD,[],四川省,[],[],2,028-62399187,金融保险服务;自动提款机;中国工商银行ATM|金融保险服务;银行;中国工商银行,160302|160105
天缘路二段205号,新都区,[],[],[],成都市,[],B001C7ZXV1,[],"104.150774,30.806410",中国工商银行ATM,[],[],四川省,[],[],2,[],金融保险服务;自动提款机;中国工商银行ATM,160302
成龙路二段888号总部经济港A区1幢1层,龙泉驿区,[],[],3,成都市,[],B001C8R97X,[],"104.185734,30.566753",中国工商银行24小时自助银行(成都龙泉总部经济港支行),B001C8R8WI,[],四川省,[],[],2,[],金融保险服务;自动提款机;中国工商银行ATM,160302
琴台路10号,青羊区,[],[],[],成都市,[],B001C06FQO,[],"104.044964,30.658071",中国工商银行(青羊宫支行),[],[],四川省,[],[],2,028-86132905;028-86135313,金融保险服务;银行;中国工商银行,160105
红星路二段9号附1号,锦江区,[],[],3,成都市,[],B001C7UN43,[],"104.082225,30.657602",中国工商银行24小时自助银行(锦江支行),B001C8MLDS,[],四川省,[],[],2,[],金融保险服务;自动提款机;中国工商银行ATM,160302
翡翠城华润路2号附2号,锦江区,[],[],[],成都市,[],B001C7WGDT,[],"104.090199,30.611971",中国工商银行(华润路支行),[],[],四川省,[],[],2,028-85272342;028-85272284;028-87702193,金融保险服务;银行;中国工商银行,160105
鹭岛路15-19号,武侯区,[],[],[],成都市,[],B001C7VRB9,[],"104.012460,30.644856",中国工商银行(鹭岛支行),[],[],四川省,[],[],2,028-87060355;028-87060207;95588,金融保险服务;银行;中国工商银行,160105
府青路二段16号附1号,成华区,[],[],[],成都市,[],B001C05RR4,[],"104.099353,30.682557",中国工商银行(成都八里庄支行),[],[],四川省,[],[],2,028-83250585;95588,金融保险服务;银行;中国工商银行,160105
聚霞路1号,金牛区,[],[],[],成都市,[],B001C805CO,[],"104.086254,30.790990",中国工商银行(国际商贸城支行),[],[],四川省,[],[],2,028-61387065,金融保险服务;银行;中国工商银行,160105
东城根上街93号(桂楼大厦1楼),青羊区,[],[],[],成都市,[],B001C05HXE,[],"104.060394,30.661573",中国工商银行(东城根街支行),[],[],四川省,[],[],2,028-86262466;028-86242766;95588,金融保险服务;银行;中国工商银行,160105
府青路一段19号附2-5,成华区,[],[],[],成都市,[],B001C80GQD,[],"104.094614,30.675645",中国工商银行(成都石油路支行),[],[],四川省,[],[],2,028-83397274,金融保险服务;银行;中国工商银行,160105
华阳镇正北上街38号,双流区,[],[],3,成都市,[],B001C8MPAS,[],"104.056398,30.506437",中国工商银行24小时自助银行(华阳支行),B001C7YLB2,[],四川省,[],[],2,[],金融保险服务;自动提款机;中国工商银行ATM,160302
实业街9号附1号,青羊区,[],[],[],成都市,[],B001C0AFXU,[],"104.055301,30.665294",中国工商银行(成都实业街支行),[],[],四川省,[],[],2,028-86639462;95588,金融保险服务;银行;中国工商银行,160105
清江东路122号附2-5号,青羊区,[],[],[],成都市,[],B001C080T9,[],"104.033767,30.668440",中国工商银行(罗家碾支行),[],[],四川省,[],[],2,028-61350010;95588,金融保险服务;银行;中国工商银行,160105
石家碾东路与菁华路交叉口西北50米,青白江区,[],[],[],成都市,[],B0FFFZSBD8,[],"104.269126,30.885763",中国工商银行24小时自助银行(石家碾东路),[],[],四川省,[],[],2,[],金融保险服务;自动提款机;中国工商银行ATM,160302
瑞联路3号附34-36,青羊区,[],[],[],成都市,[],B001C7WE2O,[],"104.004784,30.665269",中国工商银行(光华大道支行),[],[],四川省,[],[],2,028-61860135;028-81707447;95588,金融保险服务;银行;中国工商银行,160105
倪家桥路1号,武侯区,[],[],[],成都市,[],B001C06T1P,[],"104.066386,30.625173",中国工商银行(跳伞塔支行),[],[],四川省,[],[],2,028-85551806;028-85583941,金融保险服务;银行;中国工商银行,160105
取友路与成育路交叉口西北50米,龙泉驿区,[],[],[],成都市,[],B0FFLBV7W4,[],"104.198606,30.566819",中国工商银行ATM(成育路),[],[],四川省,[],[],2,[],金融保险服务;自动提款机;中国工商银行ATM,160302
龙工南路777号凯旋门一楼,龙泉驿区,[],[],[],成都市,[],B0FFI6NQCD,[],"104.255856,30.541967",中国工商银行(成都龙工南路支行),[],[],四川省,[],[],2,028-68224316,金融保险服务;银行;中国工商银行,160105
金凤街131号上风港时代广场3栋1层,武侯区,[],[],202,成都市,[],B0FFHF7BKH,[],"103.970417,30.608680",中国工商银行(金兴支行),B0FFHLKSOW,[],四川省,[],[],2,028-84539356,金融保险服务;银行;中国工商银行,160105
临邛镇朱水碾街255号,邛崃市,[],[],[],成都市,[],B0FFJBWTKS,[],"103.463303,30.400105",中国工商银行(成都邛崃东星支行),[],[],四川省,[],[],2,028-88791578,金融保险服务;银行;中国工商银行,160105
天府二街999号伊藤洋华堂高新店B1层,武侯区,[],[],[],成都市,[],B0FFGFNU31,[],"104.045685,30.550107",中国工商银行24小时自助银行(剑南大道支行),[],[],四川省,[],[],2,[],金融保险服务;自动提款机;中国工商银行ATM,160302
广福桥北街6号附16-20号,武侯区,[],[],[],成都市,[],B001C0AFW4,[],"104.034868,30.641383",中国工商银行(广福桥北街支行),[],[],四川省,[],[],2,028-85082793;028-85062372;028-95588,金融保险服务;银行;中国工商银行,160105
蜀州北路240-248号,崇州市,[],[],[],成都市,[],B001C0AFY0,[],"103.670056,30.639552",中国工商银行(蜀州北路支行),[],[],四川省,[],[],2,028-82208757;028-82271775,金融保险服务;银行;中国工商银行,160105
永康西路177-179号,崇州市,[],[],[],成都市,[],B001C8OF2V,[],"103.673958,30.621854",中国工商银行(永康西路支行),[],[],四川省,[],[],2,028-82219971,金融保险服务;银行;中国工商银行,160105
二环路北三段388号荷花池宏正广场1层,金牛区,[],[],202,成都市,[],B001C06V01,[],"104.078764,30.693833",中国工商银行(成都荷花池支行),B001C8QJJX,[],四川省,[],[],2,028-83377529;028-95588,金融保险服务;银行;中国工商银行,160105
犀浦镇西华大学,金牛区,[],[],[],成都市,[],B0FFFZBWOF,[],"103.947463,30.775572",中国工商银行24小时自助银行,[],[],四川省,[],[],2,[],金融保险服务;自动提款机;中国工商银行ATM,160302
成都市高新区尚锦路282号,郫都区,[],[],[],成都市,[],B0FFISD930,[],"103.929003,30.779975",中国工商银行(成都尚锦路支行),[],[],四川省,[],[],2,[],金融保险服务;银行;中国工商银行,160105
蜀兴西街36号质量技术监督局大楼一楼,金牛区,[],[],3,成都市,[],B001C7UGDI,[],"104.023658,30.691057",中国工商银行24小时自助银行(黄忠大道支行),B001C0AFWI,[],四川省,[],[],2,[],金融保险服务;自动提款机;中国工商银行ATM,160302
柳台大道东段215-219号,温江区,[],[],[],成都市,[],B001C807U0,[],"103.823006,30.687536",中国工商银行(海峡科技园支行),[],[],四川省,[],[],2,028-82685344;028-95588;028-82685395,金融保险服务;银行;中国工商银行,160105
花园街37号,锦江区,[],[],[],成都市,[],B001C7UQB6,[],"104.113683,30.616365",中国工商银行(成都静安路支行),[],[],四川省,[],[],2,028-84779845,金融保险服务;银行;中国工商银行,160105
致远路与陈英路交叉口西100米,龙泉驿区,[],[],[],成都市,[],B0FFHB4LBS,[],"104.191592,30.650973",中国工商银行24小时自助银行(陈英路),[],[],四川省,[],[],2,[],金融保险服务;自动提款机;中国工商银行ATM,160302
机场路成都双流国际机场1F层,双流区,[],[],201,成都市,[],B0FFGF9I8G,[],"103.958221,30.577984",中国工商银行ATM(成都空港大酒店西北),B001C06GIA,[],四川省,[],[],2,[],金融保险服务;自动提款机;中国工商银行ATM,160302
浆洗街1号附2-4号,武侯区,[],[],3,成都市,[],B001C7WHPM,[],"104.056428,30.641696",中国工商银行24小时自助银行(浆洗街支行),B001C7WHPL,[],四川省,[],[],2,[],金融保险服务;自动提款机;中国工商银行ATM,160302
千禧街与澄平街交叉口东北100米,大邑县,[],[],[],成都市,[],B0FFGIKJZJ,[],"103.619731,30.514486",中国工商银行24小时自助银行(千禧街),[],[],四川省,[],[],2,[],金融保险服务;自动提款机;中国工商银行ATM,160302
学院路西段市民服务中心-号楼底层,新都区,[],[],[],成都市,[],B0FFFE3UEL,[],"104.180652,30.802959",中国工商银行24小时自助银行(育英路),[],[],四川省,[],[],2,[],金融保险服务;自动提款机;中国工商银行ATM,160302
天彭镇泰安北路140-148号,彭州市,[],[],[],成都市,[],B0FFFPA6FG,[],"103.953202,30.994216",中国工商银行(泰安北路支行),[],[],四川省,[],[],2,028-83886957,金融保险服务;银行;中国工商银行,160105
[],成华区,[],[],[],成都市,[],B0HGXUXBHN,[],"104.133627,30.647147",中国工商银行(槐庭路支行),[],[],四川省,[],[],2,[],金融保险服务;银行;中国工商银行,160105
应龙路,双流区,[],[],[],成都市,[],B0HGPMTICH,[],"104.081473,30.533813",中国工商银行(成都应龙路支行),[],[],四川省,[],[],2,[],金融保险服务;银行;中国工商银行,160105
[],新津区,[],[],[],成都市,[],B0HG6HDHVD,[],"103.814985,30.484359",中国工商银行,[],[],四川省,[],[],2,[],金融保险服务;银行;中国工商银行,160105
金茶路112号、114号,龙泉驿区,[],[],[],成都市,[],B0HG5ZB7WY,[],"104.194651,30.569332",中国工商银行(成都金茶路支行),[],[],四川省,[],[],2,028-83178009,金融保险服务;银行;中国工商银行,160105
成白路与川大路一段交叉路口往南约100米,双流区,[],[],[],成都市,[],B0HACNU5F6,[],"104.017338,30.560905",中国工商银行,[],[],四川省,[],[],2,[],金融保险服务;银行;中国工商银行,160105
都江堰大道376号金融中心4号楼,都江堰市,[],[],[],成都市,[],B0GUJ4O05W,[],"103.656605,30.985524",中国工商银行,[],[],四川省,[],[],2,[],金融保险服务;银行;中国工商银行,160105
牧电路,青羊区,[],[],[],成都市,[],B0GRUC5YYR,[],"104.033577,30.666045",中国工商银行(牧电路),[],[],四川省,[],[],2,[],金融保险服务;银行;中国工商银行,160105
[],青白江区,[],[],[],成都市,[],B0GRUA5HCD,[],"104.250422,30.884288",中国工商银行(怡湖西路支行),[],[],四川省,[],[],2,[],金融保险服务;银行;中国工商银行,160105
[],新津区,[],[],311,成都市,[],B0GKMAQQ4Y,[],"103.898443,30.401346",中国工商银行,B0FFG6S32M,[],四川省,[],[],2,[],金融保险服务;银行;中国工商银行,160105
[],金堂县,[],[],[],成都市,[],B0G3U727ZG,[],"104.394562,30.850080",中国工商银行,[],[],四川省,[],[],2,[],金融保险服务;银行;中国工商银行,160105
崔家店横一街65号,成华区,[],[],[],成都市,[],B0G397P5SQ,[],"104.130903,30.661396",中国工商银行(成都杉板桥支行),[],[],四川省,[],[],2,[],金融保险服务;银行;中国工商银行,160105
会展大道,新都区,[],[],[],成都市,[],B0G33MU71P,[],"104.023495,30.841653",中国工商银行,[],[],四川省,[],[],2,[],金融保险服务;银行;中国工商银行,160105
[],崇州市,[],[],[],成都市,[],B0G27ZEA9J,[],"103.673957,30.629028",中国工商银行,[],[],四川省,[],[],2,[],金融保险服务;银行;中国工商银行,160105
成双大道中段413号,武侯区,[],[],[],成都市,[],B0G26AKB0B,[],"103.982702,30.599721",中国工商银行(西部鞋都支行),[],[],四川省,[],[],2,028-85005029;95588,金融保险服务;银行;中国工商银行,160105
潘家街3段东南70米,大邑县,[],[],[],成都市,[],B0G0NBV9X9,[],"103.534008,30.571852",中国工商银行,[],[],四川省,[],[],2,[],金融保险服务;银行;中国工商银行,160105
[],锦江区,[],[],[],成都市,[],B0G0KBQJ9R,[],"104.092883,30.645161",中国工商银行,[],[],四川省,[],[],2,[],金融保险服务;银行;中国工商银行,160105
天庆街196号-附1附近,邛崃市,[],[],[],成都市,[],B0FFMH9NRQ,[],"103.455800,30.411297",中国工商银行,[],[],四川省,[],[],2,[],金融保险服务;银行;中国工商银行,160105
三星镇大学城大学城星岛国际,金堂县,[],[],202,成都市,[],B0FFLK5CW4,[],"104.460318,30.849013",中国工商银行(学府大道),B001C8VNUG,[],四川省,[],[],2,[],金融保险服务;银行;中国工商银行,160105
[],彭州市,[],[],[],成都市,[],B0FFLCDLSN,[],"103.945186,30.932526",中国工商银行,[],[],四川省,[],[],2,[],金融保险服务;银行;中国工商银行,160105
长安路190号附近,温江区,[],[],[],成都市,[],B0FFL4U8F1,[],"103.853636,30.698909",中国工商银行,[],[],四川省,[],[],2,[],金融保险服务;银行;中国工商银行,160105
[],新都区,[],[],[],成都市,[],B0FFL3IKX4,[],"104.180868,30.802946",中国工商银行,[],[],四川省,[],[],2,[],金融保险服务;银行;中国工商银行,160105
斑竹园镇北星大道二段877号1栋1层129号,新都区,[],[],202,成都市,[],B0FFKHCJD5,[],"104.080849,30.819154",中国工商银行(成都北星大道支行),B001C8RHCE,[],四川省,[],[],2,028-83986156,金融保险服务;银行;中国工商银行,160105
大丰街道利民路513-519号,新都区,[],[],[],成都市,[],B0FFKGWMAI,[],"104.082680,30.756850",中国工商银行(利民路支行),[],[],四川省,[],[],2,[],金融保险服务;银行;中国工商银行,160105
和美路与红星路南延线交叉口北50米,双流区,[],[],[],成都市,[],B0FFJPZVQL,[],"104.089464,30.547459",中国工商银行(和美路支行),[],[],四川省,[],[],2,028-81715362,金融保险服务;银行;中国工商银行,160105
草池街道安顺街20号机场建设指挥部内,简阳市,[],[],[],成都市,[],B0FFI02L12,[],"104.405242,30.316760",中国工商银行(天府国际机场支行),[],[],四川省,[],[],2,028-86900450,金融保险服务;银行;中国工商银行,160105
灌口镇江安河东路中段1号,都江堰市,[],[],[],成都市,[],B001C80JW3,[],"103.626223,30.979665",中国工商银行(江安河东路支行),[],[],四川省,[],[],2,028-87268401;028-87245025,金融保险服务;银行;中国工商银行,160105
洛带镇下街372-374号,龙泉驿区,[],[],302,成都市,[],B001C91T50,[],"104.324281,30.639673",中国工商银行24小时自助银行(水井广场北),B001C8P5T0,[],四川省,[],[],2,[],金融保险服务;自动提款机;中国工商银行ATM,160302
高新区益州大道中段1266号工行后台中心2楼,武侯区,[],[],0,成都市,[],B0FFF6LBE7,[],"104.055448,30.545739",中国工商银行后台中心(成都),B001C8PM5B,[],四川省,[],[],2,95588,金融保险服务;银行;中国工商银行|金融保险服务;银行相关;银行相关,160105|160200
蜚虹路343-345号,邛崃市,[],[],[],成都市,[],B001C95E8H,[],"103.476066,30.416683",中国工商银行(邛崃蜚虹路支行),[],[],四川省,[],[],2,028-88776017,金融保险服务;银行;中国工商银行,160105
新鸿南路174-178号,成华区,[],[],[],成都市,[],B001C7WFAC,[],"104.106080,30.661565",中国工商银行ATM,[],[],四川省,[],[],2,[],金融保险服务;自动提款机;中国工商银行ATM,160302
柳台大道东段217、219、221、223号,温江区,[],[],3,成都市,[],B001C80B1T,[],"103.822975,30.687509",中国工商银行24小时自助银行(海峡科技园支行),B001C807U0,[],四川省,[],[],2,[],金融保险服务;自动提款机;中国工商银行ATM,160302
崇阳镇滨江路南一段1号,崇州市,[],[],[],成都市,[],B001C7ZYO1,[],"103.659181,30.630002",中国工商银行(西江桥支行),[],[],四川省,[],[],2,028-82314194;028-82209931,金融保险服务;银行;中国工商银行,160105
张祠堂街与潘家街三段交叉口东50米,大邑县,[],[],[],成都市,[],B001C8NPMR,[],"103.534008,30.571981",中国工商银行24小时自助银行(中共邑新社区支部委员会东南),[],[],四川省,[],[],2,[],金融保险服务;自动提款机;中国工商银行ATM,160302
马超西路128-132号,新都区,[],[],3,成都市,[],B001C8R6YL,[],"104.170541,30.812028",中国工商银行24小时自助银行(马超西路支行),B001C8R6YI,[],四川省,[],[],2,[],金融保险服务;自动提款机;中国工商银行ATM,160302
华金大道二段545号1栋1楼545号,青白江区,[],[],[],成都市,[],B0FFFPT6D9,[],"104.250414,30.884297",中国工商银行24小时自助银行(华金大道二段),[],[],四川省,[],[],2,[],金融保险服务;自动提款机;中国工商银行ATM,160302
红星路四段9-附1-附2号附近,锦江区,[],[],[],成都市,[],B0FFI33125,[],"104.075585,30.647743",中国工商银行-社保卡受理点,[],[],四川省,[],[],2,[],金融保险服务;银行;中国工商银行,160105
[],金牛区,[],[],3,成都市,[],B001C8VJTS,[],"104.053874,30.703225",中国工商银行24小时自助银行(群星路分理处),B001C8VK8U,[],四川省,[],[],2,[],金融保险服务;自动提款机;中国工商银行ATM,160302
万科路4号,成华区,[],[],3,成都市,[],B001C7ZZ57,[],"104.154505,30.625227",中国工商银行24小时自助银行(万科路分理处),B001C7ZZ3Q,[],四川省,[],[],2,[],金融保险服务;自动提款机;中国工商银行ATM,160302
双林路200号,成华区,[],[],[],成都市,[],B001C7WF52,[],"104.105927,30.654718",中国工商银行(新华公园支行),[],[],四川省,[],[],2,028-95588,金融保险服务;银行;中国工商银行,160105
航空路6号附6-7号,武侯区,[],[],[],成都市,[],B001C7UR29,[],"104.070268,30.616161",中国工商银行(成都航空路支行),[],[],四川省,[],[],2,028-85266783;028-85266559;028-95588,金融保险服务;银行;中国工商银行,160105
淮洛路东50米,金堂县,[],[],302,成都市,[],B0FFHW90G8,[],"104.477385,30.604048",中国工商银行24小时自助银行,B0FFGQ3K69,[],四川省,[],[],2,[],金融保险服务;自动提款机;中国工商银行ATM,160302
田园诗驿小区26栋1,双流区,[],[],[],成都市,[],B0FFFADMDV,[],"104.110609,30.422685",中国工商银行24小时自助银行(田园诗驿小区西),[],[],四川省,[],[],2,[],金融保险服务;自动提款机;中国工商银行ATM,160302
晋原街道官渡东街165号1栋1楼107号,大邑县,[],[],[],成都市,[],B0FFGIL3N1,[],"103.519203,30.567959",中国工商银行24小时自助银行(潘家街四段),[],[],四川省,[],[],2,[],金融保险服务;自动提款机;中国工商银行ATM,160302
泰和二街与益州大道北段交叉口西南50米,武侯区,[],[],[],成都市,[],B0FFFRB9CP,[],"104.059631,30.599995",中国工商银行24小时自助银行(益州大道北段),[],[],四川省,[],[],2,[],金融保险服务;自动提款机;中国工商银行ATM,160302
栖霞路1号附10-13号,武侯区,[],[],[],成都市,[],B001C80BUD,[],"104.018280,30.641978",中国工商银行(栖霞路分理处),[],[],四川省,[],[],2,028-87061423,金融保险服务;银行;中国工商银行,160105
滨江西路12号,锦江区,[],[],3,成都市,[],B001C7WQW3,[],"104.061410,30.648109",中国工商银行24小时自助银行(滨江营业室),B001C7WQW2,[],四川省,[],[],2,[],金融保险服务;自动提款机;中国工商银行ATM,160302
长庆路3号附1-2号,金牛区,[],[],[],成都市,[],B001C0AFUI,[],"104.036552,30.706128",中国工商银行(长庆路支行),[],[],四川省,[],[],2,028-87696121;95588,金融保险服务;银行;中国工商银行,160105
天仁路387号,武侯区,[],[],202,成都市,[],B0FFF33WVX,[],"104.068962,30.601982",中国工商银行(天仁路支行),B0FFHXMEWI,[],四川省,[],[],2,028-85352412,金融保险服务;银行;中国工商银行,160105
长寿路4号之附2-附4号,武侯区,[],[],[],成都市,[],B001C05UUO,[],"104.075005,30.612171",中国工商银行(成都长寿路支行),[],[],四川省,[],[],2,028-85251179;95588,金融保险服务;银行;中国工商银行,160105
长城西一路158-160号,武侯区,[],[],[],成都市,[],B001C8O6UF,[],"104.030949,30.632960",中国工商银行(长城西一路支行),[],[],四川省,[],[],2,028-87760587;028-87761268,金融保险服务;银行;中国工商银行,160105
龙泉镇北京路北段9号底楼,龙泉驿区,[],[],[],成都市,[],B0FFGHNO6D,[],"104.244399,30.570767",中国工商银行24小时自助银行(皇冠商业街),[],[],四川省,[],[],2,[],金融保险服务;自动提款机;中国工商银行ATM,160302
置信路2号附18号,武侯区,[],[],[],成都市,[],B0FFFCOCDI,[],"104.020781,30.645071",中国工商银行24小时自助银行(同辉支行),[],[],四川省,[],[],2,[],金融保险服务;自动提款机;中国工商银行ATM,160302
建设路19-21号,龙泉驿区,[],[],[],成都市,[],B0G3T7PLSE,[],"104.273805,30.560636",中国工商银行24小时自助银行(建设路分理处),[],[],四川省,[],[],2,[],金融保险服务;自动提款机;中国工商银行ATM,160302
沙湾路65号金牛区委政府大楼内,金牛区,[],[],[],成都市,[],B0G249G7W5,[],"104.050710,30.690651",中国工商银行24小时自助银行,[],[],四川省,[],[],2,[],金融保险服务;自动提款机;中国工商银行ATM,160302
阳光街18号1栋附112,金牛区,[],[],[],成都市,[],B0FFKMOZRN,[],"103.981330,30.721166",中国工商银行24小时自助银行(蜀西路支行),[],[],四川省,[],[],2,[],金融保险服务;自动提款机;中国工商银行ATM,160302
盛和一路66城南天府1层,武侯区,[],[],202,成都市,[],B0FFK24FRG,[],"104.065776,30.604105",中国工商银行ATM,B0FFMHVLSF,[],四川省,[],[],2,[],金融保险服务;自动提款机;中国工商银行ATM,160302
一环路西一段19成都体育学院,武侯区,[],[],[],成都市,[],B0FFK0WDTN,[],"104.045616,30.648068",中国工商银行ATM(励志路),[],[],四川省,[],[],2,[],金融保险服务;自动提款机;中国工商银行ATM,160302
红光街道广场路北一段824号,郫都区,[],[],[],成都市,[],B0FFGSSHEQ,[],"103.957210,30.786981",中国工商银行24小时自助银行,[],[],四川省,[],[],2,[],金融保险服务;自动提款机;中国工商银行ATM,160302
红光街道广场路北二段60号银杏酒店管理学院食堂内侧,郫都区,[],[],[],成都市,[],B0FFGLWO3Q,[],"103.957672,30.786526",中国工商银行24小时自助银行,[],[],四川省,[],[],2,[],金融保险服务;自动提款机;中国工商银行ATM,160302
机场东路成都双流国际机场1F层,双流区,[],[],201,成都市,[],B0FFGF9I8H,[],"103.955449,30.568438",中国工商银行ATM(成都双流国际机场),B001C06GIA,[],四川省,[],[],2,[],金融保险服务;自动提款机;中国工商银行ATM,160302
瑞联路3号附34-36,青羊区,[],[],3,成都市,[],B001C7WE2P,[],"104.004747,30.665257",中国工商银行24小时自助银行(光华大道支行),B001C7WE2O,[],四川省,[],[],2,[],金融保险服务;自动提款机;中国工商银行ATM,160302
兴淮大道146,金堂县,[],[],[],成都市,[],B0FFFADCI9,[],"104.548811,30.715479",中国工商银行24小时自助银行(淮口支行),[],[],四川省,[],[],2,[],金融保险服务;自动提款机;中国工商银行ATM,160302
古柏路53号附3号,金牛区,[],[],3,成都市,[],B001C8074A,[],"104.054131,30.732722",中国工商银行24小时自助银行(建机厂支行),B001C7UBEN,[],四川省,[],[],2,[],金融保险服务;自动提款机;中国工商银行ATM,160302
下东大街216号喜年广场A座,锦江区,[],[],202,成都市,[],B001C8OPV9,[],"104.082947,30.649830",中国工商银行24小时自助银行(东大街支行),B001C8OKDH,[],四川省,[],[],2,[],金融保险服务;自动提款机;中国工商银行ATM,160302
华金大道二段269-273号,青白江区,[],[],[],成都市,[],B001C0AFWG,[],"104.262498,30.883537",中国工商银行(华金大道支行),[],[],四川省,[],[],2,028-83690708;028-83669230;95588,金融保险服务;银行;中国工商银行,160105
新都镇如意大道1号,新都区,[],[],[],成都市,[],B001C805UC,[],"104.153304,30.827025",中国工商银行24小时自助银行(如意大道),[],[],四川省,[],[],2,[],金融保险服务;自动提款机;中国工商银行ATM,160302
回龙西路43号,彭州市,[],[],[],成都市,[],B0FFGIO3K4,[],"103.962520,30.996028",中国工商银行24小时自助银行(回龙西路),[],[],四川省,[],[],2,[],金融保险服务;自动提款机;中国工商银行ATM,160302
南街与顺城街交叉口东50米,简阳市,[],[],[],成都市,[],B03400000E,[],"104.552631,30.389395",中国工商银行(简阳南街分理处),[],[],四川省,[],[],2,028-27214752;028-27228317,金融保险服务;银行;中国工商银行,160105
上北街2-6号,青白江区,[],[],[],成都市,[],B001C8VEZG,[],"104.320352,30.855630",中国工商银行24小时自助银行(上北街),[],[],四川省,[],[],2,[],金融保险服务;自动提款机;中国工商银行ATM,160302
龙泉街道平江北路2号,龙泉驿区,[],[],[],成都市,[],B001C06D9V,[],"104.261327,30.554880",中国工商银行(龙泉航天路支行),[],[],四川省,[],[],2,028-88420338,金融保险服务;银行;中国工商银行,160105
南街25号(大邑县物价局东),大邑县,[],[],[],成都市,[],B001C805UE,[],"103.518640,30.585467",中国工商银行24小时自助银行(西街),[],[],四川省,[],[],2,[],金融保险服务;自动提款机;中国工商银行ATM,160302
南街9号,大邑县,[],[],3,成都市,[],B001C7VRAE,[],"103.521734,30.585333",中国工商银行24小时自助银行(晋原支行),B001C0AFVE,[],四川省,[],[],2,[],金融保险服务;自动提款机;中国工商银行ATM,160302
蓉都大道天回路32号,金牛区,[],[],[],成都市,[],B001C954ML,[],"104.113358,30.739377",中国工商银行24小时自助银行(天回镇街道大湾社区北),[],[],四川省,[],[],2,[],金融保险服务;自动提款机;中国工商银行ATM,160302
盛兴路256号,金牛区,[],[],202,成都市,[],B001C94P0J,[],"104.013082,30.731053",中国工商银行24小时自助银行(盛兴路支行),B001C93JL5,[],四川省,[],[],2,[],金融保险服务;自动提款机;中国工商银行ATM,160302
新都大道8号西南石油大学,新都区,[],[],3,成都市,[],B001C8MEOW,[],"104.179557,30.820916",中国工商银行24小时自助银行(西南石油大学支行),B001C8MEOV,[],四川省,[],[],2,[],金融保险服务;自动提款机;中国工商银行ATM,160302
高新区芳草街28号,武侯区,[],[],3,成都市,[],B001C7WHDS,[],"104.051013,30.627014",中国工商银行ATM(芳草街),B001C7VR9H,[],四川省,[],[],2,[],金融保险服务;自动提款机;中国工商银行ATM,160302
二仙桥北路31号附2号,成华区,[],[],3,成都市,[],B001C7UGNI,[],"104.136759,30.681083",中国工商银行24小时自助银行(沙河支行机车车辆厂分理处),B001C7UGNH,[],四川省,[],[],2,[],金融保险服务;自动提款机;中国工商银行ATM,160302
东秀二路223号,成华区,[],[],[],成都市,[],B001C8MONH,[],"104.120569,30.659094",中国工商银行24小时自助银行(东秀二路),[],[],四川省,[],[],2,[],金融保险服务;自动提款机;中国工商银行ATM,160302
新都大道8号西南石油大学,新都区,[],[],[],成都市,[],B0FFG18DWP,[],"104.186626,30.825575",中国工商银行ATM(新都大道),[],[],四川省,[],[],2,[],金融保险服务;自动提款机;中国工商银行ATM,160302
郫都区科新路8号,郫都区,[],[],[],成都市,[],B0FFFX5SZQ,[],"103.917651,30.772048",中国工商银行24小时自助银行(高新综合保税区支行),[],[],四川省,[],[],2,[],金融保险服务;自动提款机;中国工商银行ATM,160302
桂蕊街140号附近,新都区,[],[],[],成都市,[],B0FFFVQSGE,[],"104.063098,30.773517",中国工商银行24小时自助银行(桂蕊街),[],[],四川省,[],[],2,[],金融保险服务;自动提款机;中国工商银行ATM,160302
东湖路142号,新都区,[],[],[],成都市,[],B0FFFQ20JN,[],"104.014515,30.875716",中国工商银行24小时自助银行(东湖路),[],[],四川省,[],[],2,[],金融保险服务;自动提款机;中国工商银行ATM,160302
东升街道仁和路2号1层,双流区,[],[],[],成都市,[],B0G2A630WI,[],"103.916574,30.573168",中国工商银行24小时自助银行(仁和路支行),[],[],四川省,[],[],2,[],金融保险服务;自动提款机;中国工商银行ATM,160302
龙梓街213号,郫都区,[],[],[],成都市,[],B0FFL36J14,[],"103.988518,30.749820",中国工商银行24小时自助银行(西南交大新区支行),[],[],四川省,[],[],2,[],金融保险服务;自动提款机;中国工商银行ATM,160302
王贾路18号1栋103-106号,金牛区,[],[],3,成都市,[],B0FFKWEVUX,[],"104.068774,30.718170",中国工商银行24小时自助银行(王贾路支行),B001C80IK1,[],四川省,[],[],2,[],金融保险服务;自动提款机;中国工商银行ATM,160302
潘家街四段辅路,大邑县,[],[],[],成都市,[],B0FFKUDBOX,[],"103.527722,30.567822",中国工商银行24小时自助银行(大邑大道支行),[],[],四川省,[],[],2,[],金融保险服务;自动提款机;中国工商银行ATM,160302
石油管理局家属大院,成华区,[],[],[],成都市,[],B0FFIS0X60,[],"104.094341,30.674789",中国工商银行自助银行(成都高新石油管理局家属大院式),[],[],四川省,[],[],2,[],金融保险服务;自动提款机;中国工商银行ATM,160302
至善南路,郫都区,[],[],[],成都市,[],B0FFIP6GW8,[],"103.949908,30.724180",中国工商银行24小时自助银行,[],[],四川省,[],[],2,[],金融保险服务;自动提款机;中国工商银行ATM,160302
蓉北商贸大道一段28号附5号,金牛区,[],[],[],成都市,[],B0FFHGT9GT,[],"104.066178,30.705512",中国工商银行24小时自助银行(蓉北商贸大道一段),[],[],四川省,[],[],2,[],金融保险服务;自动提款机;中国工商银行ATM,160302
文井中路131号,崇州市,[],[],[],成都市,[],B0FFFYH7S6,[],"103.525797,30.743021",中国工商银行24小时自助银行,[],[],四川省,[],[],2,[],金融保险服务;自动提款机;中国工商银行ATM,160302
宏济新路230-242号,锦江区,[],[],3,成都市,[],B001C7UPNN,[],"104.095160,30.638882",中国工商银行24小时自助银行(宏济新路支行),B001C7UPNM,[],四川省,[],[],2,[],金融保险服务;自动提款机;中国工商银行ATM,160302
[],武侯区,[],[],3,成都市,[],B001C7UOHL,[],"104.077382,30.634473",中国工商银行24小时自助银行,B001C0AFVJ,[],四川省,[],[],2,[],金融保险服务;自动提款机;中国工商银行ATM,160302
柳台大道东段555号西南财经大学华新教育商场1楼,温江区,[],[],[],成都市,[],B001C7TJTY,[],"103.816494,30.681498",中国工商银行24小时自助银行(学府路北段),[],[],四川省,[],[],2,[],金融保险服务;自动提款机;中国工商银行ATM,160302
红建路45号,简阳市,[],[],[],成都市,[],B0FFHLJNM1,[],"104.551958,30.393141",中国工商银行(简阳政府街支行),[],[],四川省,[],[],2,028-27292693;028-27568935,金融保险服务;银行;中国工商银行,160105
五津西路1-5号,新津区,[],[],[],成都市,[],B001C7VRBQ,[],"103.811613,30.414482",中国工商银行(五津西路支行),[],[],四川省,[],[],2,028-82437096;028-82521641,金融保险服务;银行;中国工商银行,160105
金沙遗址路68号,青羊区,[],[],[],成都市,[],B0FFGCBCBM,[],"104.004236,30.682769",中国工商银行24小时自助银行(遗址路分理处),[],[],四川省,[],[],2,[],金融保险服务;自动提款机;中国工商银行ATM,160302
科华南路3号附20号,武侯区,[],[],[],成都市,[],B001C7WGCT,[],"104.077796,30.609241",中国工商银行(科华南路支行),[],[],四川省,[],[],2,028-85221585,金融保险服务;银行;中国工商银行,160105
龙泉镇平江北路2号,龙泉驿区,[],[],3,成都市,[],B001C8NODU,[],"104.261500,30.554825",中国工商银行24小时自助银行(航天路支行),B001C06D9V,[],四川省,[],[],2,[],金融保险服务;自动提款机;中国工商银行ATM,160302
浆洗街1号附2-4号,武侯区,[],[],[],成都市,[],B001C7WHPL,[],"104.056564,30.641718",中国工商银行(浆洗街支行),[],[],四川省,[],[],2,028-85563807;028-85565761,金融保险服务;银行;中国工商银行,160105
一品天下大街932号,金牛区,[],[],3,成都市,[],B001C8N6TB,[],"104.039380,30.700906",中国工商银行24小时自助银行(一品天下分理处),B001C8MMZ7,[],四川省,[],[],2,[],金融保险服务;自动提款机;中国工商银行ATM,160302
北大街69-71号附3号,彭州市,[],[],[],成都市,[],B0FFHLPB9L,[],"103.942150,30.985566",中国工商银行(彭州支行),[],[],四川省,[],[],2,028-83873173;028-83872221,金融保险服务;银行;中国工商银行,160105
新津服务区附近,新津区,[],[],311,成都市,[],B001C8O2G7,[],"103.898322,30.401391",新津服务区中国工商银行ATM,B0FFG6S32M,[],四川省,[],[],2,[],金融保险服务;自动提款机;中国工商银行ATM,160302
惠王陵东路109四川师范大学东校区,龙泉驿区,[],[],[],成都市,[],B0FFG189JW,[],"104.163175,30.608395",中国工商银行24小时自助银行(四川城市职业学院校医院东),[],[],四川省,[],[],2,[],金融保险服务;自动提款机;中国工商银行ATM,160302
致顺路555号14-1-103附近,成华区,[],[],[],成都市,[],B0FFGH0PMW,[],"104.114599,30.699326",中国工商银行24小时自助银行(致顺路支行),[],[],四川省,[],[],2,[],金融保险服务;自动提款机;中国工商银行ATM,160302
武侯祠大街266号华达商城内,武侯区,[],[],[],成都市,[],B001C7XMOU,[],"104.042149,30.641942",中国工商银行(华达支行),[],[],四川省,[],[],2,028-85547674;028-85555350;95588,金融保险服务;银行;中国工商银行,160105
一品天下大街140,金牛区,[],[],[],成都市,[],B001C0AFWI,[],"104.023514,30.690953",中国工商银行(黄忠大道支行),[],[],四川省,[],[],2,028-87527676;028-87532626,金融保险服务;银行;中国工商银行,160105
建设路19-21号,龙泉驿区,[],[],3,成都市,[],B001C8VJOT,[],"104.273303,30.561050",中国工商银行自助银行(成都龙泉建设路支行),B001C7UWNF,[],四川省,[],[],2,[],金融保险服务;自动提款机;中国工商银行ATM,160302
双林北支路200号,成华区,[],[],[],成都市,[],B001C7UO22,[],"104.110564,30.656993",中国工商银行24小时自助银行(双林北支路支行),[],[],四川省,[],[],2,[],金融保险服务;自动提款机;中国工商银行ATM,160302
三洞桥路20号附2号,金牛区,[],[],3,成都市,[],B001C7WQVY,[],"104.050755,30.675425",中国工商银行24小时自助银行(石灰街支行),B001C7WQVX,[],四川省,[],[],2,[],金融保险服务;自动提款机;中国工商银行ATM,160302
春熙路北段50号附1号-附2号,锦江区,[],[],3,成都市,[],B001C7WQWE,[],"104.078272,30.657141",中国工商银行24小时自助银行(春熙路步行街支行),B001C7WQWD,[],四川省,[],[],2,[],金融保险服务;自动提款机;中国工商银行ATM,160302
总府路35号附1-4号,锦江区,[],[],[],成都市,[],B0FFHS0ZBS,[],"104.076658,30.659093",中国工商银行24小时自助银行(春熙支行营业室),[],[],四川省,[],[],2,[],金融保险服务;自动提款机;中国工商银行ATM,160302
临邛镇东环路106号,邛崃市,[],[],[],成都市,[],B001C8O2AC,[],"103.466023,30.407924",中国工商银行24小时自助银行,[],[],四川省,[],[],2,[],金融保险服务;自动提款机;中国工商银行ATM,160302
朝阳南路468-478号,彭州市,[],[],3,成都市,[],B001C8OPFN,[],"103.951572,30.976865",中国工商银行24小时自助银行(朝阳南路支行),B001C8OPFR,[],四川省,[],[],2,[],金融保险服务;自动提款机;中国工商银行ATM,160302
蜀龙大道南段与驿站路交叉口东100米,新都区,[],[],[],成都市,[],B0FFITZB29,[],"104.150373,30.753953",中国工商银行24小时自助银行,[],[],四川省,[],[],2,[],金融保险服务;自动提款机;中国工商银行ATM,160302
惠民二路与花园路交叉口西南50米,新都区,[],[],[],成都市,[],B0FFGFXXH6,[],"104.139946,30.780480",中国工商银行24小时自助银行(花园路),[],[],四川省,[],[],2,[],金融保险服务;自动提款机;中国工商银行ATM,160302
汇源东路与汇源北路交叉口南100米,锦江区,[],[],[],成都市,[],B0FFGXMKAF,[],"104.114187,30.635569",中国工商银行24小时自助银行(汇源北路),[],[],四川省,[],[],2,[],金融保险服务;自动提款机;中国工商银行ATM,160302
一环路南一段24号四川大学行政楼,武侯区,[],[],[],成都市,[],B001C7Y9ML,[],"104.079199,30.632655",中国工商银行(四川大学支行),[],[],四川省,[],[],2,028-85400673;028-85400285,金融保险服务;银行;中国工商银行,160105
二仙桥东三路1号成都理工大学学术交流中心营业用房,成华区,[],[],3,成都市,[],B001C8NS2W,[],"104.138828,30.673546",中国工商银行24小时自助银行(成都理工大学支行),B001C8NRR4,[],四川省,[],[],2,[],金融保险服务;自动提款机;中国工商银行ATM,160302
印鳌路附近,简阳市,[],[],[],成都市,[],B0FFFSARL8,[],"104.543151,30.408749",中国工商银行24小时自助银行(印鳌路),[],[],四川省,[],[],2,[],金融保险服务;自动提款机;中国工商银行ATM,160302
清溪西路33号附2号,青羊区,[],[],[],成都市,[],B001C92C9I,[],"104.020306,30.678968",中国工商银行ATM,[],[],四川省,[],[],2,[],金融保险服务;自动提款机;中国工商银行ATM,160302
安居路265号,青白江区,[],[],[],成都市,[],B001C8R76O,[],"104.262441,30.889601",中国工商银行ATM,[],[],四川省,[],[],2,[],金融保险服务;自动提款机;中国工商银行ATM,160302
一环路东一段240号电子科大成教院,成华区,[],[],[],成都市,[],B001C7TJTK,[],"104.097262,30.674132",中国工商银行ATM(一环路东一段),[],[],四川省,[],[],2,[],金融保险服务;自动提款机;中国工商银行ATM,160302
光华东三路546、548、550、552、588号8栋附107-110号,青羊区,[],[],[],成都市,[],B0FFI0DFQW,[],"103.960032,30.672082",中国工商银行(东三路分理处),[],[],四川省,[],[],2,028-86276824,金融保险服务;银行;中国工商银行,160105
二环路北一段111号西南交通大学行政办公楼底商,金牛区,[],[],[],成都市,[],B001C7WD4M,[],"104.053714,30.695392",中国工商银行(西南交通大学支行),[],[],四川省,[],[],2,028-87600316,金融保险服务;银行;中国工商银行,160105
双庆路8号万象城1层198号,成华区,[],[],202,成都市,[],B001C8P6DH,[],"104.117084,30.649786",中国工商银行24小时自助银行(成都万象城支行),B001C8O6UD,[],四川省,[],[],2,[],金融保险服务;自动提款机;中国工商银行ATM,160302
庆云西街19号,锦江区,[],[],[],成都市,[],B0FFF9VIB8,[],"104.085946,30.662117",中国工商银行24小时自助银行(庆云西街),[],[],四川省,[],[],2,[],金融保险服务;自动提款机;中国工商银行ATM,160302
涌泉清泉北街19,温江区,[],[],3,成都市,[],B001C8N4VN,[],"103.877596,30.679237",中国工商银行24小时自助银行(温泉大道支行),B001C8MVT7,[],四川省,[],[],2,[],金融保险服务;自动提款机;中国工商银行ATM,160302
八里小区新风路5号,成华区,[],[],3,成都市,[],B001C0AFU2,[],"104.111636,30.684652",中国工商银行24小时自助银行(八里小区分理处),B001C0AFU1,[],四川省,[],[],2,[],金融保险服务;自动提款机;中国工商银行ATM,160302
政府街与黄甲大道交叉口东50米,双流区,[],[],[],成都市,[],B0FFH3OMI0,[],"103.950739,30.492928",中国工商银行24小时自助银行,[],[],四川省,[],[],2,[],金融保险服务;自动提款机;中国工商银行ATM,160302
海桐街330号,锦江区,[],[],[],成都市,[],B0FFG76CQJ,[],"104.133010,30.608027",中国工商银行ATM,[],[],四川省,[],[],2,[],金融保险服务;自动提款机;中国工商银行ATM,160302
驿泉路1号怡水居15栋1、2层1号,龙泉驿区,[],[],3,成都市,[],B001C8NQ6X,[],"104.248965,30.568343",中国工商银行24小时自助银行(泉路支行),B001C8NPFQ,[],四川省,[],[],2,[],金融保险服务;自动提款机;中国工商银行ATM,160302
提督街50号,锦江区,[],[],[],成都市,[],B0FFHQ58PJ,[],"104.074511,30.659676",成都市高速公路ETC安装点(工行提督街支行),[],[],四川省,[],[],2,028-86751641,金融保险服务;银行;中国工商银行|生活服务;生活服务场所;生活服务场所,160105|070000
广都中街79附近,双流区,[],[],[],成都市,[],B0FFFS329U,[],"104.064246,30.507359",中国工商银行24小时自助银行(广都中街),[],[],四川省,[],[],2,[],金融保险服务;自动提款机;中国工商银行ATM,160302
永安西路与滨江路南一段交叉口东南100米,崇州市,[],[],[],成都市,[],B0FFHJEP8W,[],"103.659037,30.629847",中国工商银行24小时自助银行(西江桥分理处),[],[],四川省,[],[],2,[],金融保险服务;自动提款机;中国工商银行ATM,160302
西体路1号附3-7号,金牛区,[],[],3,成都市,[],B001C7YQCV,[],"104.056343,30.678905",中国工商银行24小时自助银行(通锦桥支行),B001C7YL2D,[],四川省,[],[],2,[],金融保险服务;自动提款机;中国工商银行ATM,160302
佳灵路53号附1号,武侯区,[],[],[],成都市,[],B001C0AFUT,[],"104.026305,30.627509",中国工商银行成都红牌楼支行,[],[],四川省,[],[],2,028-85067701,金融保险服务;银行;银行,160100
顺城大街229号附9号,青羊区,[],[],[],成都市,[],B001C7XYSL,[],"104.072357,30.662051",中国工商银行24小时自助银行(鼓楼南街),[],[],四川省,[],[],2,[],金融保险服务;自动提款机;中国工商银行ATM,160302
华东一路37,成华区,[],[],[],成都市,[],B0FFGFV7WR,[],"104.140142,30.681496",中国工商银行24小时自助银行(机车车辆厂支行),[],[],四川省,[],[],2,[],金融保险服务;自动提款机;中国工商银行ATM,160302
北大街71号附1-6,彭州市,[],[],3,成都市,[],B001C0AFUS,[],"103.942174,30.985448",中国工商银行24小时自助银行(彭州支行),B001C0AFUR,[],四川省,[],[],2,[],金融保险服务;自动提款机;中国工商银行ATM,160302
雄州大道南段附近,简阳市,[],[],[],成都市,[],B0FFFTKZR5,[],"104.549183,30.402095",中国工商银行24小时自助银行(雄州大道南段),[],[],四川省,[],[],2,[],金融保险服务;自动提款机;中国工商银行ATM,160302
建材路与文旭路交叉口东50米,龙泉驿区,[],[],[],成都市,[],B0FFFAD1FJ,[],"104.282104,30.567318",中国工商银行24小时自助银行(龙泉驿区城乡建设局西北),[],[],四川省,[],[],2,[],金融保险服务;自动提款机;中国工商银行ATM,160302
东大街449号,郫都区,[],[],[],成都市,[],B001C91XN6,[],"103.893080,30.802818",中国工商银行24小时自助银行(望东路支行),[],[],四川省,[],[],2,[],金融保险服务;自动提款机;中国工商银行ATM,160302
柳城大道东段79号,温江区,[],[],[],成都市,[],B001C80ALN,[],"103.841821,30.694145",中国工商银行24小时自助银行(柳城大道东段),[],[],四川省,[],[],2,[],金融保险服务;自动提款机;中国工商银行ATM,160302
子龙街与富民路北段交叉口北50米,大邑县,[],[],[],成都市,[],B0FFJFCWU4,[],"103.530030,30.591361",中国工商银行24小时自助银行,[],[],四川省,[],[],2,[],金融保险服务;自动提款机;中国工商银行ATM,160302
大东街17-37号,崇州市,[],[],[],成都市,[],B001C0AFV5,[],"103.673720,30.629031",中国工商银行(崇州支行营业室),[],[],四川省,[],[],2,028-82273414;028-82272222,金融保险服务;银行;中国工商银行,160105
桐梓林北路10号附1号,武侯区,[],[],[],成都市,[],B001C7URQ7,[],"104.062456,30.616436",中国工商银行(桐梓林北街支行),[],[],四川省,[],[],2,028-85142113,金融保险服务;银行;中国工商银行,160105
新繁街道正东街64-70号,新都区,[],[],3,成都市,[],B001C8MYN4,[],"104.019322,30.874446",中国工商银行24小时自助银行(新都新繁支行),B001C0AFYW,[],四川省,[],[],2,[],金融保险服务;自动提款机;中国工商银行ATM,160302
武阳西路212号附近,新津区,[],[],[],成都市,[],B0FFFAC7K2,[],"103.804006,30.413420",中国工商银行24小时自助银行(望津阁西),[],[],四川省,[],[],2,[],金融保险服务;自动提款机;中国工商银行ATM,160302
羊安街道羊安新城永康大道105、107、109号,邛崃市,[],[],[],成都市,[],B0FFI0MIYI,[],"103.703587,30.396445",中国工商银行24小时自助银行,[],[],四川省,[],[],2,[],金融保险服务;自动提款机;中国工商银行ATM,160302
金鱼街7号附29号,金牛区,[],[],[],成都市,[],B0FFFY59EY,[],"104.040196,30.683308",中国工商银行24小时自助银行(金鱼街),[],[],四川省,[],[],2,[],金融保险服务;自动提款机;中国工商银行ATM,160302
倪家桥路11号附5-附6号,武侯区,[],[],3,成都市,[],B001C7VR9N,[],"104.058427,30.624985",中国工商银行24小时自助银行(倪家桥支行),B001C7VR9M,[],四川省,[],[],2,[],金融保险服务;自动提款机;中国工商银行ATM,160302
大学路2号附1号,武侯区,[],[],202,成都市,[],B001C7UQRS,[],"104.072757,30.642866",中国工商银行24小时自助银行(大学路支行),B0FFGBJ0EH,[],四川省,[],[],2,[],金融保险服务;自动提款机;中国工商银行ATM,160302
锦泉街285-291号附近,温江区,[],[],[],成都市,[],B0FFFAD0D5,[],"103.856012,30.688969",中国工商银行24小时自助银行(成都锦泉街支行),[],[],四川省,[],[],2,[],金融保险服务;自动提款机;中国工商银行ATM,160302
晋原街道东街118号,大邑县,[],[],3,成都市,[],B0FFF5TZVE,[],"103.525017,30.586466",中国工商银行24小时自助银行(大邑支行营业室),B001C8NQCX,[],四川省,[],[],2,[],金融保险服务;自动提款机;中国工商银行ATM,160302
五丁路6号附1号,金牛区,[],[],3,成都市,[],B001C7YP5E,[],"104.065568,30.683023",中国工商银行24小时自助银行(成都铁道支行),B001C7YL6N,[],四川省,[],[],2,[],金融保险服务;自动提款机;中国工商银行ATM,160302
圣灯路155号,成华区,[],[],[],成都市,[],B0FFFCSZF3,[],"104.124241,30.672102",中国工商银行24小时自助银行(成都建设南路支行),[],[],四川省,[],[],2,[],金融保险服务;自动提款机;中国工商银行ATM,160302
草市街64号,青羊区,[],[],3,成都市,[],B001C7WQVJ,[],"104.075482,30.672069",中国工商银行24小时自助银行(草市支行),B001C0AFUE,[],四川省,[],[],2,[],金融保险服务;自动提款机;中国工商银行ATM,160302
蜚虹路343-345号,邛崃市,[],[],[],成都市,[],B0FFF3AEH1,[],"103.475988,30.416691",中国工商银行24小时自助银行(蜚虹路支行),[],[],四川省,[],[],2,[],金融保险服务;自动提款机;中国工商银行ATM,160302
五津西路1-5号,新津区,[],[],3,成都市,[],B0FFIOS9CD,[],"103.812645,30.424082",中国工商银行24小时自助银行(成都新津支行),B001C8O3A6,[],四川省,[],[],2,[],金融保险服务;自动提款机;中国工商银行ATM,160302
蓉北商贸大道一段111号,金牛区,[],[],3,成都市,[],B001C7YQB4,[],"104.063564,30.707949",中国工商银行24小时自助银行(蓉北商贸大道支行),B001C80J6J,[],四川省,[],[],2,[],金融保险服务;自动提款机;中国工商银行ATM,160302
长庆路3号附1-2号,金牛区,[],[],3,成都市,[],B001C7WC12,[],"104.036381,30.706331",中国工商银行24小时自助银行(长庆路支行),B001C0AFUI,[],四川省,[],[],2,[],金融保险服务;自动提款机;中国工商银行ATM,160302
御城7幢14号,新都区,[],[],202,成都市,[],B0FFFSTELU,[],"104.187637,30.814109",中国工商银行24小时自助银行(旺府豪庭西南),B0FFF8K7HM,[],四川省,[],[],2,[],金融保险服务;自动提款机;中国工商银行ATM,160302
九江镇蛟龙工业港蛟龙大道109号,双流区,[],[],3,成都市,[],B001C8R7JR,[],"103.910951,30.604870",中国工商银行24小时自助银行(双流蛟龙港支行),B001C8083U,[],四川省,[],[],2,[],金融保险服务;自动提款机;中国工商银行ATM,160302
[],新津区,[],[],[],成都市,[],B0G3SHVGY3,[],"103.893581,30.401491",中国工商银行24小时自助银行,[],[],四川省,[],[],2,[],金融保险服务;自动提款机;中国工商银行ATM,160302
迪康大道,郫都区,[],[],[],成都市,[],B0G3MC17RQ,[],"103.960953,30.744578",中国工商银行24小时自助银行(东方电气支行),[],[],四川省,[],[],2,[],金融保险服务;自动提款机;中国工商银行ATM,160302
[],简阳市,[],[],[],成都市,[],B0G397OEUU,[],"104.529284,30.420146",中国工商银行24小时自助银行,[],[],四川省,[],[],2,[],金融保险服务;自动提款机;中国工商银行ATM,160302
[],金牛区,[],[],[],成都市,[],B0G35CUN49,[],"104.050450,30.690761",中国工商银行24小时自助银行(金牛支行营业室),[],[],四川省,[],[],2,[],金融保险服务;自动提款机;中国工商银行ATM,160302
雅和南一路,双流区,[],[],[],成都市,[],B0G2DMO323,[],"104.074111,30.504124",中国工商银行24小时自助银行(新程大道支行),[],[],四川省,[],[],2,[],金融保险服务;自动提款机;中国工商银行ATM,160302
