address,adname,biz_ext,biz_type,childtype,cityname,distance,id,importance,location,name,parent,photos,pname,poiweight,shopid,shopinfo,tel,type,typecode
龙泉街道公园路一段146号文明街,龙泉驿区,[],[],[],成都市,[],B001C8N2T5,[],"104.278212,30.562832",中国邮政储蓄银行(文明街营业所),[],[],四川省,[],[],2,028-84884409;95580,金融保险服务;银行;中国邮政储蓄银行,160139
南通路104号,双流区,[],[],[],成都市,[],B0FFG7IYND,[],"103.987067,30.408320",中国邮政储蓄银行(双流区永安支行),[],[],四川省,[],[],2,028-85681184;95580,金融保险服务;银行;中国邮政储蓄银行,160139
金马街道太极大道296-298,温江区,[],[],[],成都市,[],B001C957LF,[],"103.803532,30.641134",中国邮政储蓄银行(金马街道营业所),[],[],四川省,[],[],2,028-82781286;95580,金融保险服务;银行;中国邮政储蓄银行,160139
高新区永丰路30号,武侯区,[],[],[],成都市,[],B001C7WH7Q,[],"104.047390,30.627593",中国邮政储蓄银行(高新区邮局营业部),[],[],四川省,[],[],2,028-66053980,金融保险服务;银行;中国邮政储蓄银行,160139
南北大道122-128,都江堰市,[],[],[],成都市,[],B0FFFQ210E,[],"103.596164,30.876685",中国邮政储蓄银行(青城镇支行),[],[],四川省,[],[],2,028-87256037,金融保险服务;银行;中国邮政储蓄银行,160139
紫竹南一街1号紫荆美熙广场,武侯区,[],[],202,成都市,[],B001C0AJ20,[],"104.054173,30.613199",中国邮政储蓄银行(紫荆东路营业所),B0FFGXCHXO,[],四川省,[],[],2,028-85194255;028-69919277;95580,金融保险服务;银行;中国邮政储蓄银行,160139
北大街107-109号,彭州市,[],[],[],成都市,[],B001C8078V,[],"103.942131,30.986380",中国邮政储蓄银行(北大街支行),[],[],四川省,[],[],2,028-83871667;95580,金融保险服务;银行;中国邮政储蓄银行,160139
核桃堰路39-41号,武侯区,[],[],[],成都市,[],B001C90QZC,[],"104.026488,30.626447",中国邮政储蓄银行(核桃堰路营业所),[],[],四川省,[],[],2,028-85537212;95580,金融保险服务;银行;中国邮政储蓄银行,160139
牡丹东路6号,彭州市,[],[],[],成都市,[],B001C8OPQ4,[],"103.959876,30.988478",中国邮政储蓄银行(盛世天彭支行),[],[],四川省,[],[],2,028-83873420,金融保险服务;银行;中国邮政储蓄银行,160139
光华村街44号附1号,青羊区,[],[],[],成都市,[],B001C08U24,[],"104.013920,30.663194",中国邮政储蓄银行(光华村支行),[],[],四川省,[],[],2,028-87086167;95580,金融保险服务;银行;中国邮政储蓄银行,160139
西河街道药王庙街2、4、6、8、10、12号,龙泉驿区,[],[],[],成都市,[],B001C8N3BL,[],"104.235516,30.651456",中国邮政储蓄银行(西河街道营业所),[],[],四川省,[],[],2,028-84890679;95580,金融保险服务;银行;中国邮政储蓄银行,160139
成双大道99号附近,武侯区,[],[],[],成都市,[],B0FFFFQ97M,[],"104.009472,30.611790",中国邮政储蓄银行(成都市聚龙路营业所),[],[],四川省,[],[],2,028-85041941;95580,金融保险服务;银行;中国邮政储蓄银行,160139
龙舟路59号,锦江区,[],[],[],成都市,[],B001C7YBX7,[],"104.097924,30.627119",中国邮政储蓄银行(龙舟南路支局),[],[],四川省,[],[],2,028-84555587;95580,金融保险服务;银行;中国邮政储蓄银行,160139
晋吉北路66号附28号,武侯区,[],[],[],成都市,[],B001C8YZUS,[],"104.004027,30.640145",中国邮政储蓄银行(晋吉北路营业所),[],[],四川省,[],[],2,028-87444078,金融保险服务;银行;中国邮政储蓄银行,160139
花园街180号,新津区,[],[],[],成都市,[],B001C8MSPH,[],"103.878085,30.497044",中国邮政储蓄银行(花源镇营业所),[],[],四川省,[],[],2,[],金融保险服务;银行;中国邮政储蓄银行,160139
解放街76号,都江堰市,[],[],[],成都市,[],B001C8YT3L,[],"103.646915,30.843448",中国邮政储蓄银行(石羊镇支行),[],[],四川省,[],[],2,028-87280126;95580,金融保险服务;银行;中国邮政储蓄银行,160139
昭觉寺横路99号附13号,成华区,[],[],[],成都市,[],B0FFFE1N4D,[],"104.105581,30.701674",中国邮政储蓄银行(青龙场营业所),[],[],四川省,[],[],2,028-84790560;95580,金融保险服务;银行;中国邮政储蓄银行,160139
太平街道长龙街123号,双流区,[],[],[],成都市,[],B001C8UB5J,[],"104.199240,30.429644",中国邮政储蓄银行(太平镇支行),[],[],四川省,[],[],2,028-85661400,金融保险服务;银行;中国邮政储蓄银行,160139
西街6号,新都区,[],[],[],成都市,[],B001C7TLJO,[],"104.160075,30.826749",中国邮政储蓄银行(西街营业所),[],[],四川省,[],[],2,028-83991599;028-95580,金融保险服务;银行;中国邮政储蓄银行,160139
九江镇双九路二段188号,双流区,[],[],[],成都市,[],B0FFG6ACFM,[],"103.912335,30.619851",中国邮政储蓄银行(九江镇营业所),[],[],四川省,[],[],2,028-85754404;95580,金融保险服务;银行;中国邮政储蓄银行,160139
成宏路2号附1-2,成华区,[],[],[],成都市,[],B001C8R7CV,[],"104.167531,30.692820",中国邮政储蓄银行(龙潭寺营业所),[],[],四川省,[],[],2,028-84202434;95580,金融保险服务;银行;中国邮政储蓄银行,160139
协和上街100-104,双流区,[],[],[],成都市,[],B001C8MOF6,[],"104.046493,30.508189",中国邮政储蓄银行(华阳锦江路营业所),[],[],四川省,[],[],2,028-85765187;95580,金融保险服务;银行;中国邮政储蓄银行,160139
西航港锦华路三段80-84号,双流区,[],[],[],成都市,[],B0FFHGC8I7,[],"103.984937,30.576684",中国邮政储蓄银行(常乐营业所),[],[],四川省,[],[],2,95580,金融保险服务;银行;中国邮政储蓄银行,160139
将军西街4号,新都区,[],[],[],成都市,[],B001C8N6M7,[],"104.231504,30.786540",中国邮政储蓄银行(泰兴营业所),[],[],四川省,[],[],2,028-83986001,金融保险服务;银行;中国邮政储蓄银行,160139
天新路45-55号,金牛区,[],[],[],成都市,[],B001C7XZ4C,[],"104.117777,30.761775",中国邮政储蓄银行(天回镇营业所),[],[],四川省,[],[],2,028-83571109;95580,金融保险服务;银行;中国邮政储蓄银行,160139
机投镇草金南路24号,武侯区,[],[],[],成都市,[],B001C8O9KR,[],"103.979701,30.647595",中国邮政储蓄银行(机投镇支行),[],[],四川省,[],[],2,028-87485805;95580,金融保险服务;银行;中国邮政储蓄银行,160139
龙泉街道旭东街36-38号,龙泉驿区,[],[],[],成都市,[],B001C0ABOU,[],"104.262047,30.563092",中国邮政储蓄银行(旭东街营业所),[],[],四川省,[],[],2,028-84884209;95580,金融保险服务;银行;中国邮政储蓄银行,160139
清明街15号,崇州市,[],[],[],成都市,[],B001C8N40W,[],"103.559764,30.814213",中国邮政储蓄银行(街子营业所),[],[],四川省,[],[],2,028-82294115;95580,金融保险服务;银行;中国邮政储蓄银行,160139
龙泉镇北泉路708号,龙泉驿区,[],[],[],成都市,[],B001C8NOU2,[],"104.247055,30.569375",中国邮政储蓄银行(北泉路营业所),[],[],四川省,[],[],2,028-84884411;028-86761921;95580,金融保险服务;银行;中国邮政储蓄银行,160139
幸福大道192号国家电网对门,都江堰市,[],[],[],成都市,[],B0FFIMZHNQ,[],"103.643063,30.988612",中国邮政储蓄银行(江都庭院营业所),[],[],四川省,[],[],2,028-87136395;028-87269959,金融保险服务;银行;中国邮政储蓄银行,160139
永丰路6号之附1-附5,武侯区,[],[],[],成都市,[],B001C7WR4N,[],"104.051016,30.632997",中国邮政储蓄银行(衣冠庙支行),[],[],四川省,[],[],2,028-85194252;028-85194201;95580,金融保险服务;银行;中国邮政储蓄银行,160139
董家湾北街3号,武侯区,[],[],[],成都市,[],B001C8MQPP,[],"104.030007,30.631752",中国邮政储蓄银行(董家湾支行),[],[],四川省,[],[],2,028-85080265;028-66053950,金融保险服务;银行;中国邮政储蓄银行,160139
锦绣路174附20-22号,龙泉驿区,[],[],[],成都市,[],B001C8N0XH,[],"104.305989,30.601627",中国邮政储蓄银行(同安镇支行),[],[],四川省,[],[],2,028-84830129;95580,金融保险服务;银行;中国邮政储蓄银行,160139
树德大街38号,龙泉驿区,[],[],[],成都市,[],B001C7UUIU,[],"104.195934,30.584402",中国邮政储蓄银行(大面支行),[],[],四川省,[],[],2,028-84635865;95580,金融保险服务;银行;中国邮政储蓄银行,160139
水碾河路25号4幢1楼2号,成华区,[],[],[],成都市,[],B001C7WR4J,[],"104.104603,30.646407",中国邮政储蓄银行(水碾河路支行),[],[],四川省,[],[],2,028-84471066;95580,金融保险服务;银行;中国邮政储蓄银行,160139
北新街1-7号,锦江区,[],[],[],成都市,[],B0FFIXERQ8,[],"104.076474,30.657572",中国邮政储蓄银行(北新街支行),[],[],四川省,[],[],2,028-60160509,金融保险服务;银行;中国邮政储蓄银行,160139
惠王陵东路457号,龙泉驿区,[],[],[],成都市,[],B001C7UUHV,[],"104.155929,30.615246",中国邮政储蓄银行(洪河镇支行),[],[],四川省,[],[],2,028-88436233,金融保险服务;银行;中国邮政储蓄银行,160139
城西巷与海林西巷交叉口西150米,新津区,[],[],[],成都市,[],B0FFGIT3H4,[],"103.803435,30.413693",中国邮政储蓄银行(武阳西路分理处),[],[],四川省,[],[],2,028-82556783;95580,金融保险服务;银行;中国邮政储蓄银行,160139
国学巷37号四川大学华西医院,武侯区,[],[],[],成都市,[],B0FFFABF5C,[],"104.060425,30.641523",中国邮政储蓄银行(华西医大支行),[],[],四川省,[],[],2,028-85422889;028-85422134;95580,金融保险服务;银行;中国邮政储蓄银行,160139
航空路19号附2号,武侯区,[],[],[],成都市,[],B0FFIOVYJA,[],"104.078898,30.616685",中国邮政储蓄银行(航空路营业所),[],[],四川省,[],[],2,028-85222740;95580,金融保险服务;银行;中国邮政储蓄银行,160139
玉堂街道,都江堰市,[],[],[],成都市,[],B0FFJEFXFZ,[],"103.611749,30.964343",中国邮政储蓄银行(玉堂营业所),[],[],四川省,[],[],2,028-87181761;95580,金融保险服务;银行;中国邮政储蓄银行,160139
发展路38-40,都江堰市,[],[],[],成都市,[],B0FFFFMBOK,[],"103.657779,31.001508",中国邮政储蓄银行(高桥邮政所),[],[],四川省,[],[],2,028-87269959;95580,金融保险服务;银行;中国邮政储蓄银行,160139
府河苑三路,金牛区,[],[],[],成都市,[],B001C8P6P9,[],"104.025103,30.728744",中国邮政储蓄银行(府河星城支行),[],[],四川省,[],[],2,028-87604599;95580,金融保险服务;银行;中国邮政储蓄银行,160139
教师街邮电路90号,双流区,[],[],[],成都市,[],B001C7YJS0,[],"103.874460,30.584209",中国邮政储蓄银行(彭镇营业所),[],[],四川省,[],[],2,028-85850114;95580,金融保险服务;银行;中国邮政储蓄银行,160139
安靖街道金河路166-168号1层,郫都区,[],[],[],成都市,[],B0FFGBGT4I,[],"104.017596,30.765709",中国邮政储蓄银行(安靖营业所),[],[],四川省,[],[],2,028-86632683;95580,金融保险服务;银行;中国邮政储蓄银行,160139
文南路28-40,邛崃市,[],[],[],成都市,[],B001C7UXP4,[],"103.473958,30.408482",中国邮政储蓄银行(文南路支行),[],[],四川省,[],[],2,028-88742160;95580,金融保险服务;银行;中国邮政储蓄银行,160139
天乡路一段377-387号,温江区,[],[],[],成都市,[],B0FFHPF84U,[],"103.870466,30.703850",中国邮政储蓄银行(公平营业所),[],[],四川省,[],[],2,028-82650420,金融保险服务;银行;中国邮政储蓄银行,160139
柏合街道新街47-49-51号,龙泉驿区,[],[],[],成都市,[],B001C8OPIT,[],"104.205529,30.503898",中国邮政储蓄银行(柏合街道营业所),[],[],四川省,[],[],2,028-84818295;95580,金融保险服务;银行;中国邮政储蓄银行,160139
花桥街道中学路4号,新津区,[],[],[],成都市,[],B001C8089U,[],"103.854667,30.444223",中国邮政储蓄银行(花桥邮政支局),[],[],四川省,[],[],2,028-82460008;95580,金融保险服务;银行;中国邮政储蓄银行,160139
东光街道锦华路一段275号附20号,锦江区,[],[],[],成都市,[],B001C7YLBD,[],"104.099700,30.617113",中国邮政储蓄银行(东光小区营业所),[],[],四川省,[],[],2,028-84412657;95580,金融保险服务;银行;中国邮政储蓄银行,160139
凤溪大道中段95号,温江区,[],[],3,成都市,[],B001C8MW9Q,[],"103.841914,30.689711",中国邮政储蓄银行24小时自助银行(温江支行),B001C8VB2K,[],四川省,[],[],2,[],金融保险服务;自动提款机;中国邮政储蓄银行ATM,160336
金牛区国际商贸城荷花池中药材专业市场一楼6-1-13号,金牛区,[],[],3,成都市,[],B001C8MBSL,[],"104.088536,30.791139",中国邮政储蓄银行24小时自助银行(成都市国际商贸城支行),B001C8MBSK,[],四川省,[],[],2,[],金融保险服务;自动提款机;中国邮政储蓄银行ATM,160336
西街6号,新都区,[],[],3,成都市,[],B001C7TLK7,[],"104.160034,30.826727",中国邮政储蓄银行ATM(西街营业所),B001C7TLJO,[],四川省,[],[],2,[],金融保险服务;银行;中国邮政储蓄银行,160139
东风东街54号,新都区,[],[],[],成都市,[],B0FFF07ZH3,[],"104.273386,30.726335",中国邮政储蓄银行24小时自助银行(石板滩镇营业所),[],[],四川省,[],[],2,[],金融保险服务;自动提款机;中国邮政储蓄银行ATM,160336
机场路成都双流国际机场3F层,双流区,[],[],201,成都市,[],B0FFGF9I9U,[],"103.958155,30.578213",中国邮政储蓄银行ATM(成都空港大酒店西北),B001C06GIA,[],四川省,[],[],2,[],金融保险服务;自动提款机;中国邮政储蓄银行ATM,160336
新平街27-29号附近,金堂县,[],[],[],成都市,[],B0FFGF222O,[],"104.698844,30.688666",中国邮政储蓄银行24小时自助银行,[],[],四川省,[],[],2,[],金融保险服务;自动提款机;中国邮政储蓄银行ATM,160336
双林路336号,成华区,[],[],3,成都市,[],B001C7WR4E,[],"104.097080,30.658853",中国邮政储蓄银行24小时自助银行(猛追湾支行),B001C7WR47,[],四川省,[],[],2,[],金融保险服务;自动提款机;中国邮政储蓄银行ATM,160336
团结街道学院路67号四川传媒学院,郫都区,[],[],3,成都市,[],B001C8OCRM,[],"103.984185,30.824492",中国邮政储蓄银行24小时自助银行,B001C8OCA4,[],四川省,[],[],2,[],金融保险服务;自动提款机;中国邮政储蓄银行ATM,160336
南北大道122-128,都江堰市,[],[],[],成都市,[],B0FFFQ210D,[],"103.596163,30.876664",中国邮政储蓄银行24小时自助银行(青城山镇营业所),[],[],四川省,[],[],2,[],金融保险服务;自动提款机;中国邮政储蓄银行ATM,160336
金泉大道,邛崃市,[],[],[],成都市,[],B0FFFF6WXB,[],"103.675718,30.399618",中国邮政储蓄银行24小时自助银行(泉水营业所),[],[],四川省,[],[],2,[],金融保险服务;自动提款机;中国邮政储蓄银行ATM,160336
长龙街123附近,双流区,[],[],[],成都市,[],B001C8VJT2,[],"104.199166,30.429698",中国邮政储蓄银行24小时自助银行(太平镇支行),[],[],四川省,[],[],2,[],金融保险服务;自动提款机;中国邮政储蓄银行ATM,160336
羊安街211号,邛崃市,[],[],[],成都市,[],B001C8VJK5,[],"103.699618,30.392402",中国邮政储蓄银行24小时自助银行(羊安镇营业所),[],[],四川省,[],[],2,[],金融保险服务;自动提款机;中国邮政储蓄银行ATM,160336
南大街477-481号,彭州市,[],[],3,成都市,[],B001C8OFR2,[],"103.940587,30.973341",中国邮政储蓄银行24小时自助银行(南大街营业所),B0FFGI0YYA,[],四川省,[],[],2,[],金融保险服务;自动提款机;中国邮政储蓄银行ATM,160336
廖兴南街91-93,崇州市,[],[],3,成都市,[],B001C8OEGS,[],"103.695789,30.707770",中国邮政储蓄银行24小时自助银行(廖家镇支行),B001C8OFKB,[],四川省,[],[],2,[],金融保险服务;自动提款机;中国邮政储蓄银行ATM,160336
东街东段45号,双流区,[],[],3,成都市,[],B001C8MSXI,[],"104.026645,30.306637",中国邮政储蓄银行24小时自助银行(籍田镇支行),B001C8N5TE,[],四川省,[],[],2,[],金融保险服务;自动提款机;中国邮政储蓄银行ATM,160336
清江镇场镇,金堂县,[],[],3,成都市,[],B001C8MCU0,[],"104.384910,30.912582",中国邮政储蓄银行24小时自助银行(清江营业所),B001C807SW,[],四川省,[],[],2,[],金融保险服务;自动提款机;中国邮政储蓄银行ATM,160336
新建街407-409号正南方向10米,邛崃市,[],[],3,成都市,[],B001C7VDL1,[],"103.671601,30.353866",中国邮政储蓄银行24小时自助银行(牟礼镇支行),B001C7VDL0,[],四川省,[],[],2,[],金融保险服务;自动提款机;中国邮政储蓄银行ATM,160336
驿都东路71-85号,龙泉驿区,[],[],3,成都市,[],B001C8NOO4,[],"104.264376,30.559894",中国邮政储蓄银行24小时自助银行(龙泉驿区支行营业部),B0FFGFWTHZ,[],四川省,[],[],2,[],金融保险服务;自动提款机;中国邮政储蓄银行ATM,160336
水碾河路21号,成华区,[],[],[],成都市,[],B0HB2AVRHR,[],"104.105419,30.645831",中国邮政储蓄银行ATM,[],[],四川省,[],[],2,[],金融保险服务;自动提款机;中国邮政储蓄银行ATM,160336
大件路文星段168西南民族大学南区,双流区,[],[],[],成都市,[],B0FFL3WF9S,[],"103.967716,30.562721",中国邮政储蓄银行24小时自助银行,[],[],四川省,[],[],2,[],金融保险服务;自动提款机;中国邮政储蓄银行ATM,160336
金彭西路230-232号,彭州市,[],[],3,成都市,[],B0FFGIPTUU,[],"103.936209,30.988438",中国邮政储蓄银行24小时自助银行(成都彭州市支行),B001C7Y4WN,[],四川省,[],[],2,[],金融保险服务;自动提款机;中国邮政储蓄银行ATM,160336
和兴街79号,温江区,[],[],[],成都市,[],B001C8VEZ7,[],"103.774703,30.751064",中国邮政储蓄银行ATM(和盛邮政储蓄所),[],[],四川省,[],[],2,[],金融保险服务;自动提款机;中国邮政储蓄银行ATM,160336
发展路38-40,都江堰市,[],[],3,成都市,[],B001C8OMIW,[],"103.657791,31.001449",中国邮政储蓄银行24小时自助银行(高桥营业厅),B0FFFFMBOK,[],四川省,[],[],2,[],金融保险服务;自动提款机;中国邮政储蓄银行ATM,160336
二环路西一段94号之附2-6号,武侯区,[],[],3,成都市,[],B001C7YQBK,[],"104.022870,30.645078",中国邮政储蓄银行24小时自助银行(双楠支行),B001C7WFT8,[],四川省,[],[],2,[],金融保险服务;自动提款机;中国邮政储蓄银行ATM,160336
新都大道8号西南石油大学,新都区,[],[],[],成都市,[],B0FFG34YP8,[],"104.186642,30.824619",中国邮政储蓄银行24小时自助银行,[],[],四川省,[],[],2,[],金融保险服务;自动提款机;中国邮政储蓄银行ATM,160336
靖源下街471号22栋附8,郫都区,[],[],[],成都市,[],B0FFFPI0B6,[],"103.980631,30.817492",中国邮政储蓄银行24小时自助银行(团结镇营业所),[],[],四川省,[],[],2,[],金融保险服务;自动提款机;中国邮政储蓄银行ATM,160336
南街与斑龙路交叉口南200米,新都区,[],[],[],成都市,[],B0FFIVYAGC,[],"104.028044,30.813781",中国邮政储蓄银行24小时自助银行(龙桥镇营业所),[],[],四川省,[],[],2,[],金融保险服务;自动提款机;中国邮政储蓄银行ATM,160336
南岳街15-43,邛崃市,[],[],3,成都市,[],B001C7UXNM,[],"103.460054,30.412538",中国邮政储蓄银行24小时自助银行(南岳街营业所),B001C0AJQQ,[],四川省,[],[],2,[],金融保险服务;自动提款机;中国邮政储蓄银行ATM,160336
竹篙镇上正街684-690号,金堂县,[],[],[],成都市,[],B0FFFAD00L,[],"104.731251,30.629012",中国邮政储蓄银行24小时自助银行(竹篙镇支行),[],[],四川省,[],[],2,[],金融保险服务;自动提款机;中国邮政储蓄银行ATM,160336
迎宾路234号,邛崃市,[],[],302,成都市,[],B001C8MTMG,[],"103.336079,30.342458",中国邮政储蓄银行24小时自助银行(迎宾路支行),B001C7XDSY,[],四川省,[],[],2,[],金融保险服务;自动提款机;中国邮政储蓄银行ATM,160336
长柏路60号附4号,龙泉驿区,[],[],[],成都市,[],B0FFIA0KBD,[],"104.270004,30.554923",中国邮政储蓄银行24小时自助银行(长柏路支行),[],[],四川省,[],[],2,[],金融保险服务;自动提款机;中国邮政储蓄银行ATM,160336
驭虹路76附4,蒲江县,[],[],[],成都市,[],B001C95G5U,[],"103.513978,30.194427",中国邮政储蓄银行24小时自助银行(驭虹路支行),[],[],四川省,[],[],2,[],金融保险服务;自动提款机;中国邮政储蓄银行ATM,160336
玉林横街1号附5号,武侯区,[],[],3,成都市,[],B0FFH4XHQ5,[],"104.061759,30.626504",中国邮政储蓄银行24小时自助银行(玉林小区支行),B001C7WHIA,[],四川省,[],[],2,[],金融保险服务;自动提款机;中国邮政储蓄银行ATM,160336
八宝街88号附2号,青羊区,[],[],[],成都市,[],B0FFF9ZX8B,[],"104.061022,30.671029",中国邮政储蓄银行24小时自助银行(八宝街营业所),[],[],四川省,[],[],2,[],金融保险服务;自动提款机;中国邮政储蓄银行ATM,160336
广富路与成飞大道交叉口西北50米,青羊区,[],[],[],成都市,[],B0FFI89R95,[],"103.961370,30.680911",中国邮政储蓄银行24小时自助银行(黄田坝支行),[],[],四川省,[],[],2,[],金融保险服务;自动提款机;中国邮政储蓄银行ATM,160336
大面树德大街38号,龙泉驿区,[],[],3,成都市,[],B001C8OM2J,[],"104.195869,30.584426",中国邮政储蓄银行24小时自助银行(大面镇支行),B001C7UUIU,[],四川省,[],[],2,[],金融保险服务;自动提款机;中国邮政储蓄银行ATM,160336
黄瓦街165号附近,双流区,[],[],[],成都市,[],B0FFGE43MH,[],"103.952610,30.494613",中国邮政储蓄银行24小时自助银行(黄甲营业所),[],[],四川省,[],[],2,[],金融保险服务;自动提款机;中国邮政储蓄银行ATM,160336
世纪城路198号附1554号,武侯区,[],[],3,成都市,[],B001C8OAZG,[],"104.073955,30.551873",中国邮政储蓄银行24小时自助银行(世纪城支行),B001C8OBEC,[],四川省,[],[],2,[],金融保险服务;自动提款机;中国邮政储蓄银行ATM,160336
将军西街4号,新都区,[],[],[],成都市,[],B0FFH5LUQJ,[],"104.231435,30.786527",中国邮政储蓄银行24小时自助银行(泰兴营业所),[],[],四川省,[],[],2,[],金融保险服务;自动提款机;中国邮政储蓄银行ATM,160336
双怀路与通胜街交叉口西南100米,崇州市,[],[],[],成都市,[],B0FFIITK9U,[],"103.773882,30.542411",中国邮政储蓄银行24小时自助银行(三江街道营业所),[],[],四川省,[],[],2,[],金融保险服务;自动提款机;中国邮政储蓄银行ATM,160336
桃蹊路70号附1-2,成华区,[],[],3,成都市,[],B001C7U891,[],"104.107324,30.681040",中国邮政储蓄银行24小时自助银行(桃蹊路支行),B001C7WDKX,[],四川省,[],[],2,[],金融保险服务;自动提款机;中国邮政储蓄银行ATM,160336
聚兴路149号,都江堰市,[],[],3,成都市,[],B001C8MBYC,[],"103.680723,30.944041",中国邮政储蓄银行24小时自助银行(聚源镇支行),B001C8MBYB,[],四川省,[],[],2,[],金融保险服务;自动提款机;中国邮政储蓄银行ATM,160336
卷洞桥街与芷林中街交叉口东50米,邛崃市,[],[],[],成都市,[],B0FFFW9G63,[],"103.583356,30.384806",中国邮政储蓄银行24小时自助银行(固驿镇支行),[],[],四川省,[],[],2,[],金融保险服务;自动提款机;中国邮政储蓄银行ATM,160336
淮州大道36-42号,金堂县,[],[],[],成都市,[],B0FFFADLMN,[],"104.559817,30.712051",中国邮政储蓄银行24小时自助银行(淮口淮州大道营业所),[],[],四川省,[],[],2,[],金融保险服务;自动提款机;中国邮政储蓄银行ATM,160336
涌泉街81-83,崇州市,[],[],3,成都市,[],B001C8MD3S,[],"103.628278,30.729977",中国邮政储蓄银行24小时自助银行(元通镇支行),B001C8MD3R,[],四川省,[],[],2,[],金融保险服务;自动提款机;中国邮政储蓄银行ATM,160336
梳妆街66号,都江堰市,[],[],3,成都市,[],B001C80NSQ,[],"103.731120,30.915767",中国邮政储蓄银行24小时自助银行(崇义镇支行),B001C80NEO,[],四川省,[],[],2,[],金融保险服务;自动提款机;中国邮政储蓄银行ATM,160336
晋吉北路66号附28号,武侯区,[],[],[],成都市,[],B0FFG0DJVJ,[],"104.004003,30.640239",中国邮政储蓄银行24小时自助银行(晋吉北路营业所),[],[],四川省,[],[],2,[],金融保险服务;自动提款机;中国邮政储蓄银行ATM|金融保险服务;银行;中国邮政储蓄银行,160336|160139
郫筒镇西大街441号,郫都区,[],[],3,成都市,[],B001C8VJKA,[],"103.880588,30.814800",中国邮政储蓄银行24小时自助银行(西大街营业所),B001C928W9,[],四川省,[],[],2,[],金融保险服务;自动提款机;中国邮政储蓄银行ATM,160336
西源大道1号四川大学锦城学院附近,郫都区,[],[],[],成都市,[],B001C805DK,[],"103.950218,30.724221",中国邮政储蓄银行24小时自助银行(至善南路),[],[],四川省,[],[],2,[],金融保险服务;自动提款机;中国邮政储蓄银行ATM,160336
川环路232号附近,崇州市,[],[],[],成都市,[],B0FFJHFMO6,[],"103.542044,30.780035",中国邮政储蓄银行24小时自助银行(三郎支行),[],[],四川省,[],[],2,[],金融保险服务;自动提款机;中国邮政储蓄银行ATM,160336
蒲阳路321-331号,都江堰市,[],[],[],成都市,[],B0FFFAB0F9,[],"103.630088,31.002086",中国邮政储蓄银行24小时自助银行(蒲阳路营业所),[],[],四川省,[],[],2,[],金融保险服务;自动提款机;中国邮政储蓄银行ATM,160336
公园路一段146号,龙泉驿区,[],[],[],成都市,[],B0FFFABZFU,[],"104.278107,30.562792",中国邮政储蓄银行24小时自助银行(文明街营业所),[],[],四川省,[],[],2,[],金融保险服务;自动提款机;中国邮政储蓄银行ATM,160336
双九路233号,双流区,[],[],[],成都市,[],B001C959GF,[],"103.914869,30.609122",中国邮政储蓄银行ATM(双九路),[],[],四川省,[],[],2,[],金融保险服务;自动提款机;中国邮政储蓄银行ATM,160336
大面惠王陵东路455号、457号、459号、461号,龙泉驿区,[],[],3,成都市,[],B001C7UUHW,[],"104.156009,30.615241",中国邮政储蓄银行24小时自助银行(洪河镇支行),B001C7UUHV,[],四川省,[],[],2,[],金融保险服务;自动提款机;中国邮政储蓄银行ATM,160336
北大街107-109号,彭州市,[],[],3,成都市,[],B0FFGIPVRD,[],"103.942032,30.986420",中国邮政储蓄银行24小时自助银行(北大街支行),B001C8078V,[],四川省,[],[],2,[],金融保险服务;自动提款机;中国邮政储蓄银行ATM,160336
正源路100号,新津区,[],[],[],成都市,[],B001C8VEZ8,[],"103.884097,30.484937",中国邮政储蓄银行24小时自助银行(开元营业所),[],[],四川省,[],[],2,[],金融保险服务;自动提款机;中国邮政储蓄银行ATM,160336
兴贤街99号,邛崃市,[],[],[],成都市,[],B001C8VJUS,[],"103.463298,30.406968",中国邮政储蓄银行24小时自助银行(邛崃市支行),[],[],四川省,[],[],2,[],金融保险服务;自动提款机;中国邮政储蓄银行ATM,160336
解放路一段192号,金牛区,[],[],[],成都市,[],B0FFGYNCG7,[],"104.089590,30.692674",中国邮政储蓄银行24小时自助银行(解放路支行),[],[],四川省,[],[],2,[],金融保险服务;自动提款机;中国邮政储蓄银行ATM,160336
成白路98号,双流区,[],[],3,成都市,[],B001C8MQAT,[],"104.020254,30.564413",中国邮政储蓄银行24小时自助银行(成白路支行),B001C80VH2,[],四川省,[],[],2,[],金融保险服务;自动提款机;中国邮政储蓄银行ATM,160336
黄河南路2段43,双流区,[],[],[],成都市,[],B0FFFODBHX,[],"104.010753,30.551111",中国邮政储蓄银行24小时自助银行(白家营业所),[],[],四川省,[],[],2,[],金融保险服务;自动提款机;中国邮政储蓄银行ATM,160336
董家湾北街3号附16-18号,武侯区,[],[],3,成都市,[],B001C80RNI,[],"104.030024,30.631785",中国邮政储蓄银行24小时自助银行(董家湾支行),B001C8MQPP,[],四川省,[],[],2,[],金融保险服务;自动提款机;中国邮政储蓄银行ATM,160336
机投镇草金南路24号,武侯区,[],[],3,成都市,[],B001C8O8TX,[],"103.979684,30.647466",中国邮政储蓄银行24小时自助银行(机投镇支行),B001C8O9KR,[],四川省,[],[],2,[],金融保险服务;自动提款机;中国邮政储蓄银行ATM,160336
榕声路135号,锦江区,[],[],[],成都市,[],B001C90RMX,[],"104.096545,30.588985",中国邮政储蓄银行24小时自助银行(榕声路营业所),[],[],四川省,[],[],2,[],金融保险服务;自动提款机;中国邮政储蓄银行ATM,160336
营新街南段90号附近,大邑县,[],[],[],成都市,[],B0FFJM85WQ,[],"103.476458,30.516845",中国邮政储蓄银行24小时自助银行(王泗镇营业所),[],[],四川省,[],[],2,[],金融保险服务;自动提款机;中国邮政储蓄银行ATM,160336
长庆街东段90西北60米,彭州市,[],[],[],成都市,[],B0FFK12IWU,[],"103.811070,30.965392",中国邮政储蓄银行24小时自助银行,[],[],四川省,[],[],2,[],金融保险服务;自动提款机;中国邮政储蓄银行ATM,160336
寿安镇团结桥通柳中街22-26号,温江区,[],[],[],成都市,[],B0FFHWPZU3,[],"103.749984,30.776909",中国邮政储蓄银行ATM(通平营业所),[],[],四川省,[],[],2,[],金融保险服务;自动提款机;中国邮政储蓄银行ATM,160336
两河路西段537-539号,温江区,[],[],3,成都市,[],B001C92BWL,[],"103.833015,30.684429",中国邮政储蓄银行24小时自助银行(杨柳东路支行),B001C92BWK,[],四川省,[],[],2,[],金融保险服务;自动提款机;中国邮政储蓄银行ATM,160336
北三路518号东坡生活广场,青羊区,[],[],3,成都市,[],B001C80EEZ,[],"103.989577,30.665358",中国邮政储蓄银行24小时自助银行,B001C80EF0,[],四川省,[],[],2,[],金融保险服务;自动提款机;中国邮政储蓄银行ATM,160336
花圃路2号附1号,金牛区,[],[],3,成都市,[],B001C7UAMG,[],"104.080102,30.678916",中国邮政储蓄银行24小时自助银行(簸箕街支行),B001C8N4K9,[],四川省,[],[],2,[],金融保险服务;自动提款机;中国邮政储蓄银行ATM,160336
郫都区和乐巷119-121,郫都区,[],[],3,成都市,[],B001C91XMO,[],"103.887388,30.803695",中国邮政储蓄银行24小时自助银行(和乐巷营业所),B001C91XMN,[],四川省,[],[],2,[],金融保险服务;自动提款机;中国邮政储蓄银行ATM,160336
赵镇五横道金沙街,金堂县,[],[],3,成都市,[],B001C7ZWPD,[],"104.406794,30.862268",中国邮政储蓄银行24小时自助银行(金沙街营业所),B001C7ZWPC,[],四川省,[],[],2,[],金融保险服务;自动提款机;中国邮政储蓄银行ATM,160336
国学巷37号四川大学华西医院,武侯区,[],[],[],成都市,[],B0FFFABF5B,[],"104.060404,30.641540",中国邮政储蓄银行24小时自助银行(华西医大支行),[],[],四川省,[],[],2,[],金融保险服务;自动提款机;中国邮政储蓄银行ATM,160336
兴达路962号,温江区,[],[],[],成都市,[],B001C8VF2J,[],"103.772127,30.671354",中国邮政储蓄银行24小时自助银行(永盛营业所),[],[],四川省,[],[],2,[],金融保险服务;自动提款机;中国邮政储蓄银行ATM,160336
黄金路244号-246号,金牛区,[],[],3,成都市,[],B001C8MV43,[],"103.991638,30.709137",中国邮政储蓄银行24小时自助银行(黄金路支行),B001C8MV42,[],四川省,[],[],2,[],金融保险服务;自动提款机;中国邮政储蓄银行ATM,160336
盛华南路138号附近,武侯区,[],[],[],成都市,[],B0FFH8OYAF,[],"104.053591,30.548542",中国邮政储蓄银行24小时自助银行(盛华南路),[],[],四川省,[],[],2,[],金融保险服务;自动提款机;中国邮政储蓄银行ATM,160336
市西街30-34号,崇州市,[],[],3,成都市,[],B001C0A22I,[],"103.671692,30.629178",中国邮政储蓄银行24小时自助银行(崇州市支行),B001C8MIWH,[],四川省,[],[],2,[],金融保险服务;自动提款机;中国邮政储蓄银行ATM,160336
幸福路与重庆路交叉口东北50米,崇州市,[],[],[],成都市,[],B0FFIZ4U8Y,[],"103.609542,30.614482",中国邮政储蓄银行(王场镇营业所),[],[],四川省,[],[],2,028-82232111;95580,金融保险服务;银行;中国邮政储蓄银行,160139
广场路13附2-4,郫都区,[],[],3,成都市,[],B001C8O4DA,[],"103.942808,30.773699",中国邮政储蓄银行24小时自助银行(西华大学营业所),B001C8MG33,[],四川省,[],[],2,[],金融保险服务;自动提款机;中国邮政储蓄银行ATM,160336
簇马路三段16号附1号,武侯区,[],[],[],成都市,[],B0FFF2OYE9,[],"103.972247,30.587298",中国邮政储蓄银行24小时自助银行,[],[],四川省,[],[],2,[],金融保险服务;自动提款机;中国邮政储蓄银行ATM,160336
朝阳南路与长江路交叉口西南100米,彭州市,[],[],[],成都市,[],B0FFIIJEMV,[],"103.949786,30.975522",中国邮政储蓄银行24小时自助银行(朝阳南路营业所),[],[],四川省,[],[],2,[],金融保险服务;自动提款机;中国邮政储蓄银行ATM,160336
寿高路与金龙街交叉口东南50米,邛崃市,[],[],[],成都市,[],B0FFHNQ50J,[],"103.421429,30.337574",中国邮政储蓄银行24小时自助银行(卧龙营业所),[],[],四川省,[],[],2,[],金融保险服务;自动提款机;中国邮政储蓄银行ATM,160336
花都大道793-795号,新都区,[],[],3,成都市,[],B001C8O9O9,[],"104.057279,30.760869",中国邮政储蓄银行ATM,B001C8MG9C,[],四川省,[],[],2,[],金融保险服务;自动提款机;中国邮政储蓄银行ATM,160336
驿都西路4111号四川财经职业学院,龙泉驿区,[],[],[],成都市,[],B0FFFF5LO7,[],"104.212198,30.580138",中国邮政储蓄银行ATM(四川财经职业学院卫生服务站西南),[],[],四川省,[],[],2,[],金融保险服务;自动提款机;中国邮政储蓄银行ATM,160336
国槐街1153-1155号,锦江区,[],[],[],成都市,[],B0FFFYMWAB,[],"104.133407,30.613039",中国邮政储蓄银行24小时自助银行(国槐街营业所),[],[],四川省,[],[],2,[],金融保险服务;自动提款机;中国邮政储蓄银行ATM,160336
西华大学院内,金牛区,[],[],[],成都市,[],B0FFFZSYAB,[],"103.949379,30.775630",中国邮政储蓄银行24小时自助银行,[],[],四川省,[],[],2,[],金融保险服务;自动提款机;中国邮政储蓄银行ATM,160336
一环路西三段125号,金牛区,[],[],3,成都市,[],B001C7WR49,[],"104.041884,30.677451",中国邮政储蓄银行24小时自助银行(抚琴小区支行),B001C7WR48,[],四川省,[],[],2,[],金融保险服务;自动提款机;中国邮政储蓄银行ATM,160336
石家碾西路75号2幢-附5附近,青白江区,[],[],[],成都市,[],B0FFGER2EL,[],"104.256421,30.887688",中国邮政储蓄银行24小时自助银行(青白江区支行),[],[],四川省,[],[],2,[],金融保险服务;自动提款机;中国邮政储蓄银行ATM,160336
武都路4号附6号,青羊区,[],[],[],成都市,[],B001C92KIG,[],"104.070656,30.677859",中国邮政储蓄银行24小时自助银行(武都路营业所),[],[],四川省,[],[],2,[],金融保险服务;自动提款机;中国邮政储蓄银行ATM,160336
蜀龙大道中段1088号万千城1层,新都区,[],[],[],成都市,[],B0FFIITMXE,[],"104.178793,30.819857",中国邮政储蓄银行24小时自助银行(石油学院储蓄所),[],[],四川省,[],[],2,[],金融保险服务;自动提款机;中国邮政储蓄银行ATM,160336
忠北路南100米,龙泉驿区,[],[],[],成都市,[],B0FFFGUFYF,[],"104.308788,30.614326",中国邮政储蓄银行ATM(足球村东南),[],[],四川省,[],[],2,[],金融保险服务;自动提款机;中国邮政储蓄银行ATM,160336
三峨街14-34号,龙泉驿区,[],[],3,成都市,[],B0FFGIIJUP,[],"104.320609,30.640256",中国邮政储蓄银行24小时自助银行(洛带镇营业所),B0FFGIIJR0,[],四川省,[],[],2,[],金融保险服务;自动提款机;中国邮政储蓄银行ATM,160336
蜀州北路178号,崇州市,[],[],3,成都市,[],B001C09RMP,[],"103.669963,30.636970",中国邮政储蓄银行24小时自助银行(蜀州北路支行),B001C8R8SV,[],四川省,[],[],2,[],金融保险服务;自动提款机;中国邮政储蓄银行ATM,160336
科创路184号,锦江区,[],[],3,成都市,[],B001C8O4AN,[],"104.090579,30.603400",中国邮政储蓄银行ATM(科创路营业所),B001C8O1V1,[],四川省,[],[],2,[],金融保险服务;自动提款机;中国邮政储蓄银行ATM,160336
商贸横一街25,邛崃市,[],[],[],成都市,[],B0FFHXK533,[],"103.537724,30.402472",中国邮政储蓄银行24小时自助银行(前进镇支行),[],[],四川省,[],[],2,[],金融保险服务;自动提款机;中国邮政储蓄银行ATM,160336
成双大道北段119号附近,武侯区,[],[],[],成都市,[],B0FFGHQT87,[],"104.009454,30.611742",聚龙路邮政储蓄24小时自助银行,[],[],四川省,[],[],2,[],金融保险服务;自动提款机;中国邮政储蓄银行ATM,160336
伴月街与江华路交叉口东北50米,龙泉驿区,[],[],[],成都市,[],B0FFGDDB8R,[],"104.185835,30.651692",中国邮政储蓄银行24小时自助银行(成都大学营业所),[],[],四川省,[],[],2,[],金融保险服务;自动提款机;中国邮政储蓄银行ATM,160336
三强南路一段185-189号,双流区,[],[],[],成都市,[],B001C7UVUJ,[],"103.925987,30.566345",中国邮政储蓄银行24小时自助银行(三强南路一段),[],[],四川省,[],[],2,[],金融保险服务;自动提款机;中国邮政储蓄银行ATM,160336
大邑大道97号附4-附7,大邑县,[],[],3,成都市,[],B001C8NOKS,[],"103.525614,30.573794",中国邮政储蓄银行24小时自助银行(大邑支行),B001C8NPQ8,[],四川省,[],[],2,[],金融保险服务;自动提款机;中国邮政储蓄银行ATM,160336
永丰路28-30,武侯区,[],[],3,成都市,[],B001C7WH7R,[],"104.047278,30.627455",中国邮政储蓄银行24小时自助银行(高新区支行),B001C7WH7Q,[],四川省,[],[],2,[],金融保险服务;自动提款机;中国邮政储蓄银行ATM,160336
渔江路东50米,双流区,[],[],3,成都市,[],B001C8MHIO,[],"103.949902,30.640661",中国邮政储蓄银行24小时自助银行(通江支行),B001C8MHIN,[],四川省,[],[],2,[],金融保险服务;自动提款机;中国邮政储蓄银行ATM,160336
金花街1号附7-附9号,武侯区,[],[],3,成都市,[],B001C8MILE,[],"103.968384,30.605367",中国邮政储蓄银行24小时自助银行(金花营业所),B001C8MILD,[],四川省,[],[],2,[],金融保险服务;自动提款机;中国邮政储蓄银行ATM,160336
解放街76号,都江堰市,[],[],[],成都市,[],B0FFJIVTGZ,[],"103.646797,30.843630",中国邮政储蓄银行24小时自助银行,[],[],四川省,[],[],2,[],金融保险服务;自动提款机;中国邮政储蓄银行ATM,160336
龙都南路312-316号,龙泉驿区,[],[],3,成都市,[],B001C8MNON,[],"104.262732,30.565580",中国邮政储蓄银行24小时自助银行(龙都南路支行),B001C805EY,[],四川省,[],[],2,[],金融保险服务;自动提款机;中国邮政储蓄银行ATM,160336
"城厢镇上北街99号,101号,103号,105号",青白江区,[],[],3,成都市,[],B001C8MDJ9,[],"104.319057,30.856798",中国邮政储蓄银行24小时自助银行(城厢镇营业所),B001C807UX,[],四川省,[],[],2,[],金融保险服务;自动提款机;中国邮政储蓄银行ATM,160336
学院街65号四川工商学院,郫都区,[],[],[],成都市,[],B0FFGLDL19,[],"103.986486,30.818587",中国邮政储蓄银行ATM(团三路),[],[],四川省,[],[],2,[],金融保险服务;自动提款机;中国邮政储蓄银行ATM,160336
邮电北路1号,双流区,[],[],[],成都市,[],B001C8VEZZ,[],"103.874453,30.584076",中国邮政储蓄银行24小时自助银行(彭镇营业所),[],[],四川省,[],[],2,[],金融保险服务;自动提款机;中国邮政储蓄银行ATM,160336
下街50-56,龙泉驿区,[],[],3,成都市,[],B001C7ZYYT,[],"104.176142,30.647814",中国邮政储蓄银行24小时自助银行(十陵镇支行),B001C8MRIY,[],四川省,[],[],2,[],金融保险服务;自动提款机;中国邮政储蓄银行ATM,160336
府青路89-91,崇州市,[],[],3,成都市,[],B001C8O0LN,[],"103.629017,30.578487",中国邮政储蓄银行24小时自助银行(隆兴镇营业所),B001C7YJRL,[],四川省,[],[],2,[],金融保险服务;自动提款机;中国邮政储蓄银行ATM,160336
马鞍东路21号,金牛区,[],[],3,成都市,[],B001C7WBN5,[],"104.086802,30.675985",中国邮政储蓄银行24小时自助银行(马鞍东路营业所),B001C7WBN6,[],四川省,[],[],2,[],金融保险服务;自动提款机;中国邮政储蓄银行ATM,160336
簇桥中街166号附40-43号,武侯区,[],[],3,成都市,[],B001C91YMQ,[],"103.997847,30.601992",中国邮政储蓄银行24小时自助银行(簇桥中街营业所),B001C7WR4P,[],四川省,[],[],2,[],金融保险服务;自动提款机;中国邮政储蓄银行ATM,160336
蜀西环街66号附12号,金牛区,[],[],[],成都市,[],B0FFH97RAP,[],"104.002260,30.702570",中国邮政储蓄银行ATM(蜀西环街营业所),[],[],四川省,[],[],2,[],金融保险服务;自动提款机;中国邮政储蓄银行ATM,160336
文康路80附近,青羊区,[],[],[],成都市,[],B0FFG2ESE2,[],"103.926727,30.699626",中国邮政储蓄银行24小时自助银行(文家场营业所),[],[],四川省,[],[],2,[],金融保险服务;自动提款机;中国邮政储蓄银行ATM,160336
北泉路与龙都南路交叉口西北100米,龙泉驿区,[],[],[],成都市,[],B0FFIU8VPN,[],"104.261116,30.564321",中国邮政储蓄银行24小时自助银行,[],[],四川省,[],[],2,[],金融保险服务;自动提款机;中国邮政储蓄银行ATM,160336
临港路三段112号正东方向43米,双流区,[],[],[],成都市,[],B0FFIIU2ZS,[],"103.995816,30.569440",中国邮政储蓄银行24小时自助银行(四川省分行),[],[],四川省,[],[],2,[],金融保险服务;自动提款机;中国邮政储蓄银行ATM,160336
红光街道广场路北二段60号,郫都区,[],[],[],成都市,[],B0FFGD1NWD,[],"103.960272,30.786108",中国邮政储蓄银行ATM,[],[],四川省,[],[],2,[],金融保险服务;自动提款机;自动提款机,160300
棠中路2段107号,双流区,[],[],[],成都市,[],B001C7XZ44,[],"103.916754,30.568628",中国邮政储蓄银行24小时自助银行(棠中路二段),[],[],四川省,[],[],2,[],金融保险服务;自动提款机;中国邮政储蓄银行ATM,160336
天乡路一段2451号,温江区,[],[],3,成都市,[],B001C8R6CZ,[],"103.836375,30.724298",中国邮政储蓄银行ATM(万春营业所),B001C8N0G3,[],四川省,[],[],2,[],金融保险服务;自动提款机;中国邮政储蓄银行ATM,160336
宝莲路386号附近,都江堰市,[],[],[],成都市,[],B0FFHDRM5Q,[],"103.652707,30.980378",中国邮政储蓄银行24小时自助银行(宝莲路营业所),[],[],四川省,[],[],2,[],金融保险服务;自动提款机;中国邮政储蓄银行ATM,160336
荷韵西路114号附近,双流区,[],[],[],成都市,[],B0FFGFLQOM,[],"103.996636,30.481545",中国邮政储蓄银行24小时自助银行(公兴营业所),[],[],四川省,[],[],2,[],金融保险服务;自动提款机;中国邮政储蓄银行ATM,160336
大石东路11号之附13-16,青羊区,[],[],3,成都市,[],B0FFFYIBN6,[],"104.045667,30.651928",中国邮政储蓄银行24小时自助银行(大石东路营业所),B001C7WI4H,[],四川省,[],[],2,[],金融保险服务;自动提款机;中国邮政储蓄银行ATM,160336
方碑街与靖兴街交叉口南50米,郫都区,[],[],[],成都市,[],B0FFGJ1CCD,[],"104.017707,30.765699",中国邮政储蓄银行24小时自助银行(安靖营业所),[],[],四川省,[],[],2,[],金融保险服务;自动提款机;中国邮政储蓄银行ATM,160336
旭东街36-38,龙泉驿区,[],[],3,成都市,[],B001C0ABOV,[],"104.262042,30.563120",中国邮政储蓄银行24小时自助银行(旭东街营业所),B001C0ABOU,[],四川省,[],[],2,[],金融保险服务;自动提款机;中国邮政储蓄银行ATM,160336
唐安西路与龙门中街交叉口西50米,崇州市,[],[],[],成都市,[],B0FFF005LC,[],"103.664844,30.631902",中国邮政储蓄银行24小时自助银行(崇阳镇支行),[],[],四川省,[],[],2,[],金融保险服务;自动提款机;中国邮政储蓄银行ATM,160336
一环路南一段24号四川大学望江校区,武侯区,[],[],3,成都市,[],B001C8P4QJ,[],"104.084504,30.632524",中国邮政储蓄银行24小时自助银行(成都市川大营业所),B001C8P4NJ,[],四川省,[],[],2,[],金融保险服务;自动提款机;中国邮政储蓄银行ATM,160336
沙湾路73号,金牛区,[],[],3,成都市,[],B001C7WD9M,[],"104.050667,30.693006",中国邮政储蓄银行24小时自助银行(沙湾支行),B001C7WD9N,[],四川省,[],[],2,[],金融保险服务;自动提款机;中国邮政储蓄银行ATM,160336
光华村街42号乐宾百货光华商场1层,青羊区,[],[],3,成都市,[],B0FFFOW3IU,[],"104.013939,30.663158",中国邮政储蓄银行24小时自助银行(光华村营业所),B001C08U24,[],四川省,[],[],2,[],金融保险服务;自动提款机;中国邮政储蓄银行ATM,160336
西大街45-49,郫都区,[],[],[],成都市,[],B0FFGVDSFF,[],"103.885800,30.809813",中国邮政储蓄银行24小时自助银行(郫都区支行),[],[],四川省,[],[],2,[],金融保险服务;自动提款机;中国邮政储蓄银行ATM,160336
临江丽苑二期东门旁,双流区,[],[],[],成都市,[],B0FFGR86PP,[],"104.005101,30.548923",中国邮政储蓄银行24小时自助银行(川大南路一段),[],[],四川省,[],[],2,[],金融保险服务;自动提款机;中国邮政储蓄银行ATM,160336
树蓓街9号,金牛区,[],[],3,成都市,[],B001C7WBIX,[],"104.090224,30.684547",中国邮政储蓄银行ATM(成都市李家沱营业所),B001C92B6X,[],四川省,[],[],2,[],金融保险服务;自动提款机;中国邮政储蓄银行ATM,160336
公交路3号附2号,金牛区,[],[],3,成都市,[],B001C7U9HQ,[],"104.072061,30.695792",中国邮政储蓄银行ATM(北站广场支行),B001C7YQ3N,[],四川省,[],[],2,[],金融保险服务;自动提款机;中国邮政储蓄银行ATM,160336
永陵路18号附2号,金牛区,[],[],3,成都市,[],B001C8VK2D,[],"104.045551,30.674194",中国邮政储蓄银行24小时自助银行(永陵路支行),B0FFFFQ9LO,[],四川省,[],[],2,[],金融保险服务;自动提款机;中国邮政储蓄银行ATM,160336
正西街128-134号,双流区,[],[],3,成都市,[],B001C8MPNJ,[],"104.051563,30.505943",中国邮政储蓄银行24小时自助银行(正西街营业所),B001C92B1O,[],四川省,[],[],2,[],金融保险服务;自动提款机;中国邮政储蓄银行ATM,160336
府青东街与踏水桥西街交叉口东北50米,成华区,[],[],[],成都市,[],B0FFHGLOCU,[],"104.100246,30.680486",中国邮政储蓄银行24小时自助银行(府青东街),[],[],四川省,[],[],2,[],金融保险服务;自动提款机;中国邮政储蓄银行ATM,160336
水碾河路25号附38号,成华区,[],[],3,成都市,[],B001C7WR4K,[],"104.104586,30.646431",中国邮政储蓄银行24小时自助银行(水碾河路支行),B001C7WR4J,[],四川省,[],[],2,[],金融保险服务;自动提款机;中国邮政储蓄银行ATM,160336
北大街21号,青羊区,[],[],[],成都市,[],B0FFHX69JX,[],"104.077115,30.672935",中国邮政储蓄银行24小时自助银行,[],[],四川省,[],[],2,[],金融保险服务;自动提款机;中国邮政储蓄银行ATM,160336
东升街道三强西路23号,双流区,[],[],[],成都市,[],B001C80PCW,[],"103.926051,30.571110",中国邮政储蓄银行24小时自助银行(三强西路),[],[],四川省,[],[],2,[],金融保险服务;自动提款机;中国邮政储蓄银行ATM,160336
淳化街46-56号,双流区,[],[],3,成都市,[],B001C08KEK,[],"103.923550,30.572721",中国邮政储蓄银行24小时自助银行(双流区支行),B001C08KEJ,[],四川省,[],[],2,[],金融保险服务;自动提款机;中国邮政储蓄银行ATM,160336
忠烈祠西街48号,青羊区,[],[],3,成都市,[],B001C7Y79L,[],"104.075841,30.665276",中国邮政储蓄银行24小时自助银行(太升南路支行),B001C7Y79K,[],四川省,[],[],2,[],金融保险服务;自动提款机;中国邮政储蓄银行ATM,160336
是文翁路147号国栋大厦,青羊区,[],[],3,成都市,[],B001C7WR4G,[],"104.060544,30.654802",中国邮政储蓄银行24小时自助银行(陕西街支行),B001C7WR4F,[],四川省,[],[],2,[],金融保险服务;自动提款机;中国邮政储蓄银行ATM,160336
白马庙街175-177号,温江区,[],[],3,成都市,[],B001C8MXY7,[],"103.840468,30.704956",中国邮政储蓄银行ATM(白马庙支行),B001C8MWKH,[],四川省,[],[],2,[],金融保险服务;自动提款机;中国邮政储蓄银行ATM,160336
华润路1号附13号,锦江区,[],[],[],成都市,[],B0FFGFKZ7T,[],"104.089564,30.612429",中国邮政储蓄银行ATM,[],[],四川省,[],[],2,[],金融保险服务;自动提款机;中国邮政储蓄银行ATM,160336
德盛路32号附1号,青羊区,[],[],3,成都市,[],B0FFHJQ4YE,[],"104.076723,30.668711",中国邮政储蓄银行24小时自助银行(德盛路营业所),B001C7WDGC,[],四川省,[],[],2,[],金融保险服务;自动提款机;中国邮政储蓄银行ATM,160336
锦华路一段275号20栋附13号,锦江区,[],[],3,成都市,[],B0FFFYIOKB,[],"104.099718,30.617080",中国邮政储蓄银行24小时自助银行(东光小区营业所),B001C7YLBD,[],四川省,[],[],2,[],金融保险服务;自动提款机;中国邮政储蓄银行ATM,160336
天府大道11-17,郫都区,[],[],3,成都市,[],B0FFGIO7PM,[],"103.973365,30.758030",中国邮政储蓄银行ATM(犀浦街道支行),B001C8VB1N,[],四川省,[],[],2,[],金融保险服务;自动提款机;中国邮政储蓄银行ATM,160336
航空路19号附2号,武侯区,[],[],3,成都市,[],B001C80OBE,[],"104.078928,30.616677",中国邮政储蓄银行24小时自助银行(航空路营业所),B001C8O2H8,[],四川省,[],[],2,[],金融保险服务;自动提款机;中国邮政储蓄银行ATM,160336
犀湖街74-84,郫都区,[],[],3,成都市,[],B001C7XZ4E,[],"103.971197,30.756361",中国邮政储蓄银行24小时自助银行(犀浦镇营业所),B001C8VMQ7,[],四川省,[],[],2,[],金融保险服务;自动提款机;中国邮政储蓄银行ATM,160336
永丰路6号附1号,武侯区,[],[],3,成都市,[],B001C7WR4O,[],"104.051036,30.633028",中国邮政储蓄银行24小时自助银行(衣冠庙支行),B001C7WR4N,[],四川省,[],[],2,[],金融保险服务;自动提款机;中国邮政储蓄银行ATM,160336
顺江路29-31号附近,锦江区,[],[],[],成都市,[],B0FFFAC3A8,[],"104.090917,30.639237",中国邮政储蓄银行ATM(顺江路营业所),[],[],四川省,[],[],2,[],金融保险服务;自动提款机;中国邮政储蓄银行ATM,160336
蜀汉路289号附25-26号,金牛区,[],[],[],成都市,[],B001C7WBV4,[],"104.020522,30.689044",中国邮政储蓄银行(一品天下营业所)(装修中),[],[],四川省,[],[],2,95580,金融保险服务;银行;中国邮政储蓄银行,160139
成白路98号,双流区,[],[],[],成都市,[],B001C80VH2,[],"104.020234,30.563660",中国邮政储蓄银行(成白路支行)(装修中),[],[],四川省,[],[],2,028-85876021;95580,金融保险服务;银行;中国邮政储蓄银行,160139
竞成路1号,成华区,[],[],3,成都市,[],B001C7WHKA,[],"104.123987,30.643056",中国邮政储蓄银行24小时自助银行(竞成路营业所)(装修中),B001C7WR4A,[],四川省,[],[],2,[],金融保险服务;自动提款机;中国邮政储蓄银行ATM,160336
犀浦下街368号,郫都区,[],[],[],成都市,[],B0FFG0WX5T,[],"103.973632,30.752049",中国邮政储蓄银行24小时自助银行(龙吟苑西南)(装修中),[],[],四川省,[],[],2,[],金融保险服务;自动提款机;中国邮政储蓄银行ATM,160336
下南大街6号天府绿洲大厦1层,青羊区,[],[],202,成都市,[],B0FFFFLGGR,[],"104.061227,30.649247",中国邮政储蓄银行ATM(天府绿洲大厦)(暂停营业),B001C7WOXI,[],四川省,[],[],2,[],金融保险服务;自动提款机;中国邮政储蓄银行ATM,160336
天府大道9-15号,郫都区,[],[],[],成都市,[],B001C8VB1N,[],"103.973353,30.758060",中国邮政储蓄银行(犀浦街道支行),[],[],四川省,[],[],2,028-87855000;028-87855033;95580,金融保险服务;银行;中国邮政储蓄银行,160139
三河大道50-52号,新都区,[],[],[],成都市,[],B001C7VRYO,[],"104.133346,30.777857",中国邮政储蓄银行(三河支行),[],[],四川省,[],[],2,028-83909201,金融保险服务;银行;中国邮政储蓄银行,160139
石家碾中路121号-123号,青白江区,[],[],[],成都市,[],B0FFGM1VH2,[],"104.259136,30.887045",中国邮政储蓄银行(石家碾中路支行),[],[],四川省,[],[],2,028-83650556,金融保险服务;银行;中国邮政储蓄银行,160139
大邑大道97号,大邑县,[],[],[],成都市,[],B001C8NPQ8,[],"103.525599,30.573780",中国邮政储蓄银行(大邑支行),[],[],四川省,[],[],2,028-88295166;028-88290211,金融保险服务;银行;中国邮政储蓄银行,160139
城厢镇上北街99-105号,青白江区,[],[],[],成都市,[],B001C807UX,[],"104.319132,30.856778",中国邮政储蓄银行(城厢镇支行),[],[],四川省,[],[],2,028-83632384,金融保险服务;银行;中国邮政储蓄银行,160139
天府大道中段177号17栋1单元1层1号,武侯区,[],[],[],成都市,[],B0FFJTZL8O,[],"104.074046,30.551833",中国邮政储蓄银行(新会展支行),[],[],四川省,[],[],2,95580,金融保险服务;银行;中国邮政储蓄银行,160139
怡湖西路96-104号,青白江区,[],[],[],成都市,[],B001C7VEV7,[],"104.252893,30.881545",中国邮政储蓄银行(怡湖西路支行),[],[],四川省,[],[],2,028-83692608,金融保险服务;银行;中国邮政储蓄银行,160139
广场路13附2-4,郫都区,[],[],[],成都市,[],B001C8MG33,[],"103.942785,30.773670",中国邮政储蓄银行(西华大学邮政储蓄所),[],[],四川省,[],[],2,028-87987771;95580,金融保险服务;银行;中国邮政储蓄银行,160139
凤溪大道中段95号附1号,温江区,[],[],[],成都市,[],B001C8VB2K,[],"103.841951,30.689617",中国邮政储蓄银行(向阳路营业所),[],[],四川省,[],[],2,028-82763116;028-82762163,金融保险服务;银行;中国邮政储蓄银行,160139
北三路518号东坡生活广场,青羊区,[],[],202,成都市,[],B001C80EF0,[],"103.989595,30.665304",中国邮政储蓄银行(苏坡支行),B001C80DW2,[],四川省,[],[],2,028-81716052;95580,金融保险服务;银行;中国邮政储蓄银行,160139
十陵街道江华路4号,龙泉驿区,[],[],[],成都市,[],B001C80C1N,[],"104.185835,30.651692",中国邮政储蓄银行(成都大学营业所),[],[],四川省,[],[],2,028-84601052;95580,金融保险服务;银行;中国邮政储蓄银行,160139
沙湾路73号,金牛区,[],[],[],成都市,[],B0FFHUHYG8,[],"104.050776,30.692858",中国邮政储蓄银行(沙湾支行),[],[],四川省,[],[],2,028-87644800;028-87666582;95580,金融保险服务;银行;中国邮政储蓄银行,160139
杨柳东路附近,双流区,[],[],[],成都市,[],B001C8ML1E,[],"103.859396,30.641981",中国邮政储蓄银行(柑梓营业所),[],[],四川省,[],[],2,028-82688666;95580,金融保险服务;银行;中国邮政储蓄银行,160139
天府四街588号,武侯区,[],[],[],成都市,[],B0FFHCB9XG,[],"104.055467,30.542967",中国邮政储蓄银行(天府支行),[],[],四川省,[],[],2,028-88619988;95580,金融保险服务;银行;中国邮政储蓄银行,160139
文锦街165号,新都区,[],[],[],成都市,[],B0FFFFLHGF,[],"104.069758,30.818086",中国邮政储蓄银行(斑竹园支行),[],[],四川省,[],[],2,028-83988008;95580,金融保险服务;银行;中国邮政储蓄银行,160139
北泉路254-256号金上城1栋1层1号-2号1层,龙泉驿区,[],[],[],成都市,[],B001C8OMKD,[],"104.253990,30.567176",中国邮政储蓄银行(金上城支行),[],[],四川省,[],[],2,028-84859438;028-84884411,金融保险服务;银行;中国邮政储蓄银行,160139
董场镇钟音街20号,大邑县,[],[],[],成都市,[],B0FFHGPVEH,[],"103.692659,30.524412",中国邮政储蓄银行(大邑县董场镇支行),[],[],四川省,[],[],2,028-88324952;95580,金融保险服务;银行;中国邮政储蓄银行,160139
十里大道一段543-557号,金堂县,[],[],[],成都市,[],B001C7ZX1Y,[],"104.418062,30.858078",中国邮政储蓄银行(金堂县支行),[],[],四川省,[],[],2,028-84923938,金融保险服务;银行;中国邮政储蓄银行,160139
永陵路18号附2号,金牛区,[],[],[],成都市,[],B0FFFFQ9LO,[],"104.045477,30.674224",中国邮政储蓄银行(永陵路支行),[],[],四川省,[],[],2,028-87530137;028-87530259,金融保险服务;银行;中国邮政储蓄银行,160139
草堂北路2号附2-3号,青羊区,[],[],[],成都市,[],B0FFFAB200,[],"104.029119,30.662850",中国邮政储蓄银行(草堂寺支行),[],[],四川省,[],[],2,028-81475237;95580,金融保险服务;银行;中国邮政储蓄银行,160139
天乡路一段2451号,温江区,[],[],[],成都市,[],B001C8N0G3,[],"103.836434,30.724147",中国邮政储蓄银行(万春营业所),[],[],四川省,[],[],2,028-67234106;95580,金融保险服务;银行;中国邮政储蓄银行,160139
驿都东路71-85号,龙泉驿区,[],[],[],成都市,[],B001C8NNW5,[],"104.264566,30.559901",中国邮政储蓄银行(龙泉驿区支行营业部),[],[],四川省,[],[],2,028-84884408;95580,金融保险服务;银行;中国邮政储蓄银行,160139
黄水镇玉龙北街19号,双流区,[],[],[],成都市,[],B001C80E6K,[],"103.882673,30.526080",中国邮政储蓄银行(黄水营业所),[],[],四川省,[],[],2,028-85781001;95580,金融保险服务;银行;中国邮政储蓄银行,160139
中街25号,青白江区,[],[],[],成都市,[],B001C807VX,[],"104.202295,30.881955",中国邮政储蓄银行(弥牟镇支行),[],[],四川省,[],[],2,028-83672247,金融保险服务;银行;中国邮政储蓄银行,160139
通胜街91-95号,崇州市,[],[],[],成都市,[],B0FFIA74O3,[],"103.773880,30.542468",中国邮政储蓄银行(三江街道营业所),[],[],四川省,[],[],2,028-82242115;95580,金融保险服务;银行;中国邮政储蓄银行,160139
翔凤路779-785号,都江堰市,[],[],[],成都市,[],B0FFGLXDX5,[],"103.643947,30.971118",中国邮政储蓄银行(翔凤路营业所),[],[],四川省,[],[],2,95580,金融保险服务;银行;中国邮政储蓄银行,160139
华阳镇正北上街24-28号,双流区,[],[],[],成都市,[],B001C808DP,[],"104.056049,30.505991",中国邮政储蓄银行(天府新区支行),[],[],四川省,[],[],2,028-85642431;028-85646123;95580,金融保险服务;银行;中国邮政储蓄银行,160139
正兴街道广东街105号,双流区,[],[],[],成都市,[],B0FFFDXBQZ,[],"104.040545,30.438880",中国邮政储蓄银行(正兴营业所),[],[],四川省,[],[],2,028-85671002,金融保险服务;银行;中国邮政储蓄银行,160139
龙都南路312-316号,龙泉驿区,[],[],[],成都市,[],B001C805EY,[],"104.262868,30.565649",中国邮政储蓄银行(龙都南路支行),[],[],四川省,[],[],2,028-84858920;028-84865976,金融保险服务;银行;中国邮政储蓄银行,160139
淳化街46-54号,双流区,[],[],[],成都市,[],B001C08KEJ,[],"103.923480,30.572734",中国邮政储蓄银行(成都双流区支行),[],[],四川省,[],[],2,028-85823480,金融保险服务;银行;中国邮政储蓄银行,160139
蒲阳路321-331号,都江堰市,[],[],[],成都市,[],B0FFFAB0FB,[],"103.630185,31.002129",中国邮政储蓄银行(都江堰市蒲阳路营业所),[],[],四川省,[],[],2,028-87130603,金融保险服务;银行;中国邮政储蓄银行,160139
四川大学望江校区文华大道,武侯区,[],[],[],成都市,[],B001C8P4NJ,[],"104.084549,30.632504",中国邮政储蓄银行(川大营业所),[],[],四川省,[],[],2,028-85401921;028-95580,金融保险服务;银行;中国邮政储蓄银行,160139
新繁街道正西街260号,新都区,[],[],[],成都市,[],B001C7TLJP,[],"104.018002,30.874151",中国邮政储蓄银行(新繁街道支行),[],[],四川省,[],[],2,028-83080419;95580,金融保险服务;银行;中国邮政储蓄银行,160139
[],新津区,[],[],[],成都市,[],B001C7XZ3R,[],"103.815046,30.417173",中国邮政储蓄银行(瑞新街营业所),[],[],四川省,[],[],2,028-82523540;95580,金融保险服务;银行;中国邮政储蓄银行,160139
三峨街14-34号,龙泉驿区,[],[],[],成都市,[],B0FFGIIJR0,[],"104.320654,30.640250",中国邮政储蓄银行(洛带镇营业所),[],[],四川省,[],[],2,028-84894400;95580,金融保险服务;银行;中国邮政储蓄银行,160139
富民路南段22-28号,大邑县,[],[],[],成都市,[],B001C7UHBW,[],"103.527376,30.581414",中国邮政储蓄银行(富民路邮政所),[],[],四川省,[],[],2,028-88291016;95580,金融保险服务;银行;中国邮政储蓄银行,160139
文康路80附近,青羊区,[],[],[],成都市,[],B0FFFPS5HQ,[],"103.926787,30.699592",中国邮政储蓄银行(文家场营业所),[],[],四川省,[],[],2,028-87072332;95580,金融保险服务;银行;中国邮政储蓄银行,160139
马鞍东路21号,金牛区,[],[],[],成都市,[],B001C7WBN6,[],"104.086783,30.675990",中国邮政储蓄银行(马鞍东路支行),[],[],四川省,[],[],2,028-83334397;95580,金融保险服务;银行;中国邮政储蓄银行,160139
黄瓦街167号,双流区,[],[],[],成都市,[],B001C8MSS6,[],"103.952558,30.494602",中国邮政储蓄银行(黄甲镇营业所),[],[],四川省,[],[],2,028-85780166,金融保险服务;银行;中国邮政储蓄银行,160139
观景路343号,都江堰市,[],[],[],成都市,[],B001C7U14A,[],"103.633423,30.995226",中国邮政储蓄银行(观景路营业所),[],[],四川省,[],[],2,028-87118996,金融保险服务;银行;中国邮政储蓄银行,160139
迎宾路369号,都江堰市,[],[],[],成都市,[],B001C94ZIM,[],"103.644375,30.979993",中国邮政储蓄银行(都江堰市支行),[],[],四川省,[],[],2,028-89738226;028-89737689,金融保险服务;银行;中国邮政储蓄银行,160139
大源北二街40/42/44/46号,武侯区,[],[],[],成都市,[],B001C8VXPH,[],"104.033691,30.556033",中国邮政储蓄银行(大源营业所),[],[],四川省,[],[],2,028-85323767;95580,金融保险服务;银行;中国邮政储蓄银行,160139
科创路180、184、186号,锦江区,[],[],[],成都市,[],B001C8O1V1,[],"104.090565,30.603410",中国邮政储蓄银行(科创路营业所),[],[],四川省,[],[],2,028-85970110;95580,金融保险服务;银行;中国邮政储蓄银行,160139
新下街197号,双流区,[],[],[],成都市,[],B001C8OLWD,[],"104.088194,30.552220",中国邮政储蓄银行(中和镇支行),[],[],四川省,[],[],2,028-85652651;95580,金融保险服务;银行;中国邮政储蓄银行,160139
走马河街278-308,都江堰市,[],[],[],成都市,[],B001C8OOEW,[],"103.625321,30.988522",中国邮政储蓄银行(江安路营业所),[],[],四川省,[],[],2,028-87229137;95580,金融保险服务;银行;中国邮政储蓄银行,160139
三圣祠街与中新街交叉口北50米,锦江区,[],[],[],成都市,[],B0FFK6NBEZ,[],"104.076430,30.657502",中国邮政储蓄银行24小时自助银行(北新街支行),[],[],四川省,[],[],2,[],金融保险服务;自动提款机;中国邮政储蓄银行ATM,160336
正源路102,新津区,[],[],[],成都市,[],B001C8MSYA,[],"103.884122,30.484977",中国邮政储蓄银行(开元营业所),[],[],四川省,[],[],2,028-82482816,金融保险服务;银行;中国邮政储蓄银行,160139
南大街479-481号,彭州市,[],[],[],成都市,[],B0FFGI0YYA,[],"103.940895,30.973515",中国邮政储蓄银行(迎宾路支行),[],[],四川省,[],[],2,028-83700390;95580,金融保险服务;银行;中国邮政储蓄银行,160139
1环路西3段125号抚琴小区,金牛区,[],[],[],成都市,[],B001C7WR48,[],"104.041899,30.677438",中国邮政储蓄银行(抚琴小区营业所),[],[],四川省,[],[],2,028-87778203;028-95580,金融保险服务;银行;中国邮政储蓄银行,160139
竞成路1号,成华区,[],[],[],成都市,[],B001C7WR4A,[],"104.124022,30.643138",中国邮政储蓄银行(竞成路营业所),[],[],四川省,[],[],2,028-84477713,金融保险服务;银行;中国邮政储蓄银行,160139
羊马街道中心南街2-6号,崇州市,[],[],[],成都市,[],B001C8MK1D,[],"103.748120,30.661748",中国邮政储蓄银行(羊马街道营业所),[],[],四川省,[],[],2,028-82252115;95580,金融保险服务;银行;中国邮政储蓄银行,160139
簇桥生产路82号,武侯区,[],[],[],成都市,[],B001C8OC62,[],"103.990605,30.606385",中国邮政储蓄银行(簇桥支行),[],[],四川省,[],[],2,95580,金融保险服务;银行;中国邮政储蓄银行,160139
华林三路63号,成华区,[],[],[],成都市,[],B0G1ZR6AM1,[],"104.143434,30.682199",中国邮政储蓄银行(华林三路营业所),[],[],四川省,[],[],2,028-84077014;95580,金融保险服务;银行;中国邮政储蓄银行,160139
临邛镇兴贤街238号1幢1层,邛崃市,[],[],202,成都市,[],B001C8R8Q7,[],"103.463138,30.406839",中国邮政储蓄银行(邛崃市支行),B001C802NO,[],四川省,[],[],2,028-88793208;95580,金融保险服务;银行;中国邮政储蓄银行,160139
南岳街15-23号、41-43号,邛崃市,[],[],[],成都市,[],B001C0AJQQ,[],"103.459982,30.412391",中国邮政储蓄银行(南岳街营业所),[],[],四川省,[],[],2,028-88792316,金融保险服务;银行;中国邮政储蓄银行,160139
公兴镇荷韵路104号,双流区,[],[],[],成都市,[],B0FFGFLNEO,[],"103.996483,30.481529",中国邮政储蓄银行(公兴路营业所),[],[],四川省,[],[],2,[],金融保险服务;银行;中国邮政储蓄银行,160139
幸福路141-149号,金堂县,[],[],[],成都市,[],B001C06V5P,[],"104.436805,30.856152",中国邮政储蓄银行(幸福路营业所),[],[],四川省,[],[],2,028-84906506;028-88131910,金融保险服务;银行;中国邮政储蓄银行,160139
石家碾西路75号大弯青年生活广场1层,青白江区,[],[],[],成都市,[],B0FFG1PDOO,[],"104.256290,30.887707",中国邮政储蓄银行(青白江区支行),[],[],四川省,[],[],2,028-69280909;95580,金融保险服务;银行;中国邮政储蓄银行,160139
暑袜北一街25号附1号,锦江区,[],[],[],成都市,[],B001C7WHVO,[],"104.076915,30.660909",中国邮政储蓄银行(四川省分行直属支行),[],[],四川省,[],[],2,028-86617310,金融保险服务;银行;中国邮政储蓄银行,160139
文翁路147号,青羊区,[],[],[],成都市,[],B001C7WR4F,[],"104.060600,30.654810",中国邮政储蓄银行(陕西街支行),[],[],四川省,[],[],2,028-86130314;95580,金融保险服务;银行;中国邮政储蓄银行,160139
金泉路168金海岸・天府花园水城附近,金堂县,[],[],202,成都市,[],B001C7ZWQ9,[],"104.409070,30.850699",中国邮政储蓄银行(迎宾大道营业所),B0FFH3WBKD,[],四川省,[],[],2,028-84155902,金融保险服务;银行;中国邮政储蓄银行,160139
赵镇五横道金沙街金沙街238号1栋1层234、236号,金堂县,[],[],[],成都市,[],B001C7ZWPC,[],"104.406792,30.862201",中国邮政储蓄银行(金沙街支行),[],[],四川省,[],[],2,028-84933727;95580,金融保险服务;银行;中国邮政储蓄银行,160139
晋原街道西街9号,大邑县,[],[],[],成都市,[],B001C7XZ42,[],"103.520586,30.585628",中国邮政储蓄银行(西街营业所),[],[],四川省,[],[],2,028-88223023,金融保险服务;银行;中国邮政储蓄银行,160139
模范街101附2号,新津区,[],[],[],成都市,[],B001C7UY13,[],"103.811990,30.410881",中国邮政储蓄银行(模范街营业所),[],[],四川省,[],[],2,028-82523540;028-82522738,金融保险服务;银行;中国邮政储蓄银行,160139
和乐巷117、119、121号,郫都区,[],[],[],成都市,[],B001C91XMN,[],"103.887378,30.803653",中国邮政储蓄银行(和乐巷营业所),[],[],四川省,[],[],2,028-87581789;95580,金融保险服务;银行;中国邮政储蓄银行,160139
蜀龙大道中段1076-1078号附近,新都区,[],[],[],成都市,[],B0FFIL9QY8,[],"104.178612,30.819833",中国邮政储蓄银行(石油学院营业所),[],[],四川省,[],[],2,028-83046563;95580,金融保险服务;银行;中国邮政储蓄银行,160139
红建路南段103,简阳市,[],[],[],成都市,[],B0FFIGBE0F,[],"104.558065,30.383930",中国邮政储蓄银行(红建路南段营业所),[],[],四川省,[],[],2,[],金融保险服务;银行;中国邮政储蓄银行,160139
固驿街道羊安街,邛崃市,[],[],[],成都市,[],B001C7YJSG,[],"103.699657,30.392402",中国邮政储蓄银行(羊安镇支行),[],[],四川省,[],[],2,028-88752424,金融保险服务;银行;中国邮政储蓄银行,160139
长柏路105号,龙泉驿区,[],[],[],成都市,[],B0FFH82MCO,[],"104.269949,30.554921",中国邮政储蓄银行(长柏路营业所),[],[],四川省,[],[],2,028-84884410;95580,金融保险服务;银行;中国邮政储蓄银行,160139
蜀西环街66号附12号,金牛区,[],[],[],成都市,[],B0FFGY73G3,[],"104.002268,30.702556",中国邮政储蓄银行(蜀西环街营业所),[],[],四川省,[],[],2,028-87643920,金融保险服务;银行;中国邮政储蓄银行,160139
和盛镇和兴街79号(滨河路旁边),温江区,[],[],[],成都市,[],B001C8UB3T,[],"103.774833,30.751081",中国邮政储蓄银行(和盛邮政储蓄所),[],[],四川省,[],[],2,028-82771331;95580,金融保险服务;银行;中国邮政储蓄银行,160139
八宝街88号附2号,青羊区,[],[],[],成都市,[],B001C7WDET,[],"104.061026,30.671030",中国邮政储蓄银行(八宝街营业所),[],[],四川省,[],[],2,028-86644302;028-95580,金融保险服务;银行;中国邮政储蓄银行,160139
龙门中街与龙门北街交叉口西南50米,崇州市,[],[],[],成都市,[],B0GUHSS08F,[],"103.664861,30.631847",中国邮政储蓄银行(崇阳镇支行),[],[],四川省,[],[],2,028-82276007,金融保险服务;银行;中国邮政储蓄银行,160139
道观路102号,都江堰市,[],[],[],成都市,[],B0G3BZQGGP,[],"103.575609,30.846971",中国邮政储蓄银行,[],[],四川省,[],[],2,028-87213316,金融保险服务;银行;中国邮政储蓄银行,160139
望丛中路1092号1层8-10号,郫都区,[],[],[],成都市,[],B0G34ZRBR2,[],"103.903709,30.791506",中国邮政储蓄银行(望丛中路支行),[],[],四川省,[],[],2,028-87885381;028-61775480;95580,金融保险服务;银行;中国邮政储蓄银行,160139
长城路东街1号附近,双流区,[],[],[],成都市,[],B0G1ASXJYH,[],"103.991211,30.546228",中国邮政储蓄银行(文星营业所),[],[],四川省,[],[],2,028-85870614;95580,金融保险服务;银行;中国邮政储蓄银行,160139
蓉北商贸大道一段48号2,金牛区,[],[],[],成都市,[],B0FFLOWJMY,[],"104.064991,30.707819",中国邮政储蓄银行(成都市蓉北商贸大道营业所),[],[],四川省,[],[],2,[],金融保险服务;银行;中国邮政储蓄银行,160139
天彭街道金彭东路158号,彭州市,[],[],[],成都市,[],B0FFK80LDC,[],"103.960004,30.987629",中国邮政储蓄银行(金彭东路营业所),[],[],四川省,[],[],2,028-83706636;95580,金融保险服务;银行;中国邮政储蓄银行,160139
新兴镇顺瞿街393号,彭州市,[],[],[],成都市,[],B0FFJ09AS5,[],"103.852607,31.121367",中国邮政储蓄银行(新兴营业所),[],[],四川省,[],[],2,028-83841399;95580,金融保险服务;银行;中国邮政储蓄银行,160139
云龙镇和平东街13-15号,简阳市,[],[],[],成都市,[],B0FFI6IWB9,[],"104.853570,30.485092",中国邮政储蓄银行(五合邮政所),[],[],四川省,[],[],2,028-27787043,金融保险服务;银行;中国邮政储蓄银行,160139
出江镇隆兴街137号,大邑县,[],[],[],成都市,[],B0FFGWP2IE,[],"103.296254,30.579801",中国邮政储蓄银行(出江邮政支局),[],[],四川省,[],[],2,028-88218951;028-88308174,金融保险服务;银行;中国邮政储蓄银行,160139
雷家镇永安街1号,简阳市,[],[],[],成都市,[],B0FFGTD3LS,[],"104.463802,30.184129",中国邮政储蓄银行(雷家镇营业所),[],[],四川省,[],[],2,95580,金融保险服务;银行;中国邮政储蓄银行,160139
老龙乡水井街,简阳市,[],[],[],成都市,[],B0FFGTCNK5,[],"104.418949,30.137221",中国邮政储蓄银行(老龙乡营业所),[],[],四川省,[],[],2,95580,金融保险服务;银行;中国邮政储蓄银行,160139
董家埂客车站,简阳市,[],[],[],成都市,[],B0FFGT71J9,[],"104.324300,30.244130",中国邮政储蓄银行(董家埂镇营业所),[],[],四川省,[],[],2,028-27681029,金融保险服务;银行;中国邮政储蓄银行,160139
江源街道新场街127号,简阳市,[],[],[],成都市,[],B0FFGT5W4T,[],"104.531155,30.262224",中国邮政储蓄银行(江源街道营业所),[],[],四川省,[],[],2,028-27468166,金融保险服务;银行;中国邮政储蓄银行,160139
公园后街9号,简阳市,[],[],[],成都市,[],B0FFGNWMBG,[],"104.542432,30.397881",中国邮政储蓄银行(简阳市公园后街营业所),[],[],四川省,[],[],2,[],金融保险服务;银行;中国邮政储蓄银行,160139
养马街道芙蓉街129-133号,简阳市,[],[],[],成都市,[],B0FFFFMA6M,[],"104.502872,30.493891",中国邮政储蓄银行(养马街道支行),[],[],四川省,[],[],2,028-27722364;95580,金融保险服务;银行;中国邮政储蓄银行,160139
云龙镇文化路164号,简阳市,[],[],[],成都市,[],B03400MVQ8,[],"104.808088,30.420038",中国邮政储蓄银行(云龙镇营业所),[],[],四川省,[],[],2,028-27761501,金融保险服务;银行;中国邮政储蓄银行,160139
普新街36-38号,简阳市,[],[],[],成都市,[],B0340015WH,[],"104.666773,30.405812",中国邮政储蓄银行(普安乡营业所),[],[],四川省,[],[],2,028-27665029,金融保险服务;银行;中国邮政储蓄银行,160139
平泉街道前新街25号,简阳市,[],[],[],成都市,[],B034000YCJ,[],"104.640183,30.341956",中国邮政储蓄银行(平泉街道营业所),[],[],四川省,[],[],2,028-27626679,金融保险服务;银行;中国邮政储蓄银行,160139
中心街60号,大邑县,[],[],[],成都市,[],B001C8PM5F,[],"103.617411,30.513320",中国邮政储蓄银行(古镇支行),[],[],四川省,[],[],2,028-88315127,金融保险服务;银行;中国邮政储蓄银行,160139
新建街407-409号,邛崃市,[],[],[],成都市,[],B001C7VDL0,[],"103.671645,30.354040",中国邮政储蓄银行(牟礼镇支行),[],[],四川省,[],[],2,028-88721001;95580,金融保险服务;银行;中国邮政储蓄银行,160139
新龙路4号附19号,金堂县,[],[],[],成都市,[],B0FFITCEIW,[],"104.434284,30.847905",中国邮政储蓄银行(金堂县韩滩营业所),[],[],四川省,[],[],2,028-84935874;95580,金融保险服务;银行;中国邮政储蓄银行,160139
赵镇滨江路706号,金堂县,[],[],[],成都市,[],B0FFILIRKZ,[],"104.413820,30.856274",中国邮政储蓄银行(金航路支行),[],[],四川省,[],[],2,028-84998311;95580,金融保险服务;银行;中国邮政储蓄银行,160139
二环路西一段94号,武侯区,[],[],[],成都市,[],B001C7WFT8,[],"104.022976,30.645035",中国邮政储蓄银行(双楠支行),[],[],四川省,[],[],2,028-85087342,金融保险服务;银行;中国邮政储蓄银行,160139
建设路53号附1-3,成华区,[],[],[],成都市,[],B001C7WDHV,[],"104.101007,30.668166",中国邮政储蓄银行(建设路邮政支局),[],[],四川省,[],[],2,028-95580;028-84341899,金融保险服务;银行;中国邮政储蓄银行,160139
水口镇车站街4-8号,邛崃市,[],[],[],成都市,[],B001C8MNUK,[],"103.300458,30.449519",中国邮政储蓄银行(水口支行),[],[],四川省,[],[],2,028-88708091;95580,金融保险服务;银行;中国邮政储蓄银行,160139
天马镇金马街105号,都江堰市,[],[],[],成都市,[],B001C8N1BQ,[],"103.760304,30.973806",中国邮政储蓄银行(天马营业所),[],[],四川省,[],[],2,028-87249716,金融保险服务;银行;中国邮政储蓄银行,160139
白家镇黄河路南2段21-25号,双流区,[],[],[],成都市,[],B0FFF00D24,[],"104.010767,30.551051",中国邮政储蓄银行(白家邮政所),[],[],四川省,[],[],2,028-85865416;95580,金融保险服务;银行;中国邮政储蓄银行,160139
滨江街道青城路398号,都江堰市,[],[],0,成都市,[],B001C91YOS,[],"103.620480,30.978661",中国邮政储蓄银行(青城路营业所),B001C91YOT,[],四川省,[],[],2,028-61920856;95580,金融保险服务;银行;中国邮政储蓄银行,160139
国际商贸城荷花池中药材专业中药材市场1层6-1-13号,金牛区,[],[],[],成都市,[],B001C8MBSK,[],"104.088541,30.791200",中国邮政储蓄银行(成都市国际商贸城支行),[],[],四川省,[],[],2,[],金融保险服务;银行;中国邮政储蓄银行,160139
东滨路江水湾16栋1层1-2号,简阳市,[],[],202,成都市,[],B0340015OB,[],"104.549433,30.400523",中国邮政储蓄银行(东滨路支行),B0FFL9E3ZA,[],四川省,[],[],2,028-27235129,金融保险服务;银行;中国邮政储蓄银行,160139
大石东路11号之附13-16,青羊区,[],[],[],成都市,[],B001C7WI4H,[],"104.045677,30.651910",中国邮政储蓄银行(大石东路营业所),[],[],四川省,[],[],2,028-87049475;95580,金融保险服务;银行;中国邮政储蓄银行,160139
踏水镇柏林街197号,简阳市,[],[],[],成都市,[],B03400MXEG,[],"104.691671,30.590721",中国邮政储蓄银行(寨子储蓄所),[],[],四川省,[],[],2,95580,金融保险服务;银行;银行,160100
平息乡八角庙北街2-4号,简阳市,[],[],[],成都市,[],B034000YDX,[],"104.810432,30.342722",中国邮政储蓄银行(平息乡营业所),[],[],四川省,[],[],2,[],金融保险服务;银行;中国邮政储蓄银行,160139
丽蓉大道140-142号,彭州市,[],[],[],成都市,[],B001C8ODIL,[],"103.872077,30.972160",中国邮政储蓄银行(丽春街道支行),[],[],四川省,[],[],2,028-83816196;95580,金融保险服务;银行;中国邮政储蓄银行,160139
又新镇金乐路5号,金堂县,[],[],[],成都市,[],B001C7X4PV,[],"104.788835,30.568975",中国邮政储蓄银行(金堂县又新营业所),[],[],四川省,[],[],2,028-84971388,金融保险服务;银行;中国邮政储蓄银行,160139
顺江路33号,锦江区,[],[],[],成都市,[],B001C7WR4B,[],"104.090962,30.639242",中国邮政储蓄银行(顺江路营业所),[],[],四川省,[],[],2,028-84510507;95580,金融保险服务;银行;中国邮政储蓄银行,160139
宝莲路374-376号,都江堰市,[],[],[],成都市,[],B0FFF00OEA,[],"103.652646,30.980391",中国邮政储蓄银行(宝莲路营业所),[],[],四川省,[],[],2,[],金融保险服务;银行;中国邮政储蓄银行,160139
永宁北街与永宁东路交叉路口往南约100米(柏林河畔),郫都区,[],[],[],成都市,[],B0FFJE6CAL,[],"103.918993,30.872464",中国邮政储蓄银行(三道堰镇营业所),[],[],四川省,[],[],2,[],金融保险服务;银行;中国邮政储蓄银行,160139
统利大道98号,双流区,[],[],[],成都市,[],B001C8MHIN,[],"103.949898,30.640669",中国邮政储蓄银行(通江支行),[],[],四川省,[],[],2,[],金融保险服务;银行;中国邮政储蓄银行,160139
简城镇南街37号,简阳市,[],[],[],成都市,[],B0340015E0,[],"104.551490,30.390688",中国邮政储蓄银行(简阳市支行),[],[],四川省,[],[],2,028-27215901,金融保险服务;银行;中国邮政储蓄银行,160139
芦葭街道芦新街96号,简阳市,[],[],[],成都市,[],B034000YI5,[],"104.445096,30.269382",中国邮政储蓄银行(芦葭街道营业所),[],[],四川省,[],[],2,028-27461056,金融保险服务;银行;中国邮政储蓄银行,160139
平安路一段29-31,青白江区,[],[],[],成都市,[],B001C8OO8Z,[],"104.394732,30.748796",中国邮政储蓄银行(清泉镇营业所),[],[],四川省,[],[],2,028-83655696,金融保险服务;银行;中国邮政储蓄银行,160139
交大路208号,金牛区,[],[],3,成都市,[],B001C8RB71,[],"104.040374,30.706578",中国邮政储蓄银行24小时自助银行(交大路营业所),B001C8RB6I,[],四川省,[],[],2,[],金融保险服务;自动提款机;中国邮政储蓄银行ATM,160336
石桥街道中和桥街49号,简阳市,[],[],[],成都市,[],B034000XYS,[],"104.520026,30.421963",中国邮政储蓄银行(石桥街道营业所),[],[],四川省,[],[],2,[],金融保险服务;银行;中国邮政储蓄银行,160139
餮艚值烂晌髀101-109号,彭州市,[],[],[],成都市,[],B001C8ODUX,[],"104.112084,30.956198",中国邮政储蓄银行(蒙阳街道支行),[],[],四川省,[],[],2,028-83829208;95580,金融保险服务;银行;中国邮政储蓄银行,160139
正北上街24-30号,双流区,[],[],3,成都市,[],B001C8OBR8,[],"104.056111,30.506067",中国邮政储蓄银行24小时自助银行(华阳支行),B001C808DP,[],四川省,[],[],2,[],金融保险服务;自动提款机;中国邮政储蓄银行ATM,160336
花都大道793-795号,新都区,[],[],[],成都市,[],B001C8MG9C,[],"104.057185,30.760779",中国邮政储蓄银行(大丰镇支行),[],[],四川省,[],[],2,028-83911418;95580,金融保险服务;银行;中国邮政储蓄银行,160139
黎园街与165乡道交叉口西50米,简阳市,[],[],[],成都市,[],B0FFH5I29K,[],"104.324500,30.396928",中国邮政储蓄银行,[],[],四川省,[],[],2,95580,金融保险服务;银行;中国邮政储蓄银行,160139
成飞大道73号,青羊区,[],[],[],成都市,[],B0FFI89R55,[],"103.961277,30.681106",中国邮政储蓄银行(黄田坝支行),[],[],四川省,[],[],2,028-87416912;95580,金融保险服务;银行;中国邮政储蓄银行,160139
忠烈祠西街48号,青羊区,[],[],[],成都市,[],B001C7Y79K,[],"104.075731,30.665393",中国邮政储蓄银行(太升南路支行),[],[],四川省,[],[],2,028-69924054;028-86619626,金融保险服务;银行;中国邮政储蓄银行,160139
郫筒镇西大街441号,郫都区,[],[],[],成都市,[],B001C928W9,[],"103.880565,30.814822",中国邮政储蓄银行(西大街营业所),[],[],四川省,[],[],2,[],金融保险服务;银行;中国邮政储蓄银行,160139
金花街1号附7、9号,武侯区,[],[],[],成都市,[],B001C8MILD,[],"103.968295,30.605211",中国邮政储蓄银行(金花营业所),[],[],四川省,[],[],2,028-85371255;95580,金融保险服务;银行;中国邮政储蓄银行,160139
十陵镇十陵下街54-62号,龙泉驿区,[],[],[],成都市,[],B001C8MRIY,[],"104.176167,30.647866",中国邮政储蓄银行(十陵镇支行),[],[],四川省,[],[],2,028-84600359,金融保险服务;银行;中国邮政储蓄银行,160139
蜀州南路59号1单元1层附49-51、66-69号,崇州市,[],[],[],成都市,[],B0FFIK6TGT,[],"103.669993,30.619639",中国邮政储蓄银行(蜀州南路营业所),[],[],四川省,[],[],2,028-82272875;95580,金融保险服务;银行;中国邮政储蓄银行,160139
福兴街,简阳市,[],[],[],成都市,[],B0FFGH3PZS,[],"104.378016,30.278483",中国邮政储蓄银行(福田街道营业所),[],[],四川省,[],[],2,95580,金融保险服务;银行;中国邮政储蓄银行,160139
万年场街37号,简阳市,[],[],[],成都市,[],B0FFFFQ2BY,[],"104.421214,30.392329",中国邮政储蓄银行(海螺镇营业所),[],[],四川省,[],[],2,028-27966257,金融保险服务;银行;中国邮政储蓄银行,160139
籍田街道东街东段47号,双流区,[],[],[],成都市,[],B001C8N5TE,[],"104.026765,30.306640",中国邮政储蓄银行(籍田支行),[],[],四川省,[],[],2,028-85691226;95580,金融保险服务;银行;中国邮政储蓄银行,160139
楠桥一组202号,彭州市,[],[],[],成都市,[],B001C80L82,[],"103.987906,31.093743",中国邮政储蓄银行(敖平支行),[],[],四川省,[],[],2,028-83861101;95580,金融保险服务;银行;中国邮政储蓄银行,160139
王泗镇营新南段90号,大邑县,[],[],[],成都市,[],B001C7YJSA,[],"103.476380,30.516887",中国邮政储蓄银行(王泗营业所),[],[],四川省,[],[],2,028-88344110,金融保险服务;银行;中国邮政储蓄银行,160139
东升街道长顺路四段87-113号,双流区,[],[],[],成都市,[],B001C91Z3F,[],"103.926916,30.561594",中国邮政储蓄银行(长顺路营业厅),[],[],四川省,[],[],2,[],金融保险服务;银行;中国邮政储蓄银行,160139
锦绣路174附20-22号,龙泉驿区,[],[],3,成都市,[],B001C8MNZI,[],"104.306001,30.601647",中国邮政储蓄银行24小时自助银行(同安镇支行),B001C8N0XH,[],四川省,[],[],2,[],金融保险服务;自动提款机;中国邮政储蓄银行ATM,160336
国槐街1153号,锦江区,[],[],[],成都市,[],B0HGFL5ZOK,[],"104.133397,30.612997",中国邮政储蓄银行(国槐路邮政储蓄所),[],[],四川省,[],[],2,028-84093112,金融保险服务;银行;中国邮政储蓄银行,160139
花石街116号,郫都区,[],[],[],成都市,[],B0GK9SPYXS,[],"103.964846,30.821513",中国邮政储蓄银行(团结街道营业所),[],[],四川省,[],[],2,028-87878898,金融保险服务;银行;中国邮政储蓄银行,160139
[],简阳市,[],[],[],成都市,[],B0G3L7HWGK,[],"104.543730,30.220415",中国邮政储蓄银行(永宁乡营业所),[],[],四川省,[],[],2,[],金融保险服务;银行;中国邮政储蓄银行,160139
上街与壮灵街交叉口西南100米正北方向100米,简阳市,[],[],[],成都市,[],B0G3HC6II0,[],"104.515370,30.538642",中国邮政储蓄银行(壮溪乡营业所),[],[],四川省,[],[],2,[],金融保险服务;银行;中国邮政储蓄银行,160139
[],简阳市,[],[],[],成都市,[],B0G35DWHIT,[],"104.532674,30.423435",中国邮政储蓄银行,[],[],四川省,[],[],2,[],金融保险服务;银行;中国邮政储蓄银行,160139
东升街,简阳市,[],[],[],成都市,[],B0G2ZZG4VG,[],"104.422263,30.425130",中国邮政储蓄银行,[],[],四川省,[],[],2,[],金融保险服务;银行;中国邮政储蓄银行,160139
北坛街与永丰路交叉口西北方向90米,邛崃市,[],[],[],成都市,[],B0FFMHVHTI,[],"103.465764,30.416454",中国邮政储蓄银行,[],[],四川省,[],[],2,[],金融保险服务;银行;中国邮政储蓄银行,160139
武兴路86号兆信国际1层,武侯区,[],[],[],成都市,[],B0FFMGM0JM,[],"103.980385,30.621576",中国邮政储蓄银行(武侯科技园支行),[],[],四川省,[],[],2,028-85367709,金融保险服务;银行;中国邮政储蓄银行,160139
土主庙街31号,双流区,[],[],[],成都市,[],B0FFLP635D,[],"104.149862,30.352106",中国邮政储蓄银行(永兴镇支行),[],[],四川省,[],[],2,[],金融保险服务;银行;中国邮政储蓄银行,160139
人民路401号,简阳市,[],[],[],成都市,[],B0FFLN9AVP,[],"104.547154,30.409993",中国邮政储蓄银行(简阳市人民路支行),[],[],四川省,[],[],2,[],金融保险服务;银行;中国邮政储蓄银行,160139
乐善路77号3栋,温江区,[],[],[],成都市,[],B0FFLI3UH4,[],"103.876723,30.688021",中国邮政储蓄银行(成都市温江区支行),[],[],四川省,[],[],2,[],金融保险服务;银行;中国邮政储蓄银行,160139
北街与南街交叉口东南100米邛崃市冉义镇司法所附近,邛崃市,[],[],[],成都市,[],B0FFKYO43U,[],"103.659674,30.433917",中国邮政储蓄银行,[],[],四川省,[],[],2,[],金融保险服务;银行;中国邮政储蓄银行,160139
一品天下大街1005号,金牛区,[],[],[],成都市,[],B0FFKW1GZX,[],"104.040774,30.702506",中国邮政储蓄银行,[],[],四川省,[],[],2,[],金融保险服务;银行;中国邮政储蓄银行,160139
淳化街54号附1,双流区,[],[],[],成都市,[],B0FFKW1GMR,[],"103.923424,30.572631",中国邮政储蓄银行三农金融事业部双流区营业部,[],[],四川省,[],[],2,[],金融保险服务;银行;中国邮政储蓄银行,160139
127乡道附近,简阳市,[],[],[],成都市,[],B0FFKRHMAS,[],"104.624649,30.335129",中国邮政储蓄银行,[],[],四川省,[],[],2,[],金融保险服务;银行;中国邮政储蓄银行,160139
新繁街道盛世华庭,新都区,[],[],[],成都市,[],B0FFKP0V6P,[],"104.028067,30.813797",中国邮政储蓄银行(新繁街道营业所),[],[],四川省,[],[],2,[],金融保险服务;银行;中国邮政储蓄银行,160139
桑园镇交通街164号,邛崃市,[],[],[],成都市,[],B0FFKOI5NE,[],"103.459016,30.476860",中国邮政储蓄银行(桑园镇营业所),[],[],四川省,[],[],2,028-88701001,金融保险服务;银行;中国邮政储蓄银行,160139
永丰路34号,武侯区,[],[],[],成都市,[],B0FFKKCDUC,[],"104.047140,30.627219",中国邮政储蓄银行(成都市分行),[],[],四川省,[],[],2,[],金融保险服务;银行;中国邮政储蓄银行,160139
五津东路88号,新津区,[],[],[],成都市,[],B0FFKHKCY6,[],"103.818831,30.413966",中国邮政储蓄银行(新津区支行),[],[],四川省,[],[],2,028-82511928;13880054560,金融保险服务;银行;中国邮政储蓄银行,160139
金马街道云金街,简阳市,[],[],[],成都市,[],B0FFK240FZ,[],"104.779260,30.474260",中国邮政储蓄银行(金马街道营业所),[],[],四川省,[],[],2,028-27763168,金融保险服务;银行;中国邮政储蓄银行,160139
育英路457号新都国际广场一层,新都区,[],[],[],成都市,[],B0FFJZPM02,[],"104.183698,30.809227",中国邮政储蓄银行(新都区支行),[],[],四川省,[],[],2,028-83969004,金融保险服务;银行;中国邮政储蓄银行,160139
寿安街道通柳中街22号,温江区,[],[],[],成都市,[],B0FFJIZSGA,[],"103.750009,30.776733",中国邮政储蓄银行(通平营业所),[],[],四川省,[],[],2,028-82640136,金融保险服务;银行;中国邮政储蓄银行,160139
雷家镇,简阳市,[],[],[],成都市,[],B0FFI2TGI9,[],"104.481309,30.223738",中国邮政储蓄银行(雷家乡营业所),[],[],四川省,[],[],2,[],金融保险服务;银行;中国邮政储蓄银行,160139
三岔街道三岔街74号,简阳市,[],[],[],成都市,[],B0FFFFMB83,[],"104.303268,30.297893",中国邮政储蓄银行(三岔镇营业所),[],[],四川省,[],[],2,[],金融保险服务;银行;中国邮政储蓄银行,160139
崇州市街道西街28号,崇州市,[],[],[],成都市,[],B001C8MIWH,[],"103.671639,30.629144",中国邮政储蓄银行(崇州市支行),[],[],四川省,[],[],2,028-82206401;028-82217031,金融保险服务;银行;中国邮政储蓄银行,160139
海螺镇新街42号,简阳市,[],[],[],成都市,[],B0FFFRY3HP,[],"104.358520,30.385850",中国邮政储蓄银行(坛罐乡营业所),[],[],四川省,[],[],2,[],金融保险服务;银行;中国邮政储蓄银行,160139
彭温路76号,郫都区,[],[],[],成都市,[],B0FFFQ1ZNM,[],"103.797313,30.871326",中国邮政储蓄银行(安德街道营业所),[],[],四川省,[],[],2,028-87868222;95580,金融保险服务;银行;中国邮政储蓄银行,160139
庆兴镇长庆街,彭州市,[],[],[],成都市,[],B001C8UB30,[],"103.811267,30.965305",中国邮政储蓄银行(庆兴支行),[],[],四川省,[],[],2,028-83831333;95580,金融保险服务;银行;中国邮政储蓄银行,160139
双江路与火盆路交叉口西南100米,金堂县,[],[],[],成都市,[],B001C807SW,[],"104.384910,30.912582",中国邮政储蓄银行(清江支行),[],[],四川省,[],[],2,028-84901202,金融保险服务;银行;中国邮政储蓄银行,160139
双胞胎饲料厂家直营店隔壁,崇州市,[],[],[],成都市,[],B001C7TLJR,[],"103.542023,30.780001",中国邮政储蓄银行(三郎镇支行),[],[],四川省,[],[],2,028-82295711,金融保险服务;银行;中国邮政储蓄银行,160139
清源路201号,新都区,[],[],[],成都市,[],B001C9365U,[],"104.179680,30.814129",中国邮政储蓄银行(清源路支行),[],[],四川省,[],[],2,028-83953860;028-83966086;95580,金融保险服务;银行;中国邮政储蓄银行,160139
丹景山街道南郡西街31号,彭州市,[],[],[],成都市,[],B0FFHGPEY0,[],"103.851044,31.071903",中国邮政储蓄银行(九陇支行),[],[],四川省,[],[],2,028-83836080,金融保险服务;银行;中国邮政储蓄银行,160139
石盘街道金龙山庄南路428号,简阳市,[],[],[],成都市,[],B03400166T,[],"104.419869,30.476572",中国邮政储蓄银行(石盘街道支行),[],[],四川省,[],[],2,028-27321235,金融保险服务;银行;中国邮政储蓄银行,160139
包江新居锦馨家园A区7号楼榕声路135号,锦江区,[],[],[],成都市,[],B001C90NZO,[],"104.096547,30.588956",中国邮政储蓄银行(榕声路营业所),[],[],四川省,[],[],2,028-84795370,金融保险服务;银行;中国邮政储蓄银行,160139
城西巷与海林西巷交叉口西150米,新津区,[],[],[],成都市,[],B0FFGM9EQL,[],"103.803503,30.413658",中国邮政储蓄银行24小时自助银行(五津镇营业所),[],[],四川省,[],[],2,[],金融保险服务;自动提款机;中国邮政储蓄银行ATM,160336
犀湖街74-84,郫都区,[],[],[],成都市,[],B001C8VMQ7,[],"103.971073,30.756292",中国邮政储蓄银行(犀浦支行),[],[],四川省,[],[],2,028-87855033;95580,金融保险服务;银行;中国邮政储蓄银行,160139
白果街道莲花街10-14号,金堂县,[],[],[],成都市,[],B0FFIIMSQX,[],"104.541861,30.667305",中国邮政储蓄银行(白果营业所),[],[],四川省,[],[],2,028-84026368,金融保险服务;银行;中国邮政储蓄银行,160139
贾家街道前进路,简阳市,[],[],[],成都市,[],B0FFI9PIVD,[],"104.284234,30.382402",中国邮政储蓄银行(武庙乡营业所),[],[],四川省,[],[],2,028-27981000;95580,金融保险服务;银行;中国邮政储蓄银行,160139
伟福路,邛崃市,[],[],[],成都市,[],B0FFI6ZBWI,[],"103.623289,30.399809",中国邮政储蓄银行(高埂营业所),[],[],四川省,[],[],2,028-88719062;95580,金融保险服务;银行;中国邮政储蓄银行,160139
石盘街117号附近,简阳市,[],[],[],成都市,[],B0FFHFD0BH,[],"104.415501,30.475686",中国邮政储蓄银行(石盘街),[],[],四川省,[],[],2,[],金融保险服务;银行;中国邮政储蓄银行,160139
五星乡正兴街69-71号,简阳市,[],[],[],成都市,[],B0FFFSAA0C,[],"104.695128,30.338220",中国邮政储蓄银行(五星乡营业所),[],[],四川省,[],[],2,028-27645033,金融保险服务;银行;中国邮政储蓄银行,160139
上安镇兴盛街137-143号,大邑县,[],[],[],成都市,[],B0FFFFQ3RK,[],"103.609468,30.447300",中国邮政储蓄银行(上安营业所),[],[],四川省,[],[],2,028-88381359,金融保险服务;银行;中国邮政储蓄银行,160139
永商镇和平街361号,新津区,[],[],[],成都市,[],B0FFFE10DL,[],"103.750518,30.345262",中国邮政储蓄银行(永商营业所),[],[],四川省,[],[],2,95580,金融保险服务;银行;中国邮政储蓄银行,160139
寿安街道吉安街46号,温江区,[],[],[],成都市,[],B0FFFCUALZ,[],"103.752345,30.811487",中国邮政储蓄银行(寿安邮政支局),[],[],四川省,[],[],2,028-82645345,金融保险服务;银行;中国邮政储蓄银行,160139
玉成街道玉龙街41-43号,简阳市,[],[],[],成都市,[],B03400160G,[],"104.321756,30.336953",中国邮政储蓄银行(玉成街道营业所),[],[],四川省,[],[],2,028-27861048,金融保险服务;银行;中国邮政储蓄银行,160139
红鹤村杨家街,简阳市,[],[],[],成都市,[],B0340013B2,[],"104.598705,30.276894",中国邮政储蓄银行(杨家营业所),[],[],四川省,[],[],2,[],金融保险服务;银行;中国邮政储蓄银行,160139
大兴镇九仙路西段7号,蒲江县,[],[],[],成都市,[],B001C8MTU7,[],"103.416144,30.242002",中国邮政储蓄银行(大兴镇支行),[],[],四川省,[],[],2,[],金融保险服务;银行;中国邮政储蓄银行,160139
唐昌镇北正街211号,郫都区,[],[],[],成都市,[],B001C8MCLB,[],"103.825429,30.929618",中国邮政储蓄银行(唐昌储蓄所),[],[],四川省,[],[],2,028-87869157,金融保险服务;银行;中国邮政储蓄银行,160139
崇义镇梳妆街66号,都江堰市,[],[],[],成都市,[],B001C80NEO,[],"103.730901,30.915941",中国邮政储蓄银行(崇义支行),[],[],四川省,[],[],2,028-87286221;95580,金融保险服务;银行;中国邮政储蓄银行,160139
金泉大道,邛崃市,[],[],[],成都市,[],B001C7YJSH,[],"103.675797,30.399608",中国邮政储蓄银行(泉水支行),[],[],四川省,[],[],2,028-88758091;95580,金融保险服务;银行;中国邮政储蓄银行,160139
鹤山镇天华镇新街15号,蒲江县,[],[],[],成都市,[],B001C7YJSC,[],"103.558440,30.225365",中国邮政储蓄银行(天华镇支行),[],[],四川省,[],[],2,[],金融保险服务;银行;中国邮政储蓄银行,160139
文井中路163-169号,崇州市,[],[],[],成都市,[],B001C7YJRP,[],"103.525988,30.742189",中国邮政储蓄银行(怀远镇营业所),[],[],四川省,[],[],2,028-82282115;95580,金融保险服务;银行;中国邮政储蓄银行,160139
芷林街154号,邛崃市,[],[],[],成都市,[],B001C7UXRT,[],"103.583256,30.384734",中国邮政储蓄银行(固驿镇支行),[],[],四川省,[],[],2,028-88711005;95580,金融保险服务;银行;中国邮政储蓄银行,160139
天府街西段69-75号,温江区,[],[],[],成都市,[],B001C8VF2S,[],"103.794225,30.686116",中国邮政储蓄银行(天府营业所),[],[],四川省,[],[],2,028-82631839;95580,金融保险服务;银行;中国邮政储蓄银行,160139
簇马路三段8号附5号,武侯区,[],[],[],成都市,[],B001C8O4EA,[],"103.972297,30.587313",中国邮政储蓄银行(簇马邮政所邮政储蓄所),[],[],四川省,[],[],2,[],金融保险服务;银行;中国邮政储蓄银行,160139
郫都区西大街47-53号,郫都区,[],[],[],成都市,[],B001C063I0,[],"103.885886,30.809885",中国邮政储蓄银行(郫都支行),[],[],四川省,[],[],2,028-87885168;95580,金融保险服务;银行;中国邮政储蓄银行,160139
悦来镇迎宾大道167号,大邑县,[],[],[],成都市,[],B0FFJZ5HYI,[],"103.453406,30.618166",中国邮政储蓄银行(悦来镇支行),[],[],四川省,[],[],2,028-88376134,金融保险服务;银行;中国邮政储蓄银行,160139
廖兴南街91-93号,崇州市,[],[],[],成都市,[],B001C8OFKB,[],"103.695721,30.707825",中国邮政储蓄银行(廖家镇支行),[],[],四川省,[],[],2,028-82290959;028-82290111;95580,金融保险服务;银行;中国邮政储蓄银行,160139
东风东街74号,新都区,[],[],[],成都市,[],B001C8UB3R,[],"104.273391,30.726336",中国邮政储蓄银行(石板滩街道营业所),[],[],四川省,[],[],2,028-83987001;95580,金融保险服务;银行;中国邮政储蓄银行,160139
河南街5-9号,邛崃市,[],[],[],成都市,[],B001C8PLW0,[],"103.240270,30.382210",中国邮政储蓄银行(火井支行),[],[],四川省,[],[],2,028-88731001,金融保险服务;银行;中国邮政储蓄银行,160139
竹篙镇上正街684-690号,金堂县,[],[],[],成都市,[],B001C8OL3A,[],"104.731250,30.629080",中国邮政储蓄银行(竹篙镇支行),[],[],四川省,[],[],2,028-84966177;95580,金融保险服务;银行;中国邮政储蓄银行,160139
淮口街道兴淮大道61号宝龙新城2幢5单元门面,金堂县,[],[],202,成都市,[],B001C8N34N,[],"104.552547,30.714420",中国邮政储蓄银行(宝龙新城营业所),B0FFFADLLG,[],四川省,[],[],2,028-84008756;95580,金融保险服务;银行;中国邮政储蓄银行,160139
高板街道万顺街193号,金堂县,[],[],[],成都市,[],B001C7YJRU,[],"104.627721,30.686632",中国邮政储蓄银行(高板营业所),[],[],四川省,[],[],2,028-84913276;95580,金融保险服务;银行;中国邮政储蓄银行,160139
黄金路244号-246号,金牛区,[],[],[],成都市,[],B001C8MV42,[],"103.991633,30.709122",中国邮政储蓄银行(黄金路支行),[],[],四川省,[],[],2,028-61666340;95580,金融保险服务;银行;中国邮政储蓄银行,160139
中兴梓红路与中环路南段交叉口北50米,都江堰市,[],[],[],成都市,[],B0FFIIJENU,[],"103.621645,30.917921",中国邮政储蓄银行24小时自助银行(中兴镇支行),[],[],四川省,[],[],2,[],金融保险服务;自动提款机;中国邮政储蓄银行ATM,160336
162乡道附近,简阳市,[],[],[],成都市,[],B03400MXE1,[],"104.494188,30.315685",中国邮政储蓄银行(石板储蓄所),[],[],四川省,[],[],2,028-27426264,金融保险服务;银行;中国邮政储蓄银行,160139
新民镇大成街61号,新都区,[],[],[],成都市,[],B001C8MYOF,[],"104.098987,30.891215",中国邮政储蓄银行(新民营业所),[],[],四川省,[],[],2,028-83075001,金融保险服务;银行;中国邮政储蓄银行,160139
福兴镇金兴街227-237号,金堂县,[],[],[],成都市,[],B001C7V3XG,[],"104.639061,30.828610",中国邮政储蓄银行(福兴镇支行),[],[],四川省,[],[],2,028-84944128;028-84944161;95580,金融保险服务;银行;中国邮政储蓄银行,160139
三岔街道建国街49-57号,简阳市,[],[],[],成都市,[],B0FFFRPBA9,[],"104.300597,30.297417",中国邮政储蓄银行(简阳市三岔建国街支行),[],[],四川省,[],[],2,028-27330011,金融保险服务;银行;中国邮政储蓄银行,160139
白马庙街175-177号,温江区,[],[],[],成都市,[],B001C8MWKH,[],"103.840501,30.704987",中国邮政储蓄银行(白马庙支行),[],[],四川省,[],[],2,028-82724860;95580,金融保险服务;银行;中国邮政储蓄银行,160139
交大路208号,金牛区,[],[],[],成都市,[],B001C8RB6I,[],"104.040493,30.706600",中国邮政储蓄银行(交大路营业所),[],[],四川省,[],[],2,028-87703235;028-83331282,金融保险服务;银行;中国邮政储蓄银行,160139
柏合镇新街47、49、51号,龙泉驿区,[],[],3,成都市,[],B001C8OP8B,[],"104.205463,30.503970",中国邮政储蓄银行24小时自助银行(柏合街道营业所),B001C8OPIT,[],四川省,[],[],2,[],金融保险服务;自动提款机;中国邮政储蓄银行ATM,160336
淮州大道36-42号,金堂县,[],[],[],成都市,[],B0FFFAHM4V,[],"104.559897,30.711955",中国邮政储蓄银行(淮州大道营业所),[],[],四川省,[],[],2,028-84915499;95580,金融保险服务;银行;中国邮政储蓄银行,160139
蒲新路东段25号,蒲江县,[],[],[],成都市,[],B001C8P4S4,[],"103.626678,30.271033",中国邮政储蓄银行(寿安镇支行),[],[],四川省,[],[],2,028-88678519;028-88942965,金融保险服务;银行;中国邮政储蓄银行,160139
柳街镇,都江堰市,[],[],[],成都市,[],B001C7YJS1,[],"103.667858,30.786177",中国邮政储蓄银行(柳街营业所),[],[],四川省,[],[],2,028-87243023,金融保险服务;银行;中国邮政储蓄银行,160139
荷塘街169-175号,金堂县,[],[],[],成都市,[],B0FFHMZ5OI,[],"104.575159,30.814715",中国邮政储蓄银行(赵家支行),[],[],四川省,[],[],2,028-84942996;95580,金融保险服务;银行;中国邮政储蓄银行,160139
驭虹路76附8,蒲江县,[],[],[],成都市,[],B0FFFFVI3R,[],"103.514027,30.194383",中国邮政储蓄银行(驭虹路支行),[],[],四川省,[],[],2,028-88532653,金融保险服务;银行;中国邮政储蓄银行,160139
平武镇春熙街,简阳市,[],[],[],成都市,[],B0FFFFQ2CA,[],"104.640493,30.428799",中国邮政储蓄银行(平武镇营业所),[],[],四川省,[],[],2,[],金融保险服务;银行;中国邮政储蓄银行,160139
新市街道新达街505-507号,简阳市,[],[],[],成都市,[],B03400NCTS,[],"104.576758,30.334181",中国邮政储蓄银行(新达营业所),[],[],四川省,[],[],2,028-27125351,金融保险服务;银行;中国邮政储蓄银行,160139
蒲阳路302号,都江堰市,[],[],[],成都市,[],B001C8R916,[],"103.682776,31.030428",中国邮政储蓄银行(蒲阳街道营业所),[],[],四川省,[],[],2,028-87287186;028-87131700,金融保险服务;银行;中国邮政储蓄银行,160139
淮口街道现代大道1号,金堂县,[],[],[],成都市,[],B001C8MKXC,[],"104.548669,30.714673",中国邮政储蓄银行(淮口支行),[],[],四川省,[],[],2,028-84915455,金融保险服务;银行;中国邮政储蓄银行,160139
元通镇涌泉街79-83号,崇州市,[],[],[],成都市,[],B001C8MD3R,[],"103.628264,30.729997",中国邮政储蓄银行(元通镇支行),[],[],四川省,[],[],2,028-82262115;95580,金融保险服务;银行;中国邮政储蓄银行,160139
聚兴路149号,都江堰市,[],[],[],成都市,[],B001C8MBYB,[],"103.680733,30.944180",中国邮政储蓄银行(聚源镇支行),[],[],四川省,[],[],2,028-87261799;95580,金融保险服务;银行;中国邮政储蓄银行,160139
解放路一段192号附7,金牛区,[],[],[],成都市,[],B0FFGYNCGC,[],"104.089562,30.692641",中国邮政储蓄银行(解放路支行),[],[],四川省,[],[],2,028-63172550,金融保险服务;银行;中国邮政储蓄银行,160139
树蓓街9号,金牛区,[],[],[],成都市,[],B001C92B6X,[],"104.090192,30.684567",中国邮政储蓄银行(成都市李家沱营业所),[],[],四川省,[],[],2,028-83386801;95580,金融保险服务;银行;中国邮政储蓄银行,160139
人民北路火车北站广场公交路3号附2号,金牛区,[],[],[],成都市,[],B001C7YQ3N,[],"104.072046,30.695805",中国邮政储蓄银行(北站广场支行),[],[],四川省,[],[],2,028-83171173,金融保险服务;银行;中国邮政储蓄银行,160139
顺城街22-24,双流区,[],[],[],成都市,[],B001C09SU1,[],"103.922525,30.574050",中国邮政储蓄银行(顺城街支行),[],[],四川省,[],[],2,028-85813795,金融保险服务;银行;中国邮政储蓄银行,160139
花圃路2号附1-附4、附13号,金牛区,[],[],[],成都市,[],B001C8N4K9,[],"104.080079,30.678976",中国邮政储蓄银行(簸箕街支行),[],[],四川省,[],[],2,[],金融保险服务;银行;中国邮政储蓄银行,160139
前进路85附近,简阳市,[],[],[],成都市,[],B0FFJC468R,[],"104.361628,30.434315",中国邮政储蓄银行(贾家镇支行),[],[],四川省,[],[],2,028-27921901,金融保险服务;银行;中国邮政储蓄银行,160139
孔明街道金龙街303-313号,邛崃市,[],[],[],成都市,[],B0FFHZMPPM,[],"103.421507,30.337442",中国邮政储蓄银行(卧龙营业所),[],[],四川省,[],[],2,028-88787004,金融保险服务;银行;中国邮政储蓄银行,160139
隆丰街道隆裕街295-305号,彭州市,[],[],[],成都市,[],B0FFHGPZGN,[],"103.867567,31.046955",中国邮政储蓄银行(隆丰镇营业所),[],[],四川省,[],[],2,028-83810002;95580,金融保险服务;银行;中国邮政储蓄银行,160139
草池街道裕民街136-138号,简阳市,[],[],[],成都市,[],B03400MXBJ,[],"104.406022,30.323778",中国邮政储蓄银行(草池街道营业所),[],[],四川省,[],[],2,028-27871607,金融保险服务;银行;中国邮政储蓄银行,160139
广兴镇保庵街33号,金堂县,[],[],[],成都市,[],B001C8ZAWR,[],"104.792214,30.627437",中国邮政储蓄银行(广兴邮政所),[],[],四川省,[],[],2,028-84030118;95580,金融保险服务;银行;中国邮政储蓄银行,160139
三溪镇上正街9-11号,金堂县,[],[],[],成都市,[],B001C8UB4J,[],"104.638259,30.760313",中国邮政储蓄银行(三溪镇分理处),[],[],四川省,[],[],2,028-84020998;95580,金融保险服务;银行;中国邮政储蓄银行,160139
迎宾路232-234号,邛崃市,[],[],[],成都市,[],B001C7ZZ6C,[],"103.336088,30.342424",中国邮政储蓄银行(迎宾大道营业所),[],[],四川省,[],[],2,028-88781088;95580,金融保险服务;银行;中国邮政储蓄银行,160139
临邛镇东星大道443号,邛崃市,[],[],[],成都市,[],B001C7ZWA5,[],"103.478468,30.403963",中国邮政储蓄银行(东星营业所),[],[],四川省,[],[],2,028-88793208;028-88770365,金融保险服务;银行;中国邮政储蓄银行,160139
[],邛崃市,[],[],[],成都市,[],B001C7UXTB,[],"103.651483,30.347693",中国邮政储蓄银行(新迎街营业所),[],[],四川省,[],[],2,028-88720298;95580,金融保险服务;银行;中国邮政储蓄银行,160139
市场北路与新洛路交叉口南50米,龙泉驿区,[],[],[],成都市,[],B0FFH843A6,[],"104.291517,30.684974",中国邮政储蓄银行24小时自助银行(市场北路),[],[],四川省,[],[],2,[],金融保险服务;自动提款机;中国邮政储蓄银行ATM,160336
南街174-176号,都江堰市,[],[],[],成都市,[],B001C80OU4,[],"103.621756,30.917799",中国邮政储蓄银行(中兴镇支行),[],[],四川省,[],[],2,028-87211232,金融保险服务;银行;中国邮政储蓄银行,160139
武都路4号附3-5号,青羊区,[],[],[],成都市,[],B0FFFABJ1W,[],"104.070777,30.677782",中国邮政储蓄银行(万福桥邮政所),[],[],四川省,[],[],2,[],金融保险服务;银行;中国邮政储蓄银行,160139
花牌坊街40号附1-2,金牛区,[],[],[],成都市,[],B0FFGPZD1G,[],"104.047502,30.678611",中国邮政储蓄银行(花牌坊街营业所),[],[],四川省,[],[],2,028-87704530,金融保险服务;银行;中国邮政储蓄银行,160139
蜀州北路170-184号,崇州市,[],[],[],成都市,[],B001C8R8SV,[],"103.669965,30.637191",中国邮政储蓄银行(蜀州北路支行),[],[],四川省,[],[],2,028-82217030;028-82272561,金融保险服务;银行;中国邮政储蓄银行,160139
贾家街道前进路中段,简阳市,[],[],[],成都市,[],B0340015E1,[],"104.357829,30.432735",中国邮政储蓄银行(光明路营业所),[],[],四川省,[],[],2,028-27921901,金融保险服务;银行;中国邮政储蓄银行,160139
韩场镇千禧街56号,大邑县,[],[],[],成都市,[],B001C8UB2X,[],"103.715798,30.451228",中国邮政储蓄银行(大邑县韩场营业所),[],[],四川省,[],[],2,028-88335120,金融保险服务;银行;中国邮政储蓄银行,160139
土桥镇上正街16-18号,金堂县,[],[],[],成都市,[],B001C8UB2P,[],"104.838378,30.522151",中国邮政储蓄银行(土桥镇支行),[],[],四川省,[],[],2,028-84977172;95580,金融保险服务;银行;中国邮政储蓄银行,160139
大北街47附3号,蒲江县,[],[],[],成都市,[],B001C7WSCH,[],"103.507271,30.197949",中国邮政储蓄银行(蒲江县支行),[],[],四川省,[],[],2,028-88522662,金融保险服务;银行;中国邮政储蓄银行,160139
大桥街163-165号,邛崃市,[],[],[],成都市,[],B001C06LBG,[],"103.337246,30.345095",中国邮政储蓄银行(大桥街营业所),[],[],四川省,[],[],2,028-88782469,金融保险服务;银行;中国邮政储蓄银行,160139
协和上街100-104,双流区,[],[],3,成都市,[],B0FFFYJB5Q,[],"104.046336,30.508254",中国邮政储蓄银行ATM(华阳锦江路营业所),B001C8MOF6,[],四川省,[],[],2,[],金融保险服务;自动提款机;中国邮政储蓄银行ATM,160336
模范街103-105号,新津区,[],[],3,成都市,[],B001C8NZJN,[],"103.811994,30.410937",中国邮政储蓄银行24小时自助银行(模范街营业所),B001C7UY13,[],四川省,[],[],2,[],金融保险服务;自动提款机;中国邮政储蓄银行ATM,160336
桃蹊路70号(交警五分局对面),成华区,[],[],[],成都市,[],B001C7WDKX,[],"104.107431,30.681085",中国邮政储蓄银行(桃蹊路支行),[],[],四川省,[],[],2,028-83289445,金融保险服务;银行;中国邮政储蓄银行,160139
锦华路三段82,双流区,[],[],[],成都市,[],B0FFHGCIPK,[],"103.984929,30.576671",中国邮政储蓄银行24小时自助银行(锦华路三段),[],[],四川省,[],[],2,[],金融保险服务;自动提款机;中国邮政储蓄银行ATM,160336
文锦街167号附近,新都区,[],[],[],成都市,[],B0FFG1SQPK,[],"104.069748,30.818080",中国邮政储蓄银行24小时自助银行(斑竹园镇营业所),[],[],四川省,[],[],2,[],金融保险服务;自动提款机;中国邮政储蓄银行ATM,160336
长顺路四段105-111,双流区,[],[],3,成都市,[],B0FFKWUQQV,[],"103.926916,30.561594",中国邮政储蓄银行24小时自助银行(长顺路支行),B001C91Z3F,[],四川省,[],[],2,[],金融保险服务;自动提款机;中国邮政储蓄银行ATM,160336
怡湖西路96-104号,青白江区,[],[],3,成都市,[],B0FFG7IUWC,[],"104.252801,30.881533",中国邮政储蓄银行24小时自助银行(怡湖西路支行),B001C7VEV7,[],四川省,[],[],2,[],金融保险服务;自动提款机;中国邮政储蓄银行ATM,160336
人民北路一段2号附1号天合凯旋港,金牛区,[],[],202,成都市,[],B001C8O6EX,[],"104.071698,30.679369",中国邮政储蓄银行(人民北路支行),B001C7WDCW,[],四川省,[],[],2,028-61395323,金融保险服务;银行;中国邮政储蓄银行,160139
正西街109-113,双流区,[],[],[],成都市,[],B001C92B1O,[],"104.051638,30.505943",中国邮政储蓄银行(华阳镇西街支行),[],[],四川省,[],[],2,028-85645474;028-85646123,金融保险服务;银行;中国邮政储蓄银行,160139
玉林横街1号附5号,武侯区,[],[],[],成都市,[],B001C7WHIA,[],"104.061840,30.626502",中国邮政储蓄银行(玉林小区营业所),[],[],四川省,[],[],2,028-85560382;028-85568053,金融保险服务;银行;中国邮政储蓄银行,160139
双林路346号,成华区,[],[],[],成都市,[],B001C7WR47,[],"104.096830,30.658969",中国邮政储蓄银行(猛追湾支行),[],[],四川省,[],[],2,028-84341074;028-83269707,金融保险服务;银行;中国邮政储蓄银行,160139
清江东路43号附1-25号,青羊区,[],[],[],成都市,[],B001C92GAQ,[],"104.029386,30.668511",中国邮政储蓄银行24小时自助银行(草堂支行),[],[],四川省,[],[],2,[],金融保险服务;自动提款机;中国邮政储蓄银行ATM,160336
人民北路一段2号附1号天合凯旋港,金牛区,[],[],202,成都市,[],B001C8VXJG,[],"104.071514,30.679503",中国邮政储蓄银行24小时自助银行(人民北路支行),B001C7WDCW,[],四川省,[],[],2,[],金融保险服务;自动提款机;中国邮政储蓄银行ATM,160336
西航港临港路三段66号,双流区,[],[],[],成都市,[],B0FFIITWVO,[],"103.995815,30.569430",中国邮政储蓄银行(成都市航空港支行),[],[],四川省,[],[],2,[],金融保险服务;银行;银行,160100
清江东路43号附1-25号,青羊区,[],[],[],成都市,[],B0FFGZHFYL,[],"104.029543,30.668738",中国邮政储蓄银行(草堂支行),[],[],四川省,[],[],2,028-81475237,金融保险服务;银行;中国邮政储蓄银行,160139
簇桥中街166号附40-43号,武侯区,[],[],[],成都市,[],B001C7WR4P,[],"103.997876,30.601960",中国邮政储蓄银行(簇桥中街营业所),[],[],四川省,[],[],2,028-85010318;028-87501623,金融保险服务;银行;中国邮政储蓄银行,160139
广东街99号,双流区,[],[],[],成都市,[],B001C8VF27,[],"104.040524,30.438947",中国邮政储蓄银行24小时自助银行(正兴营业所),[],[],四川省,[],[],2,[],金融保险服务;自动提款机;中国邮政储蓄银行ATM,160336
餮艚值烂晌髀67号,彭州市,[],[],3,成都市,[],B001C8ODU9,[],"104.112140,30.956200",中国邮政储蓄银行24小时自助银行(蒙阳镇支行),B001C8ODUX,[],四川省,[],[],2,[],金融保险服务;自动提款机;中国邮政储蓄银行ATM,160336
北正街209号,郫都区,[],[],[],成都市,[],B0FFGA7N08,[],"103.825425,30.929587",中国邮政储蓄银行24小时自助银行(唐昌镇营业所),[],[],四川省,[],[],2,[],金融保险服务;自动提款机;中国邮政储蓄银行ATM,160336
药王庙街2-12,龙泉驿区,[],[],[],成都市,[],B001C8VF1Q,[],"104.235512,30.651612",中国邮政储蓄银行24小时自助银行,[],[],四川省,[],[],2,[],金融保险服务;自动提款机;中国邮政储蓄银行ATM,160336
建材路与文景街交叉口西南50米,龙泉驿区,[],[],[],成都市,[],B0FFLPWIOJ,[],"104.279536,30.569729",中国邮政储蓄银行24小时自助银行(文景街),[],[],四川省,[],[],2,[],金融保险服务;自动提款机;中国邮政储蓄银行ATM,160336
瑞新街109号附近,新津区,[],[],[],成都市,[],B0FFKYQZPH,[],"103.815110,30.417312",中国邮政储蓄银行24小时自助银行(瑞新街营业所),[],[],四川省,[],[],2,[],金融保险服务;自动提款机;中国邮政储蓄银行ATM,160336
永康小区旁,都江堰市,[],[],[],成都市,[],B0FFKYFP8G,[],"103.611715,30.964205",中国邮政储蓄银行24小时自助银行(玉堂营业所),[],[],四川省,[],[],2,[],金融保险服务;自动提款机;中国邮政储蓄银行ATM,160336
石家碾中路119-125,青白江区,[],[],[],成都市,[],B0FFKWWQXO,[],"104.259069,30.887060",中国邮政储蓄银行24小时自助银行(石家碾中路营业所),[],[],四川省,[],[],2,[],金融保险服务;自动提款机;中国邮政储蓄银行ATM,160336
北泉路256号,龙泉驿区,[],[],3,成都市,[],B0FFKWUQR5,[],"104.254039,30.567126",中国邮政储蓄银行24小时自助银行(金上城支行),B001C8OMKD,[],四川省,[],[],2,[],金融保险服务;自动提款机;中国邮政储蓄银行ATM,160336
机场路成都双流国际机场3F层,双流区,[],[],201,成都市,[],B0FFGF9I9V,[],"103.954692,30.567504",中国邮政储蓄银行ATM(成都双流国际机场),B001C06GIA,[],四川省,[],[],2,[],金融保险服务;自动提款机;中国邮政储蓄银行ATM,160336
顺成路与165乡道交叉口西南50米,简阳市,[],[],[],成都市,[],B0FFFS88V6,[],"104.361689,30.434330",中国邮政储蓄银行24小时自助银行(贾家街道支行),[],[],四川省,[],[],2,[],金融保险服务;自动提款机;中国邮政储蓄银行ATM,160336
施家镇施乐路98号,简阳市,[],[],[],成都市,[],B0FFFS7RL9,[],"104.761094,30.305203",中国邮政储蓄银行24小时自助银行(施家邮政支局),[],[],四川省,[],[],2,[],金融保险服务;自动提款机;中国邮政储蓄银行ATM,160336
三岔街道三岔街74号正西方向10米,简阳市,[],[],[],成都市,[],B0FFFRTDUF,[],"104.303196,30.297893",中国邮政储蓄银行24小时自助银行(三岔镇营业所),[],[],四川省,[],[],2,[],金融保险服务;自动提款机;中国邮政储蓄银行ATM,160336
草堂北路2号附2-3号,青羊区,[],[],3,成都市,[],B001C7WR46,[],"104.029217,30.662718",中国邮政储蓄银行24小时自助银行(草堂寺支行),B0FFFAB200,[],四川省,[],[],2,[],金融保险服务;自动提款机;中国邮政储蓄银行ATM,160336
东星大道447-453号,邛崃市,[],[],[],成都市,[],B001C7ZZWF,[],"103.478290,30.403914",中国邮政储蓄银行24小时自助银行(邛崃市支行),[],[],四川省,[],[],2,[],金融保险服务;自动提款机;中国邮政储蓄银行ATM,160336
牡丹东路6号,彭州市,[],[],3,成都市,[],B001C8OPZW,[],"103.959851,30.988575",中国邮政储蓄银行24小时自助银行(彭州市支行),B001C8OPQ4,[],四川省,[],[],2,[],金融保险服务;自动提款机;中国邮政储蓄银行ATM,160336
核桃堰路29-31号附近,武侯区,[],[],3,成都市,[],B0FFI31E21,[],"104.026447,30.626428",中国邮政储蓄银行ATM(核桃堰路营业所),B001C90QZC,[],四川省,[],[],2,[],金融保险服务;自动提款机;中国邮政储蓄银行ATM,160336
南通路三段与太平街二段交叉口东50米,双流区,[],[],[],成都市,[],B001C8VF1B,[],"103.987074,30.408339",中国邮政储蓄银行24小时自助银行,[],[],四川省,[],[],2,[],金融保险服务;自动提款机;中国邮政储蓄银行ATM,160336
甲子东道100号,大邑县,[],[],[],成都市,[],B001C7ZYYJ,[],"103.533480,30.580653",中国邮政储蓄银行(大邑县支行),[],[],四川省,[],[],2,[],金融保险服务;银行;中国邮政储蓄银行,160139
天新路45-55号,金牛区,[],[],3,成都市,[],B001C7VKAB,[],"104.117780,30.761762",中国邮政储蓄银行24小时自助银行(天回镇营业所),B001C7XZ4C,[],四川省,[],[],2,[],金融保险服务;自动提款机;中国邮政储蓄银行ATM,160336
朝阳南路370号附102号、372号、376号,彭州市,[],[],[],成都市,[],B0FFIMFA2E,[],"103.949733,30.975506",中国邮政储蓄银行(朝阳南路营业所),[],[],四川省,[],[],2,95580,金融保险服务;银行;中国邮政储蓄银行,160139
太极大道296-298,温江区,[],[],[],成都市,[],B001C957LG,[],"103.803588,30.641162",中国邮政储蓄银行24小时自助银行(金马镇营业所),[],[],四川省,[],[],2,[],金融保险服务;自动提款机;中国邮政储蓄银行ATM,160336
玉龙北街19附1,双流区,[],[],[],成都市,[],B0FFGAG48T,[],"103.882794,30.526108",中国邮政储蓄银行24小时自助银行(黄水营业所),[],[],四川省,[],[],2,[],金融保险服务;自动提款机;中国邮政储蓄银行ATM,160336
府青东街与踏水桥西街交叉口东50米,成华区,[],[],[],成都市,[],B0FFJ66WOF,[],"104.100421,30.680406",中国邮政储蓄银行(府青路邮局营业部),[],[],四川省,[],[],2,028-83293168,金融保险服务;银行;中国邮政储蓄银行,160139
杨柳东路东50米,双流区,[],[],[],成都市,[],B0FFF2RFJ3,[],"103.859455,30.642128",中国邮政储蓄银行24小时自助银行(花石桥幼儿园西南),[],[],四川省,[],[],2,[],金融保险服务;自动提款机;中国邮政储蓄银行ATM,160336
紫竹南一街1号紫荆美熙广场,武侯区,[],[],202,成都市,[],B001C0AJ21,[],"104.054269,30.613362",中国邮政储蓄银行24小时自助银行(紫荆东路营业所),B0FFGXCHXO,[],四川省,[],[],2,[],金融保险服务;自动提款机;中国邮政储蓄银行ATM,160336
丽蓉大道140-142,彭州市,[],[],[],成都市,[],B0FFIIJHFI,[],"103.872021,30.972095",中国邮政储蓄银行24小时自助银行(丽春镇支行),[],[],四川省,[],[],2,[],金融保险服务;自动提款机;中国邮政储蓄银行ATM,160336
友助村成渝环线高速公路成佳镇政府北,蒲江县,[],[],[],成都市,[],B0FFFACQN7,[],"103.377698,30.176191",中国邮政储蓄银行24小时自助银行(成佳镇支行),[],[],四川省,[],[],2,[],金融保险服务;自动提款机;中国邮政储蓄银行ATM,160336
楠桥一组202号,彭州市,[],[],3,成都市,[],B001C8OE22,[],"103.987882,31.093833",中国邮政储蓄银行24小时自助银行(敖平镇营业所),B001C80L82,[],四川省,[],[],2,[],金融保险服务;自动提款机;中国邮政储蓄银行ATM,160336
昭觉寺横路99号附13号,成华区,[],[],[],成都市,[],B0FFFGYQMQ,[],"104.105659,30.701682",中国邮政储蓄银行24小时自助银行(青龙场营业所),[],[],四川省,[],[],2,[],金融保险服务;自动提款机;中国邮政储蓄银行ATM,160336
兴达路962号,温江区,[],[],[],成都市,[],B0FFGLW63N,[],"103.772221,30.671164",中国邮政储蓄银行(永盛邮政支局),[],[],四川省,[],[],2,028-82620004,金融保险服务;银行;中国邮政储蓄银行,160139
天仙桥北路6号附1号,锦江区,[],[],[],成都市,[],B001C09XAH,[],"104.085850,30.650283",中国邮政储蓄银行(天福街营业所),[],[],四川省,[],[],2,028-86713900;028-95580,金融保险服务;银行;中国邮政储蓄银行,160139
双桂南路与楠桂街交叉口西南100米,双流区,[],[],[],成都市,[],B0FFI7XKC9,[],"103.910248,30.556079",中国邮政储蓄银行24小时自助银行(楠桂街),[],[],四川省,[],[],2,[],金融保险服务;自动提款机;中国邮政储蓄银行ATM,160336
天乡路一段377-383,温江区,[],[],[],成都市,[],B0FFGRIMID,[],"103.870493,30.703660",中国邮政储蓄银行24小时自助银行(公平营业所),[],[],四川省,[],[],2,[],金融保险服务;自动提款机;中国邮政储蓄银行ATM,160336
回龙街32号,彭州市,[],[],[],成都市,[],B0FFFACQQP,[],"103.791761,31.239105",中国邮政储蓄银行24小时自助银行(龙门山镇营业所),[],[],四川省,[],[],2,[],金融保险服务;自动提款机;中国邮政储蓄银行ATM,160336
幸福路141-149号,金堂县,[],[],[],成都市,[],B0FFG37ZXH,[],"104.436901,30.856189",中国邮政储蓄银行24小时自助银行(幸福路支行),[],[],四川省,[],[],2,[],金融保险服务;自动提款机;中国邮政储蓄银行ATM,160336
天仙桥北路6号附1号,锦江区,[],[],3,成都市,[],B001C09XAI,[],"104.085876,30.650329",中国邮政储蓄银行24小时自助银行(天福街营业所),B001C09XAH,[],四川省,[],[],2,[],金融保险服务;自动提款机;中国邮政储蓄银行ATM,160336
龙舟路59号,锦江区,[],[],3,成都市,[],B001C7YDGT,[],"104.097966,30.627113",中国邮政储蓄银行24小时自助银行(龙舟路营业所),B001C7YBX7,[],四川省,[],[],2,[],金融保险服务;自动提款机;中国邮政储蓄银行ATM,160336
西北街168号,双流区,[],[],[],成都市,[],B0FFFT80VJ,[],"103.924820,30.575914",中国邮政储蓄银行24小时自助银行(西北街),[],[],四川省,[],[],2,[],金融保险服务;自动提款机;中国邮政储蓄银行ATM,160336
西华大道608号附1,金牛区,[],[],3,成都市,[],B001C8P6CB,[],"104.025119,30.728691",中国邮政储蓄银行24小时自助银行(西华大道支行),B001C8P6P9,[],四川省,[],[],2,[],金融保险服务;自动提款机;中国邮政储蓄银行ATM,160336
三河大道50-52号,新都区,[],[],3,成都市,[],B001C8MZCV,[],"104.133371,30.777857",中国邮政储蓄银行24小时自助银行(三河支行),B001C7VRYO,[],四川省,[],[],2,[],金融保险服务;自动提款机;中国邮政储蓄银行ATM,160336
兴义镇兴盛街131号,新津区,[],[],[],成都市,[],B001C8089S,[],"103.811236,30.484801",中国邮政储蓄银行(兴义邮政所),[],[],四川省,[],[],2,028-82400001;95580,金融保险服务;银行;中国邮政储蓄银行,160139
大源北二街40-46,武侯区,[],[],3,成都市,[],B001C8VXOQ,[],"104.033670,30.556044",中国邮政储蓄银行24小时自助银行(大源营业所),B001C8VXPH,[],四川省,[],[],2,[],金融保险服务;自动提款机;中国邮政储蓄银行ATM,160336
清源路201号,新都区,[],[],[],成都市,[],B0FFFGNBL4,[],"104.179517,30.814197",中国邮政储蓄银行24小时自助银行(清源路支行),[],[],四川省,[],[],2,[],金融保险服务;自动提款机;中国邮政储蓄银行ATM,160336
赵镇金泉路168号(近金海岸・天府花园水城),金堂县,[],[],3,成都市,[],B001C8O34G,[],"104.409067,30.850719",中国邮政储蓄银行24小时自助银行(迎宾大道一段),B001C7ZWQ9,[],四川省,[],[],2,[],金融保险服务;自动提款机;中国邮政储蓄银行ATM,160336
简城镇白塔路,简阳市,[],[],[],成都市,[],B0FFFRY0N0,[],"104.556001,30.379788",中国邮政储蓄银行(白塔路营业所),[],[],四川省,[],[],2,028-27242218,金融保险服务;银行;中国邮政储蓄银行,160139
天府街西段69-75号,温江区,[],[],[],成都市,[],B0FFF00B10,[],"103.794327,30.686201",中国邮政储蓄银行24小时自助银行(天府营业所),[],[],四川省,[],[],2,[],金融保险服务;自动提款机;中国邮政储蓄银行ATM,160336
商贸巷与渔樵街交叉口西50米,邛崃市,[],[],[],成都市,[],B0FFHNSVA3,[],"103.537887,30.402472",中国邮政储蓄银行(前进镇支行),[],[],四川省,[],[],2,95580,金融保险服务;银行;中国邮政储蓄银行,160139
花牌坊街40号附1-2号,金牛区,[],[],[],成都市,[],B0FFGPZD1H,[],"104.047424,30.678670",中国邮政储蓄银行24小时自助银行(花牌坊街营业所),[],[],四川省,[],[],2,[],金融保险服务;自动提款机;中国邮政储蓄银行ATM,160336
新下街193-205,双流区,[],[],3,成都市,[],B001C8OMKC,[],"104.088212,30.552215",中国邮政储蓄银行24小时自助银行(中和镇支行),B001C8OLWD,[],四川省,[],[],2,[],金融保险服务;自动提款机;中国邮政储蓄银行ATM,160336
迎宾路369号,都江堰市,[],[],[],成都市,[],B0FFFODEB0,[],"103.644325,30.980080",中国邮政储蓄银行24小时自助银行(都江堰市支行),[],[],四川省,[],[],2,[],金融保险服务;自动提款机;中国邮政储蓄银行ATM,160336
广场路13附2,郫都区,[],[],[],成都市,[],B0HB3P7JT2,[],"103.942792,30.773642",中国邮政储蓄银行24小时自助银行(西华大学邮政储蓄所),[],[],四川省,[],[],2,[],金融保险服务;自动提款机;中国邮政储蓄银行ATM,160336
建设路53号附1-3胡同文文化音体商场,成华区,[],[],[],成都市,[],B0H6G93YTP,[],"104.100988,30.668200",中国邮政储蓄银行24小时自助银行(建设路支行),[],[],四川省,[],[],2,[],金融保险服务;自动提款机;中国邮政储蓄银行ATM,160336
银杏中街97正东方向130米,简阳市,[],[],[],成都市,[],B0GU7CFLM9,[],"104.456598,30.536099",中国邮政储蓄银行24小时自助银行(周家乡营业所),[],[],四川省,[],[],2,[],金融保险服务;自动提款机;中国邮政储蓄银行ATM,160336
九重路,崇州市,[],[],[],成都市,[],B0GD1RNJBJ,[],"103.540961,30.779564",中国邮政储蓄银行24小时自助银行(三郎镇营业所),[],[],四川省,[],[],2,[],金融保险服务;自动提款机;自动提款机,160300
川大路东延线,双流区,[],[],[],成都市,[],B0G3M5YWO3,[],"104.020295,30.563697",中国邮政储蓄银行24小时自助银行,[],[],四川省,[],[],2,[],金融保险服务;自动提款机;中国邮政储蓄银行ATM,160336
[],简阳市,[],[],[],成都市,[],B0G3HC7Q89,[],"104.532677,30.423435",中国邮政储蓄银行24小时自助银行,[],[],四川省,[],[],2,[],金融保险服务;自动提款机;中国邮政储蓄银行ATM,160336
都江堰大道192号,都江堰市,[],[],[],成都市,[],B0G3FLNP75,[],"103.642985,30.988627",中国邮政储蓄银行24小时自助银行(江都庭院营业所),[],[],四川省,[],[],2,[],金融保险服务;自动提款机;中国邮政储蓄银行ATM,160336
[],大邑县,[],[],[],成都市,[],B0G3D527AI,[],"103.715847,30.451217",中国邮政储蓄银行24小时自助银行(韩场营业所),[],[],四川省,[],[],2,[],金融保险服务;自动提款机;中国邮政储蓄银行ATM,160336
[],简阳市,[],[],[],成都市,[],B0G39ZMSJ8,[],"104.415392,30.475761",中国邮政储蓄银行24小时自助银行,[],[],四川省,[],[],2,[],金融保险服务;自动提款机;中国邮政储蓄银行ATM,160336
[],双流区,[],[],[],成都市,[],B0G397R0IL,[],"104.149856,30.352089",中国邮政储蓄银行24小时自助银行(永兴镇营业所),[],[],四川省,[],[],2,[],金融保险服务;自动提款机;中国邮政储蓄银行ATM,160336
[],简阳市,[],[],[],成都市,[],B0G397P24K,[],"104.481368,30.223733",中国邮政储蓄银行24小时自助银行(雷家乡营业所),[],[],四川省,[],[],2,[],金融保险服务;自动提款机;中国邮政储蓄银行ATM,160336
金龙山庄南路,简阳市,[],[],[],成都市,[],B0G35UUE2E,[],"104.419942,30.476468",中国邮政储蓄银行24小时自助银行,[],[],四川省,[],[],2,[],金融保险服务;自动提款机;中国邮政储蓄银行ATM,160336
黎园街,简阳市,[],[],[],成都市,[],B0G2A9BDIS,[],"104.324511,30.396934",中国邮政储蓄银行24小时自助银行,[],[],四川省,[],[],2,[],金融保险服务;自动提款机;中国邮政储蓄银行ATM,160336
永宁北路200,郫都区,[],[],[],成都市,[],B0G1ZX5BXB,[],"103.918922,30.872647",中国邮政储蓄银行24小时自助银行(三道堰镇营业所),[],[],四川省,[],[],2,[],金融保险服务;自动提款机;中国邮政储蓄银行ATM,160336
长城路二段308号附近,双流区,[],[],[],成都市,[],B0G1ASZNJX,[],"103.991223,30.546274",中国邮政储蓄银行24小时自助银行(文星营业所),[],[],四川省,[],[],2,[],金融保险服务;自动提款机;中国邮政储蓄银行ATM,160336
云中街,简阳市,[],[],[],成都市,[],B0G101GWPX,[],"104.808034,30.420104",中国邮政储蓄银行24小时自助银行(云龙镇营业所),[],[],四川省,[],[],2,[],金融保险服务;自动提款机;中国邮政储蓄银行ATM,160336
迎宾大道225正东方向5米,大邑县,[],[],[],成都市,[],B0G0KRT9TA,[],"103.453406,30.618166",中国邮政储蓄银行24小时自助银行(悦来镇营业所),[],[],四川省,[],[],2,[],金融保险服务;自动提款机;中国邮政储蓄银行ATM,160336
人民路,简阳市,[],[],[],成都市,[],B0FFM9K24H,[],"104.546983,30.410101",中国邮政储蓄银行24小时自助银行(人民路支行),[],[],四川省,[],[],2,[],金融保险服务;自动提款机;中国邮政储蓄银行ATM,160336
华林三路63号,成华区,[],[],[],成都市,[],B0FFM3411O,[],"104.143317,30.682086",中国邮政储蓄银行24小时自助银行,[],[],四川省,[],[],2,[],金融保险服务;自动提款机;中国邮政储蓄银行ATM,160336
火车站街233号,简阳市,[],[],[],成都市,[],B0FFLF9OKJ,[],"104.555750,30.379719",中国邮政储蓄银行24小时自助银行(白塔路营业所),[],[],四川省,[],[],2,[],金融保险服务;自动提款机;中国邮政储蓄银行ATM,160336
蜀龙大道中段1088号万千城1层,新都区,[],[],[],成都市,[],B0FFLF9N81,[],"104.178572,30.819826",中国邮政储蓄银行24小时自助银行(石油学院营业所),[],[],四川省,[],[],2,[],金融保险服务;自动提款机;中国邮政储蓄银行ATM,160336
蜀州南路,崇州市,[],[],[],成都市,[],B0FFLCIIKO,[],"103.669639,30.619395",中国邮政储蓄银行24小时自助银行(蜀州南路营业所),[],[],四川省,[],[],2,[],金融保险服务;自动提款机;中国邮政储蓄银行ATM,160336
鲸龙路284附近,龙泉驿区,[],[],[],成都市,[],B0FFL82MYC,[],"104.245175,30.533119",中国邮政储蓄银行ATM,[],[],四川省,[],[],2,[],金融保险服务;自动提款机;中国邮政储蓄银行ATM,160336
车站街4号,邛崃市,[],[],[],成都市,[],B0FFL2OXN8,[],"103.300583,30.449459",中国邮政储蓄银行24小时自助银行(水口镇营业所),[],[],四川省,[],[],2,[],金融保险服务;自动提款机;中国邮政储蓄银行ATM,160336
五块石1幢附近,金牛区,[],[],[],成都市,[],B0FFL2LM1G,[],"104.064787,30.708085",中国邮政储蓄银行24小时自助银行,[],[],四川省,[],[],2,[],金融保险服务;自动提款机;中国邮政储蓄银行ATM,160336
蟠江路正西方向50米,彭州市,[],[],[],成都市,[],B0FFL2C1XK,[],"103.780063,31.101127",中国邮政储蓄银行24小时自助银行(磁峰营业所),[],[],四川省,[],[],2,[],金融保险服务;自动提款机;中国邮政储蓄银行ATM,160336
广兴镇保庵街33号附近,金堂县,[],[],[],成都市,[],B0FFL1H4YD,[],"104.792261,30.627585",中国邮政储蓄银行24小时自助银行(广兴营业所),[],[],四川省,[],[],2,[],金融保险服务;自动提款机;中国邮政储蓄银行ATM,160336
花园街399北80米,新津区,[],[],[],成都市,[],B0FFKZF1ZT,[],"103.878103,30.497077",中国邮政储蓄银行24小时自助银行(花源镇营业所),[],[],四川省,[],[],2,[],金融保险服务;自动提款机;中国邮政储蓄银行ATM,160336
五津东路54号附近,新津区,[],[],[],成都市,[],B0FFKZ2ZNA,[],"103.819009,30.413941",中国邮政储蓄银行24小时自助银行(新津区支行),[],[],四川省,[],[],2,[],金融保险服务;自动提款机;中国邮政储蓄银行ATM,160336
育英路414附近,新都区,[],[],[],成都市,[],B0FFKYT42V,[],"104.183796,30.809144",中国邮政储蓄银行24小时自助银行(新都区支行),[],[],四川省,[],[],2,[],金融保险服务;自动提款机;中国邮政储蓄银行ATM,160336
柳油街28号附近,都江堰市,[],[],[],成都市,[],B0FFKYT33Q,[],"103.667774,30.786169",中国邮政储蓄银行24小时自助银行,[],[],四川省,[],[],2,[],金融保险服务;自动提款机;中国邮政储蓄银行ATM,160336
红鹤村杨家街附近,简阳市,[],[],[],成都市,[],B0FFKYRYLB,[],"104.598620,30.276969",中国邮政储蓄银行24小时自助银行(杨家营业所),[],[],四川省,[],[],2,[],金融保险服务;自动提款机;中国邮政储蓄银行ATM,160336
中心街6号附近,简阳市,[],[],[],成都市,[],B0FFKYRY6D,[],"104.494197,30.315589",中国邮政储蓄银行24小时自助银行(石板凳镇营业所),[],[],四川省,[],[],2,[],金融保险服务;自动提款机;中国邮政储蓄银行ATM,160336
兴园5路173号附近,新津区,[],[],[],成都市,[],B0FFKYQZJX,[],"103.806236,30.425617",中国邮政储蓄银行24小时自助银行(兴园5路营业所),[],[],四川省,[],[],2,[],金融保险服务;自动提款机;中国邮政储蓄银行ATM,160336
大成街67号附近,新都区,[],[],[],成都市,[],B0FFKYQ140,[],"104.099099,30.891205",中国邮政储蓄银行24小时自助银行(新民营业所),[],[],四川省,[],[],2,[],金融保险服务;自动提款机;中国邮政储蓄银行ATM,160336
新果街131-133号附近,邛崃市,[],[],[],成都市,[],B0FFKYO4DT,[],"103.651403,30.347551",中国邮政储蓄银行24小时自助银行(兴贤支行),[],[],四川省,[],[],2,[],金融保险服务;自动提款机;中国邮政储蓄银行ATM,160336
高埂街道东街附近,邛崃市,[],[],[],成都市,[],B0FFKYO486,[],"103.662109,30.433605",中国邮政储蓄银行24小时自助银行,[],[],四川省,[],[],2,[],金融保险服务;自动提款机;中国邮政储蓄银行ATM,160336
幸福路与重庆路交叉口东北50米附近,崇州市,[],[],[],成都市,[],B0FFKYLEE3,[],"103.609467,30.614569",中国邮政储蓄银行24小时自助银行(王场镇营业所),[],[],四川省,[],[],2,[],金融保险服务;自动提款机;中国邮政储蓄银行ATM,160336
隆裕街297号附近,彭州市,[],[],[],成都市,[],B0FFKYKAVX,[],"103.867531,31.046989",中国邮政储蓄银行24小时自助银行(隆丰街道营业所),[],[],四川省,[],[],2,[],金融保险服务;自动提款机;中国邮政储蓄银行ATM,160336
兴石路235号附近,金堂县,[],[],[],成都市,[],B0FFKYKAHJ,[],"104.639271,30.828661",中国邮政储蓄银行24小时自助银行(福兴营业所),[],[],四川省,[],[],2,[],金融保险服务;自动提款机;中国邮政储蓄银行ATM,160336
上正街3号附近,金堂县,[],[],[],成都市,[],B0FFKYKA3B,[],"104.638154,30.760297",中国邮政储蓄银行24小时自助银行,[],[],四川省,[],[],2,[],金融保险服务;自动提款机;中国邮政储蓄银行ATM,160336
南郡西街37号附近,彭州市,[],[],[],成都市,[],B0FFKYGO88,[],"103.850982,31.071897",中国邮政储蓄银行24小时自助银行(丹景山镇营业所),[],[],四川省,[],[],2,[],金融保险服务;自动提款机;中国邮政储蓄银行ATM,160336
白果镇莲花街9-11号,金堂县,[],[],[],成都市,[],B0FFKY8A7M,[],"104.541931,30.667284",中国邮政储蓄银行24小时自助银行(白果营业所),[],[],四川省,[],[],2,[],金融保险服务;自动提款机;中国邮政储蓄银行ATM,160336
寿高路附近,蒲江县,[],[],[],成都市,[],B0FFKXV91P,[],"103.503836,30.299068",中国邮政储蓄银行24小时自助银行(西来镇营业所),[],[],四川省,[],[],2,[],金融保险服务;自动提款机;中国邮政储蓄银行ATM,160336
金马街105附近,都江堰市,[],[],[],成都市,[],B0FFKXNY3Q,[],"103.760209,30.973841",中国邮政储蓄银行24小时自助银行(天马营业所),[],[],四川省,[],[],2,[],金融保险服务;自动提款机;中国邮政储蓄银行ATM,160336
柴市下街87号附近,简阳市,[],[],[],成都市,[],B0FFKXIEWV,[],"104.640438,30.428637",中国邮政储蓄银行24小时自助银行(平武镇营业所),[],[],四川省,[],[],2,[],金融保险服务;自动提款机;中国邮政储蓄银行ATM,160336
普新街36-38号,简阳市,[],[],[],成都市,[],B0FFKXHLYP,[],"104.666849,30.405829",中国邮政储蓄银行24小时自助银行(普安乡营业所),[],[],四川省,[],[],2,[],金融保险服务;自动提款机;中国邮政储蓄银行ATM,160336
土桥镇上正街16-18号附近,金堂县,[],[],[],成都市,[],B0FFKXHL3H,[],"104.838464,30.522228",中国邮政储蓄银行24小时自助银行(土桥镇营业所),[],[],四川省,[],[],2,[],金融保险服务;自动提款机;中国邮政储蓄银行ATM,160336
富民街34号附近,简阳市,[],[],[],成都市,[],B0FFKXGOSB,[],"104.445094,30.269384",中国邮政储蓄银行24小时自助银行(芦葭镇营业所),[],[],四川省,[],[],2,[],金融保险服务;自动提款机;中国邮政储蓄银行ATM,160336
福兴街105号附近,简阳市,[],[],[],成都市,[],B0FFKXGNQF,[],"104.378044,30.278550",中国邮政储蓄银行24小时自助银行(福田乡营业所),[],[],四川省,[],[],2,[],金融保险服务;自动提款机;中国邮政储蓄银行ATM,160336
螺简路附近,简阳市,[],[],[],成都市,[],B0FFKXFMBI,[],"104.853548,30.485086",中国邮政储蓄银行24小时自助银行(五合乡营业所),[],[],四川省,[],[],2,[],金融保险服务;自动提款机;中国邮政储蓄银行ATM,160336
新源街附近,简阳市,[],[],[],成都市,[],B0FFKXCI9K,[],"104.531129,30.262230",中国邮政储蓄银行24小时自助银行(江源镇营业所),[],[],四川省,[],[],2,[],金融保险服务;自动提款机;中国邮政储蓄银行ATM,160336
永安街,简阳市,[],[],[],成都市,[],B0FFKXCHTF,[],"104.463802,30.184110",中国邮政储蓄银行24小时自助银行(望水乡营业所),[],[],四川省,[],[],2,[],金融保险服务;自动提款机;中国邮政储蓄银行ATM,160336
芙蓉街66号附近,简阳市,[],[],[],成都市,[],B0FFKX2X0D,[],"104.503041,30.493896",中国邮政储蓄银行24小时自助银行(养马街道支行),[],[],四川省,[],[],2,[],金融保险服务;自动提款机;中国邮政储蓄银行ATM,160336
八角庙北街2-4号正南方向40米,简阳市,[],[],[],成都市,[],B0FFKWX1U5,[],"104.810473,30.342732",中国邮政储蓄银行24小时自助银行(平息乡营业所),[],[],四川省,[],[],2,[],金融保险服务;自动提款机;中国邮政储蓄银行ATM,160336
草金路南段215号附近,武侯区,[],[],[],成都市,[],B0FFKWJ55L,[],"103.971653,30.610072",中国邮政储蓄银行ATM,[],[],四川省,[],[],2,[],金融保险服务;自动提款机;中国邮政储蓄银行ATM,160336
一品天下大街1005号,金牛区,[],[],[],成都市,[],B0FFKW1GZN,[],"104.040700,30.702482",中国邮政储蓄银行24小时自助银行(城墙路营业所),[],[],四川省,[],[],2,[],金融保险服务;自动提款机;中国邮政储蓄银行ATM,160336
中学路4附1,新津区,[],[],[],成都市,[],B0FFKP105I,[],"103.854645,30.444221",中国邮政储蓄银行24小时自助银行,[],[],四川省,[],[],2,[],金融保险服务;自动提款机;中国邮政储蓄银行ATM,160336
新龙路6号-附1号附近,金堂县,[],[],[],成都市,[],B0FFKO6X7V,[],"104.434326,30.847908",中国邮政储蓄银行24小时自助银行(韩滩营业所),[],[],四川省,[],[],2,[],金融保险服务;自动提款机;中国邮政储蓄银行ATM,160336
中心南街6-8,崇州市,[],[],[],成都市,[],B0FFKNKEJL,[],"103.748112,30.661814",中国邮政储蓄银行24小时自助银行(羊马镇营业所),[],[],四川省,[],[],2,[],金融保险服务;自动提款机;中国邮政储蓄银行ATM,160336
学府路北段西150米,温江区,[],[],[],成都市,[],B0FFK8FFLY,[],"103.810413,30.687274",中国邮政储蓄银行24小时自助银行,[],[],四川省,[],[],2,[],金融保险服务;自动提款机;中国邮政储蓄银行ATM,160336
新蒲路与水井街交叉口西50米,蒲江县,[],[],[],成都市,[],B0FFK7NWMY,[],"103.558368,30.225245",中国邮政储蓄银行24小时自助银行(天华镇支行),[],[],四川省,[],[],2,[],金融保险服务;自动提款机;中国邮政储蓄银行ATM,160336
北街39附1,蒲江县,[],[],[],成都市,[],B0FFK28ZG6,[],"103.373824,30.290597",中国邮政储蓄银行24小时自助银行(大塘镇营业所),[],[],四川省,[],[],2,[],金融保险服务;自动提款机;中国邮政储蓄银行ATM,160336
商业街与千悦街交叉路口北侧(安仁古镇),大邑县,[],[],[],成都市,[],B0FFK20EAZ,[],"103.617367,30.513423",中国邮政储蓄银行24小时自助银行(安仁镇营业所),[],[],四川省,[],[],2,[],金融保险服务;自动提款机;中国邮政储蓄银行ATM,160336
兴盛街137号,新津区,[],[],[],成都市,[],B0FFK1VHNM,[],"103.811045,30.484812",中国邮政储蓄银行24小时自助银行(兴义邮政所),[],[],四川省,[],[],2,[],金融保险服务;自动提款机;中国邮政储蓄银行ATM,160336
永定村7组202,郫都区,[],[],[],成都市,[],B0FFK1TL2R,[],"103.962460,30.811768",中国邮政储蓄银行ATM,[],[],四川省,[],[],2,[],金融保险服务;自动提款机;中国邮政储蓄银行ATM,160336
长荣街220号附近,简阳市,[],[],[],成都市,[],B0FFK0B2BP,[],"104.562769,30.389401",中国邮政储蓄银行24小时自助银行(东溪街道营业所),[],[],四川省,[],[],2,[],金融保险服务;自动提款机;中国邮政储蓄银行ATM,160336
文井中路169号,崇州市,[],[],[],成都市,[],B0FFJJ5W0H,[],"103.526085,30.742239",中国邮政储蓄银行24小时自助银行(怀远镇营业所),[],[],四川省,[],[],2,[],金融保险服务;自动提款机;中国邮政储蓄银行ATM,160336
交通街164号,邛崃市,[],[],[],成都市,[],B0FFJIW5JT,[],"103.459037,30.476819",中国邮政储蓄银行24小时自助银行(桑园镇营业所),[],[],四川省,[],[],2,[],金融保险服务;自动提款机;中国邮政储蓄银行ATM,160336
永丰路318号附近,邛崃市,[],[],[],成都市,[],B0FFIUXQQD,[],"103.465707,30.416515",中国邮政储蓄银行24小时自助银行,[],[],四川省,[],[],2,[],金融保险服务;自动提款机;中国邮政储蓄银行ATM,160336
益州大道中段152号附近,武侯区,[],[],[],成都市,[],B0FFHCBKJ1,[],"104.055820,30.542615",中国邮政储蓄银行24小时自助银行(天府支行),[],[],四川省,[],[],2,[],金融保险服务;自动提款机;中国邮政储蓄银行ATM,160336
同安镇锦绣路174号附41号-43号,龙泉驿区,[],[],[],成都市,[],B0FFFGMXW1,[],"104.303112,30.595902",中国邮政储蓄银行24小时自助银行(同安邮局营业部),[],[],四川省,[],[],2,[],金融保险服务;自动提款机;中国邮政储蓄银行ATM,160336
青城路406号(岷山水都商厦A幢),都江堰市,[],[],[],成都市,[],B001C91YOT,[],"103.620435,30.978639",中国邮政储蓄银行24小时自助银行(青城路营业所),[],[],四川省,[],[],2,[],金融保险服务;自动提款机;中国邮政储蓄银行ATM,160336
走马河街278-306号,都江堰市,[],[],3,成都市,[],B001C8OOEY,[],"103.625439,30.988528",中国邮政储蓄银行24小时自助银行(都江堰江安路储蓄所),B001C8OOEW,[],四川省,[],[],2,[],金融保险服务;自动提款机;中国邮政储蓄银行ATM,160336
平安路一段29-33,青白江区,[],[],3,成都市,[],B001C8OPA2,[],"104.394745,30.748806",中国邮政储蓄银行24小时自助银行(清泉镇营业所),B001C8OO8Z,[],四川省,[],[],2,[],金融保险服务;自动提款机;中国邮政储蓄银行ATM,160336
富民路南段22-28号,大邑县,[],[],3,成都市,[],B001C8NRO2,[],"103.527363,30.581341",中国邮政储蓄银行24小时自助银行(富民路支行),B001C7UHBW,[],四川省,[],[],2,[],金融保险服务;自动提款机;中国邮政储蓄银行ATM,160336
正西街260号附近,新都区,[],[],3,成都市,[],B0FFGONVZW,[],"104.018015,30.874087",中国邮政储蓄银行24小时自助银行(新繁街道支行),B001C7TLJP,[],四川省,[],[],2,[],金融保险服务;自动提款机;中国邮政储蓄银行ATM,160336
十二桥路23号附1号,金牛区,[],[],3,成都市,[],B001C7WG6G,[],"104.045221,30.664086",中国邮政储蓄银行24小时自助银行(十二桥路营业所),B001C92D7D,[],四川省,[],[],2,[],金融保险服务;自动提款机;中国邮政储蓄银行ATM,160336
都江堰大道265号,都江堰市,[],[],3,成都市,[],B001C80K0M,[],"103.649266,30.988039",中国邮政储蓄银行24小时自助银行(都江堰市支行),B001C80JOM,[],四川省,[],[],2,[],金融保险服务;自动提款机;中国邮政储蓄银行ATM,160336
大塘镇官塘社区南街中国邮政,蒲江县,[],[],[],成都市,[],B0FFH7Q6FE,[],"103.374639,30.287768",中国邮政储蓄银行24小时自助银行,[],[],四川省,[],[],2,[],金融保险服务;自动提款机;中国邮政储蓄银行ATM,160336
大北街47号,蒲江县,[],[],3,成都市,[],B001C8MU10,[],"103.507294,30.198015",中国邮政储蓄银行24小时自助银行(浦江县支行),B001C7WSCH,[],四川省,[],[],2,[],金融保险服务;自动提款机;中国邮政储蓄银行ATM,160336
锦绣路176号阳光商业世界,龙泉驿区,[],[],202,成都市,[],B0FFFPS0EF,[],"104.308418,30.604958",中国邮政储蓄银行ATM(锦星路),B001C80TEZ,[],四川省,[],[],2,[],金融保险服务;自动提款机;中国邮政储蓄银行ATM,160336
双九路二段188号,双流区,[],[],[],成都市,[],B0FFGIEPIR,[],"103.912428,30.619914",中国邮政储蓄银行24小时自助银行(九江支行),[],[],四川省,[],[],2,[],金融保险服务;自动提款机;中国邮政储蓄银行ATM,160336
沙渠街道钟音街20号,大邑县,[],[],[],成都市,[],B0FFJE0J44,[],"103.692714,30.524425",中国邮政储蓄银行24小时自助银行(沙渠街道营业所),[],[],四川省,[],[],2,[],金融保险服务;自动提款机;中国邮政储蓄银行ATM,160336
甲子东道100号,大邑县,[],[],[],成都市,[],B0FFGIINOL,[],"103.533523,30.580613",中国邮政储蓄银行24小时自助银行(大邑县支行),[],[],四川省,[],[],2,[],金融保险服务;自动提款机;中国邮政储蓄银行ATM,160336
东滨路南段江水湾,简阳市,[],[],[],成都市,[],B0FFHJWS42,[],"104.549520,30.400486",中国邮政储蓄银行24小时自助银行(东滨路支行),[],[],四川省,[],[],2,[],金融保险服务;自动提款机;中国邮政储蓄银行ATM,160336
东大街12号附4号,温江区,[],[],3,成都市,[],B001C7U591,[],"103.836662,30.698288",中国邮政储蓄银行24小时自助银行(温江区支行),B001C7TLJU,[],四川省,[],[],2,[],金融保险服务;自动提款机;中国邮政储蓄银行ATM,160336
仁和街54附近,郫都区,[],[],[],成都市,[],B0FFG870YZ,[],"103.980553,30.817438",中国邮政储蓄银行(仁和街支行),[],[],四川省,[],[],2,[],金融保险服务;银行;中国邮政储蓄银行,160139
安居路与翔凤路交叉口北50米,都江堰市,[],[],[],成都市,[],B0FFGLXE9D,[],"103.643877,30.971122",中国邮政储蓄银行24小时自助银行(翔凤路营业所),[],[],四川省,[],[],2,[],金融保险服务;自动提款机;中国邮政储蓄银行ATM,160336
成宏路2号附1-2,成华区,[],[],[],成都市,[],B0FFF00BHG,[],"104.167485,30.692831",中国邮政储蓄银行24小时自助银行(龙潭寺营业所),[],[],四川省,[],[],2,[],金融保险服务;自动提款机;中国邮政储蓄银行ATM,160336
学院路与星光大道交叉口西50米,郫都区,[],[],[],成都市,[],B0FFFYRG4N,[],"103.984184,30.824492",中国邮政24小时自助银行,[],[],四川省,[],[],2,[],金融保险服务;自动提款机;中国邮政储蓄银行ATM,160336
"淮口街道现代大道1,3,5,7,9号",金堂县,[],[],3,成都市,[],B001C8N1KN,[],"104.548627,30.714491",中国邮政储蓄银行24小时自助银行(淮口镇支行),B001C8MKXC,[],四川省,[],[],2,[],金融保险服务;自动提款机;中国邮政储蓄银行ATM,160336
前新街15号附近,简阳市,[],[],[],成都市,[],B0FFG102WV,[],"104.640288,30.342102",中国邮政储蓄银行24小时自助银行(平泉镇营业所),[],[],四川省,[],[],2,[],金融保险服务;自动提款机;中国邮政储蓄银行ATM,160336
