address,adname,biz_ext,biz_type,childtype,cityname,distance,id,importance,location,name,parent,parking_type,photos,pname,poiweight,shopid,shopinfo,tel,type,typecode
[],武侯区,[],[],[],成都市,[],B0G1HDKK73,[],"103.983132,30.614302",四川天府银行,[],,[],四川省,[],[],2,[],金融保险服务;银行;银行,160100
团三路与学院街交叉口北150米,郫都区,[],[],202,成都市,[],B0FFK7SEDQ,[],"103.981378,30.820876",四川天府银行,B0FFGLCV40,,[],四川省,[],[],2,[],金融保险服务;金融保险服务机构;金融保险机构,160000
东大街下东大街段258号,锦江区,[],[],[],成都市,[],B0FFHPFCKU,[],"104.084116,30.649275",四川天府银行(成都锦江支行),[],,[],四川省,[],[],2,028-86660303;028-86661515,金融保险服务;银行;银行,160100
双福二路39号附10号,成华区,[],[],[],成都市,[],B0FFK8GYPR,[],"104.118431,30.644987",四川天府银行(成都万年场支行),[],,[],四川省,[],[],2,028-63857673,金融保险服务;银行;银行,160100
天府二街138号-16,武侯区,[],[],[],成都市,[],B0FFF006BE,[],"104.066750,30.551788",四川天府银行(世纪城支行),[],,[],四川省,[],[],2,028-65178181;028-65193380;028-65187070,金融保险服务;银行;银行,160100
人民南路四段27号商鼎国际1栋1号,武侯区,[],[],202,成都市,[],B0FFHPFDLQ,[],"104.067727,30.618225",四川天府银行(成都高新支行),B0FFF2C17H,,[],四川省,[],[],2,028-85293388,金融保险服务;银行;银行,160100
武侯大道铁佛段289号亿臣国际1楼,武侯区,[],[],[],成都市,[],B0FFIKMNEJ,[],"103.988020,30.602680",四川天府银行(簇桥支行),[],,[],四川省,[],[],2,028-85373355,金融保险服务;银行;银行,160100
洗面桥街35-附2-3号附近,武侯区,[],[],[],成都市,[],B0FFI9C7Z2,[],"104.055946,30.640800",四川天府银行(武侯支行),[],,[],四川省,[],[],2,[],金融保险服务;自动提款机;中国邮政储蓄银行ATM|金融保险服务;银行;银行,160336|160100
白河路四段1-11号,双流区,[],[],[],成都市,[],B0FFIITGAD,[],"103.910152,30.567728",四川天府银行(双流支行),[],,[],四川省,[],[],2,028-61913315,金融保险服务;银行;银行,160100
永和路20-24号,温江区,[],[],[],成都市,[],B0FFIDWZIV,[],"103.854551,30.683435",四川天府银行(成都温江支行),[],,[],四川省,[],[],2,028-82725050,金融保险服务;银行;银行,160100
天久南巷205号附169号,武侯区,[],[],[],成都市,[],B0FFIQXZ36,[],"104.073340,30.592131",四川天府银行(成都天府长城社区支行),[],,[],四川省,[],[],2,028-85328468,金融保险服务;银行;银行,160100
北站东一路万达广场A组团肖家村三巷65号,金牛区,[],[],[],成都市,[],B0FFI6OITW,[],"104.075764,30.690101",四川天府银行(成都金牛支行),[],,[],四川省,[],[],2,028-65027337;028-65027351,金融保险服务;银行;银行,160100
锦华路一段79号汇丽汀香1层,锦江区,[],[],[],成都市,[],B0FFI89KBE,[],"104.098783,30.620993",四川天府银行(锦华支行),[],,[],四川省,[],[],2,028-86951101,金融保险服务;银行;银行,160100
人民中路三段4号附5-10,青羊区,[],[],[],成都市,[],B0FFHPFDLJ,[],"104.068405,30.673473",四川天府银行(成都江汉支行),[],,[],四川省,[],[],2,028-86267788,金融保险服务;银行;银行,160100
晋阳街道晋吉南路36号晶楠天地一楼,武侯区,[],[],[],成都市,[],B0FFJ8PACE,[],"104.007625,30.639217",四川天府银行(双楠支行),[],,[],四川省,[],[],2,028-85544520,金融保险服务;银行;银行,160100
金府路799号金府国际大厦1层,金牛区,[],[],[],成都市,[],B0FFIQZSCA,[],"104.042984,30.717820",四川天府银行(金府支行),[],,[],四川省,[],[],2,028-65350101,金融保险服务;银行;银行,160100
华金大道二段406号1栋附4号,青白江区,[],[],[],成都市,[],B0FFF4X57L,[],"104.256721,30.883349",四川天府银行(青白江支行),[],,[],四川省,[],[],2,028-83686060;028-83692200,金融保险服务;银行;银行,160100
万东路413号,双流区,[],[],[],成都市,[],B0G0OZTKBM,[],"104.090490,30.490513",四川天府银行(成都万东路支行),[],,[],四川省,[],[],2,[],金融保险服务;银行;银行,160100
猛追湾街118号,成华区,[],[],[],成都市,[],B0FFIQYDPY,[],"104.096360,30.662936",四川天府银行(成都成华支行),[],,[],四川省,[],[],2,028-62313537;028-62313720,金融保险服务;银行;银行,160100
惠丰路106号,新津区,[],[],[],成都市,[],B0FFHPFDC0,[],"103.806971,30.414793",四川天府银行(新津支行),[],,[],四川省,[],[],2,028-82530008,金融保险服务;银行;银行,160100
蜀信东路5号龙湖・弗莱明戈二期,郫都区,[],[],[],成都市,[],B0FFHPFDMO,[],"103.894643,30.795528",四川天府银行(成都郫都支行),[],,[],四川省,[],[],2,028-65105533,金融保险服务;银行;银行,160100
金沙路与金荣巷交叉口北50米,金牛区,[],[],[],成都市,[],B0FFICI7ZX,[],"104.044431,30.687942",四川天府银行(成都金沙路社区支行),[],,[],四川省,[],[],2,028-87624131,金融保险服务;银行;银行,160100
瑞祥路140号,双流区,[],[],[],成都市,[],B0FFMHTCQ1,[],"104.036727,30.481545",四川天府银行(成都祥瑞路支行),[],,[],四川省,[],[],2,[],金融保险服务;银行;银行,160100
北泉路930-932号,龙泉驿区,[],[],[],成都市,[],B0GDUS610R,[],"104.241340,30.571427",四川天府银行(龙泉驿支行),[],,[],四川省,[],[],2,[],金融保险服务;银行;银行,160100
赵家寺路60号附6-7号,新都区,[],[],[],成都市,[],B0FFIPDN9V,[],"104.067315,30.763831",四川天府银行(大丰小微支行),[],,[],四川省,[],[],2,[],金融保险服务;银行;银行,160100
马超西路1号(新城花园旁),新都区,[],[],[],成都市,[],B0FFIL36LW,[],"104.172415,30.810851",四川天府银行(成都新都支行),[],,[],四川省,[],[],2,028-83977225,金融保险服务;银行;银行,160100
青羊大道217号附202-203、219号附2,青羊区,[],[],[],成都市,[],B0G19S9BB4,[],"104.012095,30.677367",四川天府银行(成都分行营业部),[],,[],四川省,[],[],2,028-66666601,金融保险服务;银行;银行,160100
羊子山西路19号附6-2号,成华区,[],[],[],成都市,[],B0FFHPFD99,[],"104.097564,30.706360",四川天府银行(洪家坡社区支行),[],,[],四川省,[],[],2,028-86113929,金融保险服务;银行;银行,160100
都江堰大道277-279号,都江堰市,[],[],[],成都市,[],B0FFHPFDMH,[],"103.649849,30.987934",四川天府银行(都江堰支行),[],,[],四川省,[],[],2,028-89738806,金融保险服务;银行;银行,160100
光华东三路412号,青羊区,[],[],[],成都市,[],B0FFI6RN71,[],"103.964122,30.672123",四川天府银行(成都光华支行),[],,[],四川省,[],[],2,028-86648083;028-86648038,金融保险服务;银行;银行,160100
新怡路47号,成华区,[],[],[],成都市,[],B0FFILV69Z,[],"104.105457,30.685659",四川天府银行(浅水半岛社区支行),[],,[],四川省,[],[],2,028-83242163,金融保险服务;银行;银行,160100
悦和二街163-169号(龙湖九里晴川南门),双流区,[],[],[],成都市,[],B0FFKLWHCO,[],"104.076729,30.506618",四川天府银行(成都自贸区支行),[],,[],四川省,[],[],2,028-60633015;028-60633017,金融保险服务;金融保险服务机构;金融保险机构,160000
郫筒镇蜀信东路5号,郫都区,[],[],[],成都市,[],B0FFIQZSLL,[],"103.894556,30.795491",四川天府银行24小时自助银行(郫都支行),[],,[],四川省,[],[],2,[],金融保险服务;自动提款机;自动提款机,160300
肖家村三巷63-67,金牛区,[],[],[],成都市,[],B0FFIQZSCB,[],"104.075793,30.690096",四川天府银行24小时自助银行(金牛支行),[],,[],四川省,[],[],2,[],金融保险服务;自动提款机;自动提款机,160300
天久南巷205号附169号,武侯区,[],[],[],成都市,[],B0FFIQXNXI,[],"104.073000,30.592138",四川天府银行24小时自助银行(成都天府长城社区支行),[],,[],四川省,[],[],2,[],金融保险服务;自动提款机;自动提款机,160300
晋吉南路82号附近,武侯区,[],[],[],成都市,[],B0FFK24DD9,[],"104.007635,30.639104",四川天府银行24小时自助银行(双楠支行),[],,[],四川省,[],[],2,[],金融保险服务;自动提款机;自动提款机,160300
武侯大道铁佛段金履国际c座1层,武侯区,[],[],[],成都市,[],B0G2FS0DBG,[],"103.988036,30.602751",四川天府银行24小时自助银行(簇桥支行),[],,[],四川省,[],[],2,[],金融保险服务;自动提款机;自动提款机,160300
智达二路1185号,武侯区,[],[],[],成都市,[],B0GR4CHPCJ,[],"103.983082,30.614386",四川天府银行西派城小微支行,[],,[],四川省,[],[],2,[],金融保险服务;银行;银行,160100
天府二街138号蜀都中心2号楼1层,武侯区,[],[],202,成都市,[],B0FFHPFDMF,[],"104.066955,30.551917",四川天府银行24小时自助银行(成都世纪城支行),B0FFFODH9Z,,[],四川省,[],[],2,[],金融保险服务;自动提款机;自动提款机,160300
人民南路四段27商鼎国际1栋1号,武侯区,[],[],202,成都市,[],B0FFIQZSLK,[],"104.067714,30.618466",四川天府银行24小时自助银行(成都高新支行),B0FFF2C17H,,[],四川省,[],[],2,[],金融保险服务;自动提款机;自动提款机,160300
人民中路三段4号附4-6,青羊区,[],[],[],成都市,[],B0FFIQXNVR,[],"104.068426,30.673493",四川天府银行24小时自助银行(江汉支行),[],,[],四川省,[],[],2,[],金融保险服务;自动提款机;自动提款机,160300
金府路799号,金牛区,[],[],[],成都市,[],B0FFHPFDLL,[],"104.042924,30.717851",四川天府银行24小时自助银行(金府支行),[],,[],四川省,[],[],2,[],金融保险服务;自动提款机;自动提款机,160300
光华东三路412号,青羊区,[],[],[],成都市,[],B0FFIAVWCG,[],"103.964093,30.672137",四川天府银行24小时自助银行(成都光华支行),[],,[],四川省,[],[],2,[],金融保险服务;自动提款机;自动提款机,160300
都江堰大道277-279号,都江堰市,[],[],[],成都市,[],B0FFHPFDMI,[],"103.649832,30.987906",四川天府银行24小时自助银行(都江堰支行),[],,[],四川省,[],[],2,[],金融保险服务;自动提款机;自动提款机,160300
学院街13附近,郫都区,[],[],[],成都市,[],B0FFKWYNE1,[],"103.981361,30.820939",四川天府银行24小时自助银行(团结镇小微支行),[],,[],四川省,[],[],2,[],金融保险服务;自动提款机;自动提款机,160300
汇川街172号,金牛区,[],[],[],成都市,[],B0FFIP1WXO,[],"103.981350,30.719868",四川天府银行24小时自助银行(中海国际社区支行),[],,[],四川省,[],[],2,[],金融保险服务;自动提款机;自动提款机,160300
金沙路与金荣巷交叉口西北50米,金牛区,[],[],[],成都市,[],B0FFIAYKTY,[],"104.044445,30.687956",四川天府银行24小时自助银行(金沙路社区支行),[],,[],四川省,[],[],2,[],金融保险服务;自动提款机;自动提款机,160300
猛追湾街118号,成华区,[],[],[],成都市,[],B0FFHPFDMA,[],"104.096385,30.662966",四川天府银行24小时自助银行(成都成华支行),[],,[],四川省,[],[],2,[],金融保险服务;自动提款机;自动提款机,160300
华金大道二段410-1号附近,青白江区,[],[],[],成都市,[],B0FFHPFCEY,[],"104.256636,30.883514",四川天府银行24小时自助银行(成都青白江支行),[],,[],四川省,[],[],2,[],金融保险服务;自动提款机;自动提款机,160300
永和路20-24号,温江区,[],[],[],成都市,[],B001C9535A,[],"103.854558,30.683463",四川天府银行24小时自助银行(成都温江区支行),[],,[],四川省,[],[],2,[],金融保险服务;自动提款机;自动提款机,160300
东升镇白河路四段1-11号,双流区,[],[],[],成都市,[],B0FFHPFDMX,[],"103.910036,30.567857",四川天府银行24小时自助银行(双流支行),[],,[],四川省,[],[],2,[],金融保险服务;自动提款机;自动提款机,160300
[],双流区,[],[],[],成都市,[],B0G31CXPKE,[],"104.036768,30.481597",四川天府银行24小时自助银行,[],,[],四川省,[],[],2,[],金融保险服务;自动提款机;自动提款机,160300
武侯大道铁佛段237号附近,武侯区,[],[],202,成都市,[],B0FFIL7DT9,[],"103.988011,30.602623",四川天府银行24小时自助银行,B001C8ZIIH,,[],四川省,[],[],2,[],金融保险服务;自动提款机;自动提款机,160300
青羊大道217号附202-203、219号附2,青羊区,[],[],[],成都市,[],B0FFIQZSKV,[],"104.012093,30.677399",四川天府银行24小时自助银行(成都分行营业部),[],,[],四川省,[],[],2,[],金融保险服务;自动提款机;自动提款机,160300
北泉路930号,龙泉驿区,[],[],[],成都市,[],B0GUZLFN70,[],"104.241330,30.571328",四川天府银行24小时自助银行(龙泉驿支行),[],,[],四川省,[],[],2,[],金融保险服务;自动提款机;自动提款机,160300
欣然一街47号,成华区,[],[],[],成都市,[],B0FFHPFCQP,[],"104.105614,30.685797",四川天府银行24小时自助银行(成都浅水半岛社区支行),[],,[],四川省,[],[],2,[],金融保险服务;自动提款机;自动提款机,160300
为民路与光荣北路交叉口东50米,金牛区,[],[],[],成都市,[],B0FFIQXOJ1,[],"104.047827,30.687244",四川天府银行24小时自助银行(一环路北一段),[],,[],四川省,[],[],2,[],金融保险服务;自动提款机;自动提款机,160300
天府大道中段天府三街19号新希望国际C座2楼,武侯区,[],[],202,成都市,[],B0FFHOCD7I,[],"104.068172,30.545835",四川新网银行(天府大道中段辅路),B001C8NW03,,[],四川省,[],[],2,028-88615000,金融保险服务;银行;银行,160100
洗面桥街35号附2-3号,武侯区,[],[],[],成都市,[],B0FFHPFDM5,[],"104.055919,30.640685",四川天府银行24小时自助银行服务(武侯支行),[],,[],四川省,[],[],2,[],金融保险服务;自动提款机;自动提款机,160300
锦华路一段79号汇丽汀香1层,锦江区,[],[],[],成都市,[],B0FFIQXNVQ,[],"104.098749,30.621029",四川天府银行24小时自助银行服务,[],,[],四川省,[],[],2,[],金融保险服务;自动提款机;自动提款机,160300
东大街下东大街段258号,锦江区,[],[],[],成都市,[],B0FFMDSYMO,[],"104.084058,30.649129",四川天府银行大厦,[],,[],四川省,[],[],0,[],商务住宅;楼宇;商务写字楼,120201
天府四街588号,武侯区,[],[],[],成都市,[],B0FFHCB9XG,[],"104.055467,30.542967",中国邮政储蓄银行(天府支行),[],,[],四川省,[],[],2,028-88619988;95580,金融保险服务;银行;中国邮政储蓄银行,160139
天府二街266号富润国际广场1层,武侯区,[],[],202,成都市,[],B0FFFOD93T,[],"104.061278,30.551754",中信银行(天府支行),B001C8R92A,,[],四川省,[],[],2,028-83167872,金融保险服务;银行;中信银行,160111
天府大道南段872号,双流区,[],[],[],成都市,[],B0FFFR5KB0,[],"104.069025,30.515013",华夏银行(成都天府新区支行),[],,[],四川省,[],[],2,028-84267967;028-84267601,金融保险服务;银行;华夏银行,160110
天府三街19号新希望国际大厦a座1楼,武侯区,[],[],202,成都市,[],B0FFFZC0GT,[],"104.068148,30.546175",渤海银行(天府新区支行),B001C8RGHG,,[],四川省,[],[],2,028-86772206,金融保险服务;银行;银行,160100
天府三街97号(近新希望),武侯区,[],[],[],成都市,[],B001C95DT3,[],"104.065370,30.546543",上海浦东发展银行(天府支行),[],,[],四川省,[],[],2,028-65292152,金融保险服务;银行;上海浦东发展银行,160115
天府二街266号四川富润国际广场1层,武侯区,[],[],202,成都市,[],B0FFFOD93R,[],"104.061259,30.551724",中信银行24小时自助银行(天府支行),B001C8R92A,,[],四川省,[],[],2,[],金融保险服务;自动提款机;中信银行ATM,160308
天府二街588号通威大厦1层,武侯区,[],[],[],成都市,[],B0FFFODSM3,[],"104.067620,30.550952",恒丰银行(成都天府大道支行),[],,[],四川省,[],[],2,028-83372571;028-83372715,金融保险服务;银行;银行,160100
天府一街718号,武侯区,[],[],202,成都市,[],B0FFK40KW4,[],"104.052780,30.560662",中国银行(成都天府一街支行),B0FFFPYMKV,,[],四川省,[],[],2,028-63911571,金融保险服务;银行;中国银行,160104
天府三街666号,武侯区,[],[],[],成都市,[],B0FFHQ2353,[],"104.055108,30.547765",中国农业银行(四川省分行),[],,[],四川省,[],[],2,[],金融保险服务;银行相关;银行相关,160200
天府大道中段1268号天府软件园E区,武侯区,[],[],[],成都市,[],B001C8ULPK,[],"104.068611,30.539244",平安银行(成都天府软件园支行),[],,[],四川省,[],[],2,028-61557901,金融保险服务;银行;平安银行,160117
洗面桥街35号,武侯区,[],[],[],成都市,[],B0FFGV64XK,[],"104.055992,30.640701",四川天府银行武侯支行停车场,[],免费;地面,[],四川省,[],[],2,[],交通设施服务;停车场;专用停车场,150905
天府大道中段762号,武侯区,[],[],[],成都市,[],B0FFFZC0GU,[],"104.068074,30.546358",渤海银行24小时自助银行(天府新区支行),[],,[],四川省,[],[],2,[],金融保险服务;自动提款机;自动提款机,160300
天府大道南段876号,双流区,[],[],[],成都市,[],B0FFFR1U5E,[],"104.068945,30.514996",华夏银行24小时自助银行(天府新区支行),[],,[],四川省,[],[],2,[],金融保险服务;自动提款机;华夏银行ATM,160307
天府三街97号,武侯区,[],[],[],成都市,[],B0FFFODOGS,[],"104.065387,30.546543",上海浦东发展银行24小时自助银行(天府支行),[],,[],四川省,[],[],2,[],金融保险服务;自动提款机;上海浦东发展银行ATM,160312
天府中路182号,彭州市,[],[],[],成都市,[],B0FFFPLV7Q,[],"103.946860,30.977818",中国建设银行24小时自助银行(天府中路),[],,[],四川省,[],[],2,[],金融保险服务;自动提款机;中国建设银行ATM,160303
益州大道中段152号附近,武侯区,[],[],[],成都市,[],B0FFHCBKJ1,[],"104.055820,30.542615",中国邮政储蓄银行24小时自助银行(天府支行),[],,[],四川省,[],[],2,[],金融保险服务;自动提款机;中国邮政储蓄银行ATM,160336
天府大道北段999号,武侯区,[],[],[],成都市,[],B0G0HKEOSI,[],"104.068850,30.586629",四川银行24小时自助银行(高新支行),[],,[],四川省,[],[],2,[],金融保险服务;自动提款机;自动提款机,160300
天府中路12-14号,彭州市,[],[],3,成都市,[],B001C0AGSL,[],"103.942855,30.977855",中国农业银行24小时自助银行(天府东路支行),B001C064MH,,[],四川省,[],[],2,[],金融保险服务;自动提款机;中国农业银行ATM,160304
天府大道北段999号,武侯区,[],[],[],成都市,[],B0G0BA1RF6,[],"104.068930,30.586917",四川银行(成都高新支行),[],,[],四川省,[],[],2,028-65055597,金融保险服务;银行;银行,160100
天府街西段17附近,温江区,[],[],[],成都市,[],B0FFFTKSMR,[],"103.795423,30.686719",中国工商银行24小时自助银行(天府街西段),[],,[],四川省,[],[],2,[],金融保险服务;自动提款机;中国工商银行ATM,160302
天府四街66号,武侯区,[],[],[],成都市,[],B0FFIWAUC6,[],"104.066766,30.542734",成都银行(自贸区支行),[],,[],四川省,[],[],2,028-62038385;028-62038382,金融保险服务;银行;银行,160100
天府东路1-5号,彭州市,[],[],[],成都市,[],B001C06SRL,[],"103.953165,30.978423",中国建设银行(工业大道支行),[],,[],四川省,[],[],2,028-83753741;95533,金融保险服务;银行;中国建设银行,160106
益州大道中段1999-2栋附近,武侯区,[],[],[],成都市,[],B0FFJRTKIX,[],"104.060772,30.542092",中国农业银行24小时自助银行(天府四街),[],,[],四川省,[],[],2,[],金融保险服务;自动提款机;中国农业银行ATM,160304
天府二街1268号,武侯区,[],[],[],成都市,[],B0FFG7IWHK,[],"104.038656,30.551466",中国工商银行24小时自助银行(建发・天府鹭洲东南),[],,[],四川省,[],[],2,[],金融保险服务;自动提款机;中国工商银行ATM,160302
天府大道中段1268号,武侯区,[],[],[],成都市,[],B0FFF2Y4GE,[],"104.068478,30.539170",平安银行24小时自助银行(成都天府软件园支行),[],,[],四川省,[],[],2,[],金融保险服务;自动提款机;平安银行ATM,160314
犀浦街道天府路260号,郫都区,[],[],[],成都市,[],B0FFFCOJ9Z,[],"103.980013,30.760604",中国农业银行(犀浦支行),[],,[],四川省,[],[],2,028-87847071,金融保险服务;银行;中国农业银行,160107
益州大道1999号银泰城悦坊1栋1层,武侯区,[],[],202,成都市,[],B0FFI7UUC5,[],"104.060762,30.541866",中国农业银行(成都银泰城支行),B001C95DSR,,[],四川省,[],[],2,028-85973652,金融保险服务;银行;中国农业银行,160107
天府街西段69-75号,温江区,[],[],[],成都市,[],B001C8VF2S,[],"103.794225,30.686116",中国邮政储蓄银行(天府营业所),[],,[],四川省,[],[],2,028-82631839;95580,金融保险服务;银行;中国邮政储蓄银行,160139
天府大道中段棕榈泉国际金融中心1层,武侯区,[],[],[],成都市,[],B0FFGFPJRX,[],"104.069676,30.554657",哈尔滨银行(成都分行),[],,[],四川省,[],[],2,028-67690238;028-67690242;028-67690237,金融保险服务;银行;银行,160100
都江堰天府大道639号,都江堰市,[],[],[],成都市,[],B001C93FYH,[],"103.646252,30.955480",中国农业银行(社保分理处),[],,[],四川省,[],[],2,028-87240638;95599,金融保险服务;银行;中国农业银行,160107
天彭镇天府中路26-32号(国贸超市楼下),彭州市,[],[],[],成都市,[],B001C06U6A,[],"103.943213,30.977867",中国银行(南大街支行),[],,[],四川省,[],[],2,028-83705574,金融保险服务;银行;中国银行,160104
天府大道北段999号,武侯区,[],[],[],成都市,[],B0G0BA1RF6,[],"104.068930,30.586917",四川银行(成都高新支行),[],,[],四川省,[],[],2,028-65055597,金融保险服务;银行;银行,160100
海昌路67、69号,双流区,[],[],[],成都市,[],B0FFFOVEXY,[],"104.073306,30.491550",中国建设银行(天府新区支行),[],,[],四川省,[],[],2,028-85753053;028-62580464,金融保险服务;银行;中国建设银行,160106
天府大道北段1700号新世纪环球中心1F层,武侯区,[],[],202,成都市,[],B0FFF5TMCU,[],"104.064855,30.571303",中国工商银行(天府支行),B0FFFAF652,,[],四川省,[],[],2,028-87344865,金融保险服务;银行;中国工商银行,160105
高新区天府大道中段688号大源国际中心A3栋1层,武侯区,[],[],202,成都市,[],B0FFFODL67,[],"104.068313,30.548142",中国农业银行(天府新区分行),B001C8NQZF,,[],四川省,[],[],2,028-87672359,金融保险服务;银行;中国农业银行,160107
天府路260-266号附近,郫都区,[],[],[],成都市,[],B0FFFCOJA4,[],"103.979821,30.760565",中国农业银行24小时自助银行(犀浦支行),[],,[],四川省,[],[],2,[],金融保险服务;自动提款机;中国农业银行ATM,160304
天府大道天韵路186号高新国际广场E座1层,武侯区,[],[],[],成都市,[],B001C7YLBT,[],"104.065580,30.591674",中国银行(天府大道支行),[],,[],四川省,[],[],2,028-85317165,金融保险服务;银行;中国银行,160104
下沙河铺街99号附12号,锦江区,[],[],[],成都市,[],B0GU57U54F,[],"104.119262,30.627008",华夏银行(成都天府支行),[],,[],四川省,[],[],2,028-86787612;95577,金融保险服务;银行;华夏银行,160110
盛华南路169号,武侯区,[],[],[],成都市,[],B0FFGY0BUE,[],"104.054004,30.547247",中国农业银行(蜀都支行营业部),[],,[],四川省,[],[],2,028-63930569,金融保险服务;银行;中国农业银行,160107
天府大道中段279号成达大厦,武侯区,[],[],202,成都市,[],B001C80FKF,[],"104.069893,30.552301",中国银行(成都成达支行),B0FFFZUSTB,,[],四川省,[],[],2,028-85332456;028-85312191;95566,金融保险服务;银行;中国银行,160104
西华门街17号天府中心,青羊区,[],[],202,成都市,[],B001C7WF0K,[],"104.062295,30.661922",平安银行(成都天府支行),B001C7X7IJ,,[],四川省,[],[],2,028-86637101,金融保险服务;银行;平安银行,160117
成汉南路138号(天府新谷、仁和春天国际花园、誉峰、市一医院),武侯区,[],[],[],成都市,[],B0FFFEY2Y3,[],"104.054169,30.585723",中国农业银行(天府大道支行),[],,[],四川省,[],[],2,028-69760778,金融保险服务;银行;中国农业银行,160107
升华路131号,武侯区,[],[],[],成都市,[],B001C8R9BC,[],"104.066255,30.546159",招商银行(成都天府大道支行),[],,[],四川省,[],[],2,028-85323265,金融保险服务;银行;招商银行,160109
锦城大道868号,武侯区,[],[],[],成都市,[],B0FFF003I1,[],"104.056564,30.575707",大连银行(天府支行),[],,[],四川省,[],[],2,028-62037358;028-62037369,金融保险服务;银行;银行,160100
华府大道一段1号附103号,双流区,[],[],[],成都市,[],B0FFM68X9O,[],"104.068386,30.526419",兴业银行(天府新区支行),[],,[],四川省,[],[],2,028-62039597,金融保险服务;银行;银行,160100
湖畔路北段333号,双流区,[],[],[],成都市,[],B0FFJMCFM1,[],"104.079726,30.403562",交通银行(天府新区支行),[],,[],四川省,[],[],2,028-61317540;028-61318141,金融保险服务;银行;交通银行,160108
天久北巷114-116号,武侯区,[],[],[],成都市,[],B001C93K7G,[],"104.076116,30.593138",中国建设银行(天府长城支行),[],,[],四川省,[],[],2,028-85356645;028-85180263,金融保险服务;银行;中国建设银行,160106
洗面桥街30号附2号,武侯区,[],[],[],成都市,[],B001C03BBF,[],"104.056630,30.640810",中国光大银行(成都天府支行),[],,[],四川省,[],[],2,028-85558070;028-85598650,金融保险服务;银行;中国光大银行,160113
隆和街889号,双流区,[],[],[],成都市,[],B0HARZ0ZB3,[],"104.083878,30.424400",浙商银行天府新区支行,[],,[],四川省,[],[],2,[],金融保险服务;银行;银行,160100
天久北巷139号附9号,武侯区,[],[],[],成都市,[],B001C8O9L1,[],"104.075317,30.592738",中国农业银行(天府长城支行),[],,[],四川省,[],[],2,028-84715907;028-61554386,金融保险服务;银行;中国农业银行,160107
麓山大道一段,双流区,[],[],[],成都市,[],B0FFLGKJUR,[],"104.076132,30.487596",遂宁银行(天府新区支行),[],,[],四川省,[],[],2,[],金融保险服务;银行;银行,160100
天府三街19号新希望国际A座26楼2604,武侯区,[],[],[],成都市,[],B0FFIW83H1,[],"104.067482,30.545806",四川新网银行(升华路),[],,[],四川省,[],[],2,[],金融保险服务;银行;银行,160100
天府东路1-5号,彭州市,[],[],3,成都市,[],B001C0AGAC,[],"103.953192,30.978409",中国建设银行24小时自助银行(工业大道支行),B001C06SRL,,[],四川省,[],[],2,[],金融保险服务;自动提款机;中国建设银行ATM,160303
天府大道北段966天府国际金融中心6号楼,武侯区,[],[],202,成都市,[],B0FFFEPMXY,[],"104.067021,30.579782",中国民生银行ATM(成都分行),B0FFF9VK84,,[],四川省,[],[],2,[],金融保险服务;自动提款机;中国民生银行ATM,160309
高新区天府大道中段688号大源国际中心1栋,武侯区,[],[],202,成都市,[],B0FFFODL64,[],"104.067999,30.547219",上海银行(高新支行),B0FFICD3AR,,[],四川省,[],[],2,028-85582888;95594,金融保险服务;银行;上海银行,160114
天府三街,武侯区,[],[],[],成都市,[],B0FFKHDVJC,[],"104.061105,30.546483",招商银行(腾讯大厦社区支行),[],,[],四川省,[],[],2,[],金融保险服务;银行;招商银行,160109
天府新区天府大道南段2028号石化大厦1层,双流区,[],[],202,成都市,[],B0FFFGYQRU,[],"104.068971,30.496035",广发银行(天府新区支行),B001C805JE,,[],四川省,[],[],2,028-68458218;028-68458208,金融保险服务;银行;银行,160100
人民南路一段122-124号中铁名人大厦1、11层,青羊区,[],[],202,成都市,[],B001C7Y8BH,[],"104.065559,30.654474",哈尔滨银行(天府支行),B0FFG4LAZL,,[],四川省,[],[],2,028-65333211;028-67690321,金融保险服务;银行;银行,160100
通盈街44-50号,锦江区,[],[],[],成都市,[],B0FFGDD4KR,[],"104.103719,30.631539",兴业银行锦天府社区支行,[],,[],四川省,[],[],2,028-67835296,金融保险服务;银行;兴业银行,160118
兴隆镇湖畔路西段天府菁蓉中心C区,双流区,[],[],202,成都市,[],B0FFLCZELN,[],"104.075834,30.394589",成都银行(天府新区分行),B0FFHZ7TK3,,[],四川省,[],[],2,[],金融保险服务;银行;银行,160100
正北下街154-178号,双流区,[],[],[],成都市,[],B001C8OBDY,[],"104.066328,30.516393",成都农商银行(天府新区支行),[],,[],四川省,[],[],2,028-81508032,金融保险服务;银行;农村商业银行,160121
正北下街152号附2,双流区,[],[],3,成都市,[],B001C8OB6I,[],"104.066357,30.516422",成都农商银行24小时自助银行(天府新区支行),B001C8OBDY,,[],四川省,[],[],2,[],金融保险服务;自动提款机;农村商业银行ATM,160318
天华二路219号天府软件园C区C4楼,武侯区,[],[],202,成都市,[],B0FFG0VWNA,[],"104.070252,30.538042",招商银行ATM(天府大道中段辅路),B0FFG0VYW7,,[],四川省,[],[],2,[],金融保险服务;自动提款机;招商银行ATM,160306
天府大道南段2039号,双流区,[],[],[],成都市,[],B0FFLEXVYD,[],"104.071979,30.492215",交通银行(成都自贸试验区支行),[],,[],四川省,[],[],2,028-61035910;028-61035957,金融保险服务;银行;交通银行,160108
人民南路一段122号附3号,青羊区,[],[],202,成都市,[],B001C8MP21,[],"104.065249,30.654468",哈尔滨银行24小时自助银行(天府支行),B0FFG4LAZL,,[],四川省,[],[],2,[],金融保险服务;自动提款机;自动提款机,160300
西华门街17号附1-4号,青羊区,[],[],3,成都市,[],B001C7WF0L,[],"104.062295,30.661852",平安银行24小时自助银行(天府支行),B001C7WF0K,,[],四川省,[],[],2,[],金融保险服务;自动提款机;平安银行ATM,160314
兴隆湖湖畔路北段,双流区,[],[],[],成都市,[],B0FFIQDLIL,[],"104.081463,30.403584",恒丰银行(天府新区支行),[],,[],四川省,[],[],2,[],金融保险服务;银行;银行,160100
成汉南路93-97,武侯区,[],[],[],成都市,[],B001C8O932,[],"104.054822,30.585964",中国建设银行(天府新谷支行),[],,[],四川省,[],[],2,028-85325668,金融保险服务;银行;中国建设银行,160106
德通桥路200-204号,温江区,[],[],[],成都市,[],B001C809WZ,[],"103.820852,30.695366",成都农商银行(温江天府分理处),[],,[],四川省,[],[],2,028-82734362,金融保险服务;银行;农村商业银行,160121
吉泰路与天府五街交叉口西北100米,武侯区,[],[],[],成都市,[],B0FFKVZKMS,[],"104.059973,30.538365",中国建设银行24小时自助银行(吉泰路支行),[],,[],四川省,[],[],2,[],金融保险服务;自动提款机;中国建设银行ATM,160303
盛华南路169号,武侯区,[],[],[],成都市,[],B0FFGY0BTX,[],"104.054005,30.547257",中国农业银行24小时自助银行(成都蜀都支行),[],,[],四川省,[],[],2,[],金融保险服务;自动提款机;中国农业银行ATM,160304
天府大道南二段天府菁蓉中心D区A6号楼5层附近,双流区,[],[],[],成都市,[],B0FFJG4XPH,[],"104.074429,30.395723",中国工商银行(天府科学城支行),[],,[],四川省,[],[],2,[],金融保险服务;银行;中国工商银行,160105
天府四街2802号(乐华路交叉口),武侯区,[],[],[],成都市,[],B0FFK0MN4D,[],"104.031284,30.542543",中国建设银行(成都天府四街支行),[],,[],四川省,[],[],2,028-60191053,金融保险服务;银行;中国建设银行,160106
天府三街1007号,武侯区,[],[],[],成都市,[],B0FFF9UNSL,[],"104.044002,30.546441",中国建设银行24小时自助银行(荣华南路支行),[],,[],四川省,[],[],2,[],金融保险服务;自动提款机;中国建设银行ATM,160303
天府大道中段1366号天府软件园e8,武侯区,[],[],202,成都市,[],B001C8R8CM,[],"104.068085,30.535782",中国银行(成都高新技术产业开发区支行),B0FFHG1VM5,,[],四川省,[],[],2,028-62038635;028-62038731,金融保险服务;银行;中国银行,160104
天府一街与益州大道中段交叉口西北50米,武侯区,[],[],[],成都市,[],B0FFKHUAMW,[],"104.056256,30.560757",中国工商银行(天府一街支行),[],,[],四川省,[],[],2,028-62093367,金融保险服务;银行;中国工商银行,160105
草池街道安顺街20号机场建设指挥部内,简阳市,[],[],[],成都市,[],B0FFI02L12,[],"104.405242,30.316760",中国工商银行(天府国际机场支行),[],,[],四川省,[],[],2,028-86900450,金融保险服务;银行;中国工商银行,160105
盛和一路66城南天府1层,武侯区,[],[],202,成都市,[],B0FFK24FRG,[],"104.065776,30.604105",中国工商银行ATM,B0FFMHVLSF,,[],四川省,[],[],2,[],金融保险服务;自动提款机;中国工商银行ATM,160302
天府四街327号,武侯区,[],[],[],成都市,[],B0FFKR7H0N,[],"104.060658,30.541793",泸州银行24小时自助银行(成都分行),[],,[],四川省,[],[],2,[],金融保险服务;自动提款机;自动提款机,160300
天府大道北段20号,武侯区,[],[],[],成都市,[],B0FFGFKIP2,[],"104.066750,30.591676",中国农业银行(成都高新技术产业开发区支行),[],,[],四川省,[],[],2,028-85143681,金融保险服务;银行;中国农业银行,160107
[],武侯区,[],[],202,成都市,[],B0FFIMSDXJ,[],"104.067746,30.547195",天津银行(成都分行营业部),B001C8NQZF,,[],四川省,[],[],2,028-62037102;4006960296,金融保险服务;银行;银行,160100
天久南巷165号(近天环路),武侯区,[],[],[],成都市,[],B0FFFEVG33,[],"104.074136,30.592110",中国光大银行(成都天府长城小微支行),[],,[],四川省,[],[],2,028-85156783;95595,金融保险服务;银行;中国光大银行,160113
益州大道1999号银泰城悦坊1栋1层,武侯区,[],[],202,成都市,[],B0FFKR7H0Z,[],"104.060524,30.541804",泸州银行ATM,B001C95DSR,,[],四川省,[],[],2,[],金融保险服务;自动提款机;自动提款机,160300
海昌路63-69,双流区,[],[],[],成都市,[],B0FFFZBT97,[],"104.073166,30.491444",中国建设银行24小时自助银行(成都天府新区支行),[],,[],四川省,[],[],2,[],金融保险服务;自动提款机;中国建设银行ATM,160303
科兴路东段580号,温江区,[],[],[],成都市,[],B0FFGLDLVK,[],"103.826546,30.670296",成都农商银行(天府家园分理处),[],,[],四川省,[],[],2,[],金融保险服务;银行;农村商业银行,160121
华阳镇正北上街24-28号,双流区,[],[],[],成都市,[],B001C808DP,[],"104.056049,30.505991",中国邮政储蓄银行(天府新区支行),[],,[],四川省,[],[],2,028-85642431;028-85646123;95580,金融保险服务;银行;中国邮政储蓄银行,160139
天久南巷163-165,武侯区,[],[],[],成都市,[],B0FFFFKP51,[],"104.074039,30.592098",中国光大银行24小时自助银行(天府长城小微支行),[],,[],四川省,[],[],2,[],金融保险服务;自动提款机;中国光大银行ATM,160310
成汉南路138,武侯区,[],[],[],成都市,[],B0FFFEY2YG,[],"104.054089,30.585671",中国农业银行24小时自助银行(天府大道支行),[],,[],四川省,[],[],2,[],金融保险服务;自动提款机;中国农业银行ATM,160304
天久北巷139号附7-9,武侯区,[],[],3,成都市,[],B001C8O9K5,[],"104.075297,30.592899",中国农业银行24小时自助银行(天府长城支行),B001C8O9L1,,[],四川省,[],[],2,[],金融保险服务;自动提款机;中国农业银行ATM,160304
天府大道南段2028号石化大厦1层,双流区,[],[],202,成都市,[],B0FFFGYQRV,[],"104.068968,30.496052",广发银行24小时自助银行(天府新区支行),B001C805JE,,[],四川省,[],[],2,[],金融保险服务;自动提款机;广发银行ATM,160317
天仁路388号凯德天府,武侯区,[],[],202,成都市,[],B0FFFYR3Q8,[],"104.070435,30.602661",中国农业银行24小时自助银行(凯德天府支行),B001C8P59N,,[],四川省,[],[],2,[],金融保险服务;自动提款机;中国农业银行ATM,160304
天府一街380号,武侯区,[],[],[],成都市,[],B0FFLIEDW6,[],"104.056296,30.560808",中国工商银行24小时自助银行(天府一街支行),[],,[],四川省,[],[],2,[],金融保险服务;自动提款机;中国工商银行ATM,160302
吉泰路598附近,武侯区,[],[],[],成都市,[],B0FFFODOGK,[],"104.064630,30.546617",中国工商银行24小时自助银行(天府三街支行),[],,[],四川省,[],[],2,[],金融保险服务;自动提款机;中国工商银行ATM,160302
成汉南路93-97,武侯区,[],[],3,成都市,[],B001C8O91X,[],"104.054918,30.585683",中国建设银行24小时自助银行(成都天府新谷支行),B001C8O932,,[],四川省,[],[],2,[],金融保险服务;自动提款机;中国建设银行ATM,160303
天晖路360号晶科1号1楼,武侯区,[],[],[],成都市,[],B0FFF90CNB,[],"104.063450,30.589079",中国建设银行(天府新城储蓄所),[],,[],四川省,[],[],2,028-65294504,金融保险服务;银行;中国建设银行,160106
高新区天府大道中段688号大源国际中心A3栋1层,武侯区,[],[],202,成都市,[],B0FFFODL68,[],"104.068315,30.548136",中国农业银行24小时自助银行(天府新区分行营业部),B001C8NQZF,,[],四川省,[],[],2,[],金融保险服务;自动提款机;中国农业银行ATM,160304
天府大道北段18号,武侯区,[],[],[],成都市,[],B001C8O8H1,[],"104.065264,30.592744",中国工商银行24小时自助银行(天府大道支行),[],,[],四川省,[],[],2,[],金融保险服务;自动提款机;中国工商银行ATM,160302
天晖路360号附3,武侯区,[],[],[],成都市,[],B0FFF90CNG,[],"104.063620,30.589196",中国建设银行24小时自助银行(天府新城支行),[],,[],四川省,[],[],2,[],金融保险服务;自动提款机;中国建设银行ATM,160303
天久北巷114-116,武侯区,[],[],[],成都市,[],B001C93K7H,[],"104.076039,30.593177",中国建设银行24小时自助银行(天府长城支行),[],,[],四川省,[],[],2,[],金融保险服务;自动提款机;中国建设银行ATM,160303
升华路131号,武侯区,[],[],3,成都市,[],B001C8R9B9,[],"104.066968,30.546251",招商银行24小时自助银行(天府大道支行),B001C8R9BC,,[],四川省,[],[],2,[],金融保险服务;自动提款机;招商银行ATM,160306
洗面桥街30号附2号,武侯区,[],[],3,成都市,[],B001C0AG7U,[],"104.056583,30.640744",中国光大银行24小时自助银行服务(成都天府支行),B001C03BBF,,[],四川省,[],[],2,[],金融保险服务;自动提款机;中国光大银行ATM,160310
天和西三街39号大鼎世纪广场F1,武侯区,[],[],[],成都市,[],B0HA25RX68,[],"104.069250,30.601902",中国农业银行(成都凯德天府支行),[],,[],四川省,[],[],2,028-84191154;95599,金融保险服务;银行;中国农业银行,160107
天府街中段351-359号,温江区,[],[],[],成都市,[],B0FFKRTEY2,[],"103.796609,30.687604",成都农商银行(台商分理处),[],,[],四川省,[],[],2,028-82630621,金融保险服务;银行;农村商业银行,160121
湖畔路北段321号正东方向15米,双流区,[],[],[],成都市,[],B0FFKYACOQ,[],"104.079464,30.403729",交通银行24小时自助银行(成都天府新区支行),[],,[],四川省,[],[],2,[],金融保险服务;自动提款机;交通银行ATM,160305
德通桥路200-204号,温江区,[],[],3,成都市,[],B001C809X0,[],"103.820842,30.695374",成都农商银行24小时自助银行(天府分理处)(装修中),B001C809WZ,,[],四川省,[],[],2,[],金融保险服务;自动提款机;农村商业银行ATM,160318
科兴路东段580号,温江区,[],[],[],成都市,[],B0FFFNNBLC,[],"103.826567,30.670285",成都农商银行24小时自助银行(天府家园分理处),[],,[],四川省,[],[],2,[],金融保险服务;自动提款机;农村商业银行ATM,160318
天韵路150号高新国际广场D座1层103号,武侯区,[],[],202,成都市,[],B001C8O7Z9,[],"104.065603,30.592928",中国工商银行,B0FFF9VG3L,,[],四川省,[],[],2,028-85319725,金融保险服务;银行;中国工商银行,160105
天府四街与萃华路交叉口东北100米,武侯区,[],[],[],成都市,[],B0FFIMFWS4,[],"104.066420,30.542672",成都银行24小时自助银行(自贸区支行),[],,[],四川省,[],[],2,[],金融保险服务;自动提款机;自动提款机,160300
天府二街151号领地环球金融中心一楼,武侯区,[],[],202,成都市,[],B0FFK1PF6P,[],"104.064369,30.550841",乐山市商业银行(成都自贸区支行),B001C8RGCT,,[],四川省,[],[],2,[],金融保险服务;银行;银行,160100
天府三街19号附近,武侯区,[],[],[],成都市,[],B0FFJVA3H7,[],"104.067750,30.546392",招商银行(成都新希望国际B座),[],,[],四川省,[],[],2,[],金融保险服务;银行;招商银行,160109
天韵路186号高新国际广场e座1层,武侯区,[],[],[],成都市,[],B0FFFEY6WL,[],"104.065605,30.591537",中国银行ATM(天府大道支行),[],,[],四川省,[],[],2,[],金融保险服务;自动提款机;中国银行ATM,160301
万象南路与锦城大道交叉口东100米,武侯区,[],[],[],成都市,[],B0FFIIU3DK,[],"104.051120,30.575600",兴业银行24小时自助银行(天府世家社区支行),[],,[],四川省,[],[],2,[],金融保险服务;自动提款机;兴业银行ATM,160315
锦城大道946号,武侯区,[],[],[],成都市,[],B0FFG0Z2QI,[],"104.053248,30.575595",中国民生银行24小时自助银行(天府世家社区支行),[],,[],四川省,[],[],2,[],金融保险服务;自动提款机;中国民生银行ATM,160309
石羊场街道锦城大道946号,武侯区,[],[],[],成都市,[],B0FFG0ZEJ4,[],"104.052982,30.575576",中国民生银行(锦城大道支行),[],,[],四川省,[],[],2,95568,金融保险服务;银行;中国民生银行,160112
天府二街999号伊藤洋华堂L1层,武侯区,[],[],201,成都市,[],B0FFIW71E8,[],"104.044522,30.550725",招商银行ATM(成都世豪广场支行),B001C8O160,,[],四川省,[],[],2,[],金融保险服务;自动提款机;招商银行ATM,160306
天府大道639号附1号,都江堰市,[],[],[],成都市,[],B0FFF0KBNN,[],"103.646165,30.955369",中国农业银行ATM(社保分理处),[],,[],四川省,[],[],2,[],金融保险服务;自动提款机;中国农业银行ATM,160304
天府大道南段2039号,双流区,[],[],302,成都市,[],B0FFH8VX9F,[],"104.071970,30.492291",交通银行24小时自助银行(成都自贸试验区支行),B001C805MI,,[],四川省,[],[],2,[],金融保险服务;自动提款机;交通银行ATM,160305
雄州大道南段523号附近,简阳市,[],[],[],成都市,[],B0FFFTXIOI,[],"104.537474,30.410793",中国建设银行,[],,[],四川省,[],[],2,028-26155188,金融保险服务;银行;中国建设银行,160106
高新区益州大道中段1266号工行后台中心2楼,武侯区,[],[],0,成都市,[],B0FFF6LBE7,[],"104.055448,30.545739",中国工商银行后台中心(成都),B001C8PM5B,,[],四川省,[],[],2,95588,金融保险服务;银行;中国工商银行|金融保险服务;银行相关;银行相关,160105|160200
草池街道天府国际机场商务楼,简阳市,[],[],[],成都市,[],B0FFIXEIZJ,[],"104.405075,30.316810",中国建设银行,[],,[],四川省,[],[],2,028-26155107,金融保险服务;银行;中国建设银行,160106
天府中路37号,彭州市,[],[],3,成都市,[],B001C7VRBK,[],"103.943707,30.978329",中国工商银行24小时自助银行(外南分理处),B001C7VRBJ,,[],四川省,[],[],2,[],金融保险服务;自动提款机;中国工商银行ATM,160302
天府大道中段1366号,武侯区,[],[],[],成都市,[],B001C8R8CO,[],"104.068210,30.535838",中国银行24小时自助银行(成都高新技术产业开发区支行),[],,[],四川省,[],[],2,[],金融保险服务;自动提款机;中国银行ATM,160301
天府大道11-17,郫都区,[],[],3,成都市,[],B0FFGIO7PM,[],"103.973365,30.758030",中国邮政储蓄银行ATM(犀浦街道支行),B001C8VB1N,,[],四川省,[],[],2,[],金融保险服务;自动提款机;中国邮政储蓄银行ATM,160336
天府大道9-15号,郫都区,[],[],[],成都市,[],B001C8VB1N,[],"103.973353,30.758060",中国邮政储蓄银行(犀浦街道支行),[],,[],四川省,[],[],2,028-87855000;028-87855033;95580,金融保险服务;银行;中国邮政储蓄银行,160139
天府三街97号,武侯区,[],[],[],成都市,[],B0FFIMJFR6,[],"104.065175,30.546302",上海浦东发展银行(天府三街),[],,[],四川省,[],[],2,[],金融保险服务;银行;上海浦东发展银行,160115
华府大道一段518号蜀郡A区77栋,双流区,[],[],[],成都市,[],B0FFFPA22X,[],"104.059826,30.527399",中国银行(成都自贸试验区分行),[],,[],四川省,[],[],2,028-68273230;028-68273210,金融保险服务;银行;中国银行,160104
天府大道中段279成达大厦,武侯区,[],[],202,成都市,[],B0FFFODNLG,[],"104.069896,30.552304",中国银行24小时自助银行(成达支行),B0FFFZUSTB,,[],四川省,[],[],2,[],金融保险服务;自动提款机;中国银行ATM,160301
天府大道中段688号,武侯区,[],[],[],成都市,[],B0FFFODL66,[],"104.067988,30.547283",上海银行24小时自助银行(高新支行),[],,[],四川省,[],[],2,[],金融保险服务;自动提款机;上海银行ATM,160311
五丁路6号附1号,金牛区,[],[],[],成都市,[],B001C7YL6N,[],"104.065426,30.683102",中国工商银行(成都铁道支行),[],,[],四川省,[],[],2,028-83171005,金融保险服务;银行;中国工商银行,160105
崇义镇IT大道四川工商职业技术学院,都江堰市,[],[],[],成都市,[],B001C8X3GX,[],"103.697762,30.912917",中国银行ATM(天府大道),[],,[],四川省,[],[],2,[],金融保险服务;自动提款机;中国银行ATM,160301
高新区天府二街198号华西证券总部综合办公楼附近,武侯区,[],[],202,成都市,[],B0FFIC0PXI,[],"104.063770,30.551855",中国建设银行自动取款机,B0FFKC599A,,[],四川省,[],[],2,[],金融保险服务;自动提款机;自动提款机,160300
湖畔路西段718号西北方向190米,双流区,[],[],[],成都市,[],B0FFL3S0NG,[],"104.074462,30.395569",中国工商银行24小时自助银行(科学城支行),[],,[],四川省,[],[],2,[],金融保险服务;自动提款机;中国工商银行ATM,160302
天府西路1-7,彭州市,[],[],202,成都市,[],B0FFG7LYKM,[],"103.941931,30.977813",中国建设银行(城南支行),B0FFF9LUYM,,[],四川省,[],[],2,028-83704810,金融保险服务;银行;中国建设银行,160106
世纪城路天府软件园A5座,武侯区,[],[],202,成都市,[],B001C8OAXC,[],"104.070998,30.550935",中国建设银行(高新支行),B001C93C46,,[],四川省,[],[],2,028-85342190;028-85342178,金融保险服务;银行;中国建设银行,160106
天府大道20、24,郫都区,[],[],[],成都市,[],B001C8MET1,[],"103.974018,30.757391",中国银行24小时自助银行(万树森林支行),[],,[],四川省,[],[],2,[],金融保险服务;自动提款机;中国银行ATM,160301
天府大道北段1288号泰达时代中心3号楼,武侯区,[],[],202,成都市,[],B0FFHMLB8B,[],"104.067518,30.576252",绵阳市商业银行(成都分行),B0FFL367UZ,,[],四川省,[],[],2,[],金融保险服务;银行;银行,160100
天府新区兴隆湖成都科学城天府菁蓉中心A区1-1033号,双流区,[],[],202,成都市,[],B0FFK0N0W6,[],"104.078466,30.402461",中国农业银行(自贸区支行),B0FFL1D46W,,[],四川省,[],[],2,028-64974625,金融保险服务;银行;中国农业银行,160107
海昌南路66号,双流区,[],[],[],成都市,[],B001C95ERJ,[],"104.073197,30.490824",中国银行(海昌支行),[],,[],四川省,[],[],2,028-62580464;028-60611240,金融保险服务;银行;中国银行,160104
天顺路224号,武侯区,[],[],[],成都市,[],B0FFF906VU,[],"104.071231,30.594154",兴业银行24小时自助银行(成都天府长城社区支行),[],,[],四川省,[],[],2,[],金融保险服务;自动提款机;兴业银行ATM,160315
高新孵化园天府大道北段1480号德商国际B座103-104号德商国际1层,武侯区,[],[],202,成都市,[],B001C80F4V,[],"104.060363,30.575066",中国建设银行(益州支行),B0FFF2MB5C,,[],四川省,[],[],2,028-85325387;028-85111496,金融保险服务;银行;中国建设银行,160106
天府新谷8号2-1F楼2单元,武侯区,[],[],[],成都市,[],B0FFFO5DB0,[],"104.054828,30.586083",中国光大银行(高新支行),[],,[],四川省,[],[],2,028-61682880;95595,金融保险服务;银行;中国光大银行,160113
天府二街139号中国水电大厦1层,武侯区,[],[],202,成都市,[],B0FFF05GQ4,[],"104.065512,30.550601",中国建设银行(南延线支行),B001C802XK,,[],四川省,[],[],2,028-65518979,金融保险服务;银行;中国建设银行,160106
天府大道南段龙灯山路379号,双流区,[],[],[],成都市,[],B001C8OB2S,[],"104.071517,30.510721",中国工商银行(龙灯山路支行),[],,[],四川省,[],[],2,028-85639795;028-85639315,金融保险服务;银行;中国工商银行,160105
通盈街48号,锦江区,[],[],[],成都市,[],B0FFGXB2MW,[],"104.103847,30.631728",兴业银行24小时自助银行(成都锦天府社区支行),[],,[],四川省,[],[],2,[],金融保险服务;自动提款机;兴业银行ATM,160315
天府街中段351-359号,温江区,[],[],[],成都市,[],B0FFKMCOGF,[],"103.796649,30.687627",成都农商银行24小时自助银行(台商分理处),[],,[],四川省,[],[],2,[],金融保险服务;自动提款机;农村商业银行ATM,160318
正西街47-49号,双流区,[],[],202,成都市,[],B0FFF6RP3E,[],"104.053473,30.505825",交通银行(成都华阳支行),B001C7XLAU,,[],四川省,[],[],2,028-85642767;028-85638852,金融保险服务;银行;交通银行,160108
天府四街158号OCG国际中心一楼,武侯区,[],[],[],成都市,[],B0FFI9TCU3,[],"104.064159,30.543147",遂宁银行(成都分行),[],,[],四川省,[],[],2,[],金融保险服务;银行;银行,160100
犀浦街道天府大道1-3号,郫都区,[],[],[],成都市,[],B001C8ORGN,[],"103.973009,30.758109",成都农商银行(西区支行),[],,[],四川省,[],[],2,028-87999565,金融保险服务;银行;农村商业银行,160121
天府大道18号高新国际广场C座联通大厦1层,武侯区,[],[],[],成都市,[],B001C8O8PM,[],"104.066431,30.592539",中国建设银行(成都科技支行),[],,[],四川省,[],[],2,028-82834996,金融保险服务;银行;中国建设银行,160106
天府大道北段20号高新国际广场b座,武侯区,[],[],[],成都市,[],B0FFGZUALG,[],"104.066794,30.591742",中国农业银行24小时自助银行(成都高新技术产业开发区支行),[],,[],四川省,[],[],2,[],金融保险服务;自动提款机;中国农业银行ATM,160304
桂溪街道高新区天府三街新希望国际大厦B座,武侯区,[],[],202,成都市,[],B0FFHA22YX,[],"104.066972,30.546061",中国农业银行(新希望国际支行),B0FFF006BK,,[],四川省,[],[],2,028-85125043;028-85156145,金融保险服务;银行;中国农业银行,160107
天府大道中段279号成达大厦,武侯区,[],[],202,成都市,[],B001C80T7V,[],"104.070320,30.551768",中国光大银行(成都世纪城支行),B0FFFZUSTB,,[],四川省,[],[],2,028-85330121;95595,金融保险服务;银行;中国光大银行,160113
天府二街1290号,武侯区,[],[],[],成都市,[],B0FFF905AY,[],"104.038915,30.551605",中信银行24小时自助银行(建发・鹭公馆西北),[],,[],四川省,[],[],2,[],金融保险服务;自动提款机;中信银行ATM,160308
天府大道北段1729号,武侯区,[],[],202,成都市,[],B0FFGAHA6E,[],"104.061075,30.568214",兴业银行(环球中心支行),B001C8PLZ0,,[],四川省,[],[],2,95561,金融保险服务;银行;兴业银行,160118
天府大道北段1480号德商国际B座1层,武侯区,[],[],202,成都市,[],B001C8R972,[],"104.060285,30.574881",招商银行(益州大道支行),B0FFF2MB5C,,[],四川省,[],[],2,028-85275089;028-82448732,金融保险服务;银行;招商银行,160109
天和西三街39号大鼎世纪广场F1,武侯区,[],[],[],成都市,[],B0HA3P24I2,[],"104.069193,30.601861",中国农业银行24小时自助银行(成都凯德天府支行),[],,[],四川省,[],[],2,[],金融保险服务;自动提款机;中国农业银行ATM,160304
犀浦街道天府大道18、20、22号,郫都区,[],[],[],成都市,[],B001C8MET0,[],"103.973793,30.758186",中银富登村镇银行,[],,[],四川省,[],[],2,95566,金融保险服务;银行;中国银行,160104
锦城大道1084号,武侯区,[],[],[],成都市,[],B0FFFZBTT7,[],"104.050838,30.575528",兴业银行(成都高新区支行),[],,[],四川省,[],[],2,028-85321972;028-85322765,金融保险服务;银行;兴业银行,160118
益州大道中段1256号(近天府三街),武侯区,[],[],[],成都市,[],B0HBOAKVGG,[],"104.056370,30.544785",中国工商银行,[],,[],四川省,[],[],2,95588,金融保险服务;银行;中国工商银行,160105
天府大道1-5,郫都区,[],[],3,成都市,[],B001C8R6ZC,[],"103.972951,30.758133",成都农商银行24小时自助银行(西区支行),B001C8ORGN,,[],四川省,[],[],2,[],金融保险服务;自动提款机;农村商业银行ATM,160318
天府新区华阳大道一段333号银泰商务中心1层,双流区,[],[],202,成都市,[],B001C8MOEZ,[],"104.049509,30.512463",交通银行(成都双华支行),B001C8TY2R,,[],四川省,[],[],2,028-85646343,金融保险服务;银行;交通银行,160108
湖畔路北段天府菁蓉中心B区10号楼,双流区,[],[],[],成都市,[],B0GRJRNJV3,[],"104.080515,30.403518",中国建设银行(自贸试验区分行),[],,[],四川省,[],[],2,028-85858601,金融保险服务;银行;中国建设银行,160106
果堰街12号1栋附2,武侯区,[],[],[],成都市,[],B001C8O4ZQ,[],"103.993123,30.641320",成都银行ATM(竹韵天府东北),[],,[],四川省,[],[],2,[],金融保险服务;自动提款机;自动提款机,160300
天府四街2806号临江苑9栋1楼临街商铺,武侯区,[],[],[],成都市,[],B0FFKVZJOU,[],"104.031376,30.542462",中国银行(成都大源支行),[],,[],四川省,[],[],2,028-60633188;95566,金融保险服务;银行;中国银行,160104
高新区天府大道北段20号高新国际广场B座1层,武侯区,[],[],[],成都市,[],B001C8P6XZ,[],"104.066731,30.591616",中国农业银行(高新技术产业开发区支行),[],,[],四川省,[],[],2,028-85319286,金融保险服务;银行;中国农业银行,160107
天府大道北段8号苏宁广场F1层,武侯区,[],[],201,成都市,[],B0FFLDDQTO,[],"104.066576,30.601931",成都农商银行自动提款机(苏宁广场),B001C8OES6,,[],四川省,[],[],2,[],金融保险服务;自动提款机;自动提款机,160300
府城大道西段520附近,武侯区,[],[],[],成都市,[],B0FFG58ZWN,[],"104.052393,30.589843",中国建设银行ATM,[],,[],四川省,[],[],2,[],金融保险服务;自动提款机;中国建设银行ATM,160303
[],武侯区,[],[],[],成都市,[],B0G3ZURDW2,[],"104.064310,30.550904",乐山市商业银行24小时自助银行(成都自贸区支行),[],,[],四川省,[],[],2,[],金融保险服务;自动提款机;农村商业银行ATM,160318
天府二街333号,武侯区,[],[],[],成都市,[],B0FFG0YU9E,[],"104.059967,30.550685",长城华西银行24小时自助银行(成都分行),[],,[],四川省,[],[],2,[],金融保险服务;自动提款机;自动提款机,160300
世纪城路天府软件园A5座,武侯区,[],[],202,成都市,[],B0FFH20NE0,[],"104.070992,30.550950",中国建设银行24小时自助银行(成都高新支行),B001C93C46,,[],四川省,[],[],2,[],金融保险服务;自动提款机;中国建设银行ATM,160303
华新中街191-197号,双流区,[],[],[],成都市,[],B001C7UW8U,[],"104.053361,30.510127",中国银行(华新中街支行),[],,[],四川省,[],[],2,028-85643632;95566,金融保险服务;银行;中国银行,160104
天府四街2808号,武侯区,[],[],[],成都市,[],B0FFLC8R3M,[],"104.031058,30.542358",中国银行24小时自助银行,[],,[],四川省,[],[],2,[],金融保险服务;自动提款机;中国银行ATM,160301
紫荆西路6号附8-附18,武侯区,[],[],[],成都市,[],B001C8VK8G,[],"104.045094,30.617851",中国光大银行(成都神仙树支行),[],,[],四川省,[],[],2,028-85316573;95595,金融保险服务;银行;中国光大银行,160113
天府三街102-180号,武侯区,[],[],[],成都市,[],B0FFGFNF25,[],"104.065555,30.547158",大连银行(成都金融城支行),[],,[],四川省,[],[],2,028-65789055;028-65789060,金融保险服务;银行;银行,160100
天府大道18号高新国际广场C座联通大厦1层,武侯区,[],[],3,成都市,[],B001C8O8FT,[],"104.066431,30.592539",中国建设银行24小时自助银行(成都科技支行),B001C8O8PM,,[],四川省,[],[],2,[],金融保险服务;自动提款机;中国建设银行ATM,160303
天府二街99号附109,武侯区,[],[],202,成都市,[],B0FFFODSLZ,[],"104.066001,30.550987",重庆银行(成都分行),B001C8P781,,[],四川省,[],[],2,028-85137094;028-85283385,金融保险服务;银行;银行,160100
天府二街717号1层,武侯区,[],[],[],成都市,[],B0FFFZBJVM,[],"104.052461,30.551068",兴业银行复地社区便民金融服务点,[],,[],四川省,[],[],2,028-85124649,金融保险服务;银行相关;银行相关,160200
天府二街999号伊藤洋华堂L1层,武侯区,[],[],201,成都市,[],B0FFFODRP1,[],"104.044524,30.550692",中国工商银行ATM(伊藤洋华堂),B001C8O160,,[],四川省,[],[],2,[],金融保险服务;自动提款机;中国工商银行ATM,160302
天府四街158号OCG国际中心,武侯区,[],[],202,成都市,[],B0FFHONTT5,[],"104.064070,30.543093",遂宁银行(成都分行)征信查询点,B0FFFEG9I6,,[],四川省,[],[],2,028-86052288,金融保险服务;银行;银行,160100
朝阳南路449-475号,彭州市,[],[],[],成都市,[],B001C09OTV,[],"103.951391,30.977401",成都银行24小时自助银行(彭州支行),[],,[],四川省,[],[],2,[],金融保险服务;自动提款机;自动提款机,160300
天府二街1033号建发鹭洲里10-1-3B至,武侯区,[],[],202,成都市,[],B0FFJM49II,[],"104.040481,30.550479",中国银行(成都鹭洲里支行),B0FFH9HOAC,,[],四川省,[],[],2,95566,金融保险服务;银行;中国银行,160104
天府大道中段199号(棕榈泉国际中心),武侯区,[],[],[],成都市,[],B0FFH0VEID,[],"104.069704,30.554636",哈尔滨银行24小时自助银行(成都分行),[],,[],四川省,[],[],2,[],金融保险服务;自动提款机;自动提款机,160300
天府中路281-285号附近,彭州市,[],[],[],成都市,[],B0FFKXV6I0,[],"103.951488,30.978574",中国银行24小时自助银行,[],,[],四川省,[],[],2,[],金融保险服务;自动提款机;中国银行ATM,160301
锦晖西一街8号,武侯区,[],[],[],成都市,[],B0FFL30K85,[],"104.067071,30.586475",中信银行ATM,[],,[],四川省,[],[],2,[],金融保险服务;自动提款机;中信银行ATM,160308
白河路4段四川天府银行2楼,双流区,[],[],[],成都市,[],B0G1HCL19Z,[],"103.910098,30.567761",瑞思英语(双流白河校区),[],,[],四川省,[],[],0,028-61918370,科教文化服务;培训机构;培训机构,141400
天府科华路728号,温江区,[],[],[],成都市,[],B0FFH2BHEA,[],"103.818576,30.642230",成都农商银行(金马分理处),[],,[],四川省,[],[],2,028-82781063,金融保险服务;银行;农村商业银行,160121
下南大街6号天府绿洲大厦1层,青羊区,[],[],202,成都市,[],B0FFFFLGGR,[],"104.061227,30.649247",中国邮政储蓄银行ATM(天府绿洲大厦)(暂停营业),B001C7WOXI,,[],四川省,[],[],2,[],金融保险服务;自动提款机;中国邮政储蓄银行ATM,160336
天府路与学园路交叉路口往西约50米,郫都区,[],[],[],成都市,[],B0H6T45TLV,[],"103.973938,30.758319",中银富登村镇银行24小时自助银行,[],,[],四川省,[],[],2,[],金融保险服务;自动提款机;自动提款机,160300
天府二街333号,武侯区,[],[],[],成都市,[],B0FFHJEWX9,[],"104.060318,30.550609",长城华西银行(成都分行),[],,[],四川省,[],[],2,028-61963399,金融保险服务;银行;银行,160100
天府二街99号,武侯区,[],[],202,成都市,[],B0FFG4D4XF,[],"104.066764,30.550752",平安银行(成都分行营业部),B0FFFODSM2,,[],四川省,[],[],2,028-61805165,金融保险服务;银行;平安银行,160117
天府大道天韵路186号高新国际广场E座1层,武侯区,[],[],[],成都市,[],B001C80IUA,[],"104.065590,30.591639",交通银行(高新南区支行),[],,[],四川省,[],[],2,028-85316887,金融保险服务;银行;银行,160100
天府西路1-7,彭州市,[],[],3,成都市,[],B001C0AGBM,[],"103.941924,30.977789",中国建设银行24小时自助银行(彭州支行城南储蓄所),B001C0AGBL,,[],四川省,[],[],2,[],金融保险服务;自动提款机;中国建设银行ATM,160303
天府三街69号新希望国际,武侯区,[],[],202,成都市,[],B001C95DTC,[],"104.066521,30.546049",中国农业银行24小时自助银行(成都新希望国际支行),B0FFHOL8UW,,[],四川省,[],[],2,[],金融保险服务;自动提款机;中国农业银行ATM,160304
天府大道中段279号成达大厦,武侯区,[],[],202,成都市,[],B001C80T7U,[],"104.070449,30.551826",中国光大银行24小时自助银行(成都世纪城支行),B0FFFZUSTB,,[],四川省,[],[],2,[],金融保险服务;自动提款机;中国光大银行ATM,160310
天顺路66号天府民居,武侯区,[],[],[],成都市,[],B0FFFFU1MS,[],"104.071212,30.589383",成都银行24小时自助银行(高新支行),[],,[],四川省,[],[],2,[],金融保险服务;自动提款机;自动提款机,160300
天府二街999号伊藤洋华堂L1层,武侯区,[],[],201,成都市,[],B0FFIYYUCW,[],"104.044523,30.550710",中国银行ATM(伊藤洋华堂),B001C8O160,,[],四川省,[],[],2,[],金融保险服务;自动提款机;中国银行ATM,160301
大面街办金槐街158号天府逸家二期14栋,龙泉驿区,[],[],[],成都市,[],B0FFK4HXWV,[],"104.190652,30.573222",浙商银行(成都经济技术开发区支行),[],,[],四川省,[],[],2,[],金融保险服务;银行;银行,160100
[],武侯区,[],[],[],成都市,[],B0G1371WTK,[],"104.038599,30.551467",中国工商银24小时自助银行,[],,[],四川省,[],[],2,[],金融保险服务;自动提款机;中国工商银行ATM,160302
益州大道中段1999号9栋1单元1层8号,武侯区,[],[],202,成都市,[],B0FFM0YALS,[],"104.059779,30.542050",浙商银行24小时自助银行,B001C95DSR,,[],四川省,[],[],2,[],金融保险服务;自动提款机;自动提款机,160300
东大街下东大街段四川天府银行22层,锦江区,[],[],[],成都市,[],B0HGNUN8BW,[],"104.084097,30.649137",保而瑞网络科技有限公司,[],,[],四川省,[],[],1,[],公司企业;公司;公司,170200
湖畔路北段天府菁蓉中心B区10号楼附近,双流区,[],[],[],成都市,[],B0FFI00E9F,[],"104.080576,30.403359",中国建设银行24小时自助银行,[],,[],四川省,[],[],2,[],金融保险服务;自动提款机;中国建设银行ATM,160303
一环路东五段8号天府国际(近辉煌灯具城),锦江区,[],[],[],成都市,[],B001C929BS,[],"104.091135,30.641423",大连银行(成都九眼桥支行),[],,[],四川省,[],[],2,028-61303931,金融保险服务;银行;银行,160100
天府大道北段999号,武侯区,[],[],[],成都市,[],B0HGJRKLUB,[],"104.068876,30.586758",四川银行办公大楼,[],,[],四川省,[],[],0,[],商务住宅;楼宇;商务写字楼,120201
天府二街99号1栋附近,武侯区,[],[],[],成都市,[],B0FFIMSEB5,[],"104.066968,30.550554",平安银行,[],,[],四川省,[],[],2,[],金融保险服务;银行;平安银行,160117
天府大道南段150-156,双流区,[],[],[],成都市,[],B001C8RGBP,[],"104.068589,30.527685",中国银行24小时自助银行(华府支行),[],,[],四川省,[],[],2,[],金融保险服务;自动提款机;中国银行ATM,160301
天府二街99号新天府国际中心A座,武侯区,[],[],202,成都市,[],B001C7VGLB,[],"104.066705,30.550714",平安银行24小时自助银行(成都分行),B001C8P781,,[],四川省,[],[],2,[],金融保险服务;自动提款机;平安银行ATM,160314
正北上街24-30号,双流区,[],[],3,成都市,[],B001C8OBR8,[],"104.056111,30.506067",中国邮政储蓄银行24小时自助银行(华阳支行),B001C808DP,,[],四川省,[],[],2,[],金融保险服务;自动提款机;中国邮政储蓄银行ATM,160336
天府二街999号伊藤洋华堂高新店B1层,武侯区,[],[],[],成都市,[],B0FFGFNU31,[],"104.045685,30.550107",中国工商银行24小时自助银行(剑南大道支行),[],,[],四川省,[],[],2,[],金融保险服务;自动提款机;中国工商银行ATM,160302
龙湖・九里晴川161号(四川天府银行隔壁),双流区,[],diner,[],成都市,[],B0G3JO9CXZ,[],"104.076669,30.506826",嗨岛兔・手撕烤兔(广都店),[],,[],四川省,[],[],0,17761193908,餐饮服务;中餐厅;中餐厅,050100
天府二街99号新天府国际中心B座,武侯区,[],[],202,成都市,[],B0FFKXT6A4,[],"104.066339,30.550271",四川省银行业协会,B0FFFODSM2,,[],四川省,[],[],2,028-85988473,政府机构及社会团体;社会团体;行业协会,130407
天府台商开发区,温江区,[],[],3,成都市,[],B001C8N0JJ,[],"103.798903,30.675329",中国建设银行24小时自助银行(温江台商分理处),B001C807U1,,[],四川省,[],[],2,[],金融保险服务;自动提款机;中国建设银行ATM,160303
天府大道南段2028号石化大厦一期1号楼,双流区,[],[],202,成都市,[],B001C8NNJB,[],"104.069520,30.496076",上海浦东发展银行(成都城南支行),B001C805JE,,[],四川省,[],[],2,028-85861062;95528,金融保险服务;银行;上海浦东发展银行,160115
南华街与石盘街交叉口西50米,简阳市,[],[],[],成都市,[],B0FFHDM59Z,[],"104.415982,30.475217",简阳农商银行,[],,[],四川省,[],[],2,[],金融保险服务;银行;农村商业银行|金融保险服务;银行相关;银行相关,160121|160200
天府三街与萃华路交叉口西北50米,武侯区,[],[],[],成都市,[],B0FFGFNF2S,[],"104.065497,30.547209",大连银行24小时自助银行(金融城支行),[],,[],四川省,[],[],2,[],金融保险服务;自动提款机;自动提款机,160300
天府大道中段177号17栋1单元1层1号,武侯区,[],[],[],成都市,[],B0FFJTZL8O,[],"104.074046,30.551833",中国邮政储蓄银行(新会展支行),[],,[],四川省,[],[],2,95580,金融保险服务;银行;中国邮政储蓄银行,160139
成都天府国际机场天启街,简阳市,[],[],[],成都市,[],B0HAJH6QBJ,[],"104.449645,30.327847",中国农业银行,[],,[],四川省,[],[],2,[],金融保险服务;银行;中国农业银行,160107
华府大道一段518号,双流区,[],[],[],成都市,[],B0FFFPA22U,[],"104.059631,30.527089",中国银行24小时自助银行(成都自贸试验区分行),[],,[],四川省,[],[],2,[],金融保险服务;自动提款机;中国银行ATM,160301
天府大道中段1240天府软件园E区5层,武侯区,[],[],202,成都市,[],B001C8OAW8,[],"104.067382,30.539841",澳新银行运营服务(成都)有限公司,B0FFIZPWKX,,[],四川省,[],[],0,028-65006042,公司企业;公司;公司,170200
天府大道北段999号,武侯区,[],[],305,成都市,[],B0G0MDO2S4,[],"104.068668,30.587041",四川银行成都高新支行停车场,B0FFLLC9CK,地面,[],四川省,[],[],2,[],交通设施服务;停车场;公共停车场,150904
天府四街488号,武侯区,[],[],[],成都市,[],B0FFHBRT7C,[],"104.058106,30.54359",招商银行金融后台服务中心,[],,[],四川省,[],[],2,[],金融保险服务;银行相关;银行相关,160200
天府四街,武侯区,[],[],[],成都市,[],B0FFHNKDOH,[],"104.059003,30.543153",远程银行培训区,[],,[],四川省,[],[],0,[],科教文化服务;科教文化场所;科教文化场所,140000
天府大道88号附近,郫都区,[],[],[],成都市,[],B0FFKWX1UV,[],"103.976173,30.757637",兴业银行24小时自助银行(犀浦街道社区支行),[],,[],四川省,[],[],2,[],金融保险服务;自动提款机;兴业银行ATM,160315
天府二街999号伊藤洋华堂高新店1层,武侯区,[],[],202,成都市,[],B0FFFZBILN,[],"104.045764,30.548985",招商银行24小时自助银行(世豪广场支行),B0FFF9UNIK,,[],四川省,[],[],2,[],金融保险服务;自动提款机;招商银行ATM,160306
天府大道1号,郫都区,[],[],3,成都市,[],B001C92BGU,[],"103.973440,30.752267",成都农商银行24小时自助银行(犀浦中街分理处),B001C8VJJG,,[],四川省,[],[],2,[],金融保险服务;自动提款机;农村商业银行ATM,160318
[],武侯区,[],[],202,成都市,[],B001C80JFV,[],"104.064453,30.574678",中信银行(成都分行营业部),B001C8TY33,,[],四川省,[],[],2,028-65338885,金融保险服务;银行;中信银行,160111
天府科华路728号,温江区,[],[],[],成都市,[],B0FFFE00W7,[],"103.818499,30.642199",成都农商银行24小时自助银行(金马分理处),[],,[],四川省,[],[],2,[],金融保险服务;自动提款机;农村商业银行ATM,160318
天府四街488号招商银行金融后台服务中心招商银行,武侯区,[],[],[],成都市,[],B0FFIBY0HL,[],"104.059628,30.542536",成都信用卡运营中心,[],,[],四川省,[],[],0,[],公司企业;公司;公司,170200
天府二街99号附109,武侯区,[],[],[],成都市,[],B0FFFODSM1,[],"104.066043,30.550791",重庆银行24小时自助银行(成都分行),[],,[],四川省,[],[],2,[],金融保险服务;自动提款机;自动提款机,160300
迎宾大道,简阳市,[],[],[],成都市,[],B0GUPKWPK0,[],"104.248855,30.276501",自助银行服务中心(成都天府国际空港新城办公区),[],,[],四川省,[],[],2,[],金融保险服务;自动提款机;自动提款机,160300
盛华南路169号附近,武侯区,[],[],101,成都市,[],B0FFIQ0ZML,[],"104.053909,30.547086",中国农业银行益州大道支行(西门),B0FFGY0BUE,,[],四川省,[],[],2,[],通行设施;临街院门;临街院门,991400
天府三街南50米,武侯区,[],[],[],成都市,[],B0FFGB56U0,[],"104.054894,30.546645",中国工商银行后台中心成都(北门),[],,[],四川省,[],[],2,[],通行设施;临街院门;临街院门,991400
天府大道北段1700号环球中心洲际酒店写字楼19楼,武侯区,[],[],202,成都市,[],B0FFKDISJH,[],"104.064609,30.566828",中国工商银行四川省分行私人银行中心,B001C8PLZ0,,[],四川省,[],[],2,[],金融保险服务;金融保险服务机构;金融保险机构,160000
天府四街488号,武侯区,[],[],[],成都市,[],B001C8RHI9,[],"104.058105,30.543589",招商银行金融后台服务中心1期,[],,[],四川省,[],[],2,028-65593399,金融保险服务;银行相关;银行相关,160200
天府三街新希望B座2层(招商银行楼上),武侯区,[],diner,202,成都市,[],B0FFJL4V43,[],"104.066390,30.546359",蜀大侠(天府三街店),B0FFHOL8UW,,[],四川省,[],[],0,028-83333189,餐饮服务;中餐厅;火锅店,050117
天府三街一楼大堂,武侯区,[],[],[],成都市,[],B0FFM15EX8,[],"104.055122,30.545748",中国工商银行软件开发中心成都研发部,[],,[],四川省,[],[],0,[],科教文化服务;科教文化场所;科教文化场所,140000
天府三街南50米,武侯区,[],[],[],成都市,[],B0FFHRS9XJ,[],"104.054845,30.546444",中国工商银行后台中心成都停车场(出入口),[],,[],四川省,[],[],2,[],交通设施服务;停车场;停车场出入口,150909
天府菁蓉大厦楼下1层23号交通银行旁边,双流区,[],[],302,成都市,[],B0FFII5P2K,[],"104.071874,30.492345",玛雅房屋(天府菁蓉店),B001C805MI,,[],四川省,[],[],0,[],生活服务;生活服务场所;生活服务场所,070000
天府大道南段20T28号石化大厦1层,双流区,[],[],202,成都市,[],B001C8NOOM,[],"104.069379,30.496069",上海浦东发展银行ATM,B001C805JE,,[],四川省,[],[],2,[],金融保险服务;自动提款机;上海浦东发展银行ATM,160312
天府大道中段588号通威国际中心,武侯区,[],[],202,成都市,[],B0FFHAH190,[],"104.067895,30.550380",中国农业银行ATM(升华路),B001C8VXP7,,[],四川省,[],[],2,[],金融保险服务;自动提款机;中国农业银行ATM,160304
天府四街488号附近,武侯区,[],[],101,成都市,[],B0FFIQ10SR,[],"104.059633,30.542500",招商银行金融后台服务中心(南门),B0FFHBRT7C,,[],四川省,[],[],2,[],通行设施;临街院门;临街院门,991400
天府二街333号附近,武侯区,[],[],305,成都市,[],B0FFIMG2AA,[],"104.059966,30.550852",长城华西银行停车场,B0FFHJEWX9,其它,[],四川省,[],[],2,[],交通设施服务;停车场;专用停车场,150905
天乡路一段2461号,温江区,[],[],[],成都市,[],B001C8O20B,[],"103.836266,30.724250",成都农商银行(温江天乡分理处),[],,[],四川省,[],[],2,028-82610120;028-82611403,金融保险服务;银行;农村商业银行,160121
天府大道北段1700号环球中心天堂洲际大饭店1楼大厅,武侯区,[],[],202,成都市,[],B0FFGFPG8J,[],"104.061075,30.568214",兴业银行24小时自助银行(环球中心支行),B001C8PLZ0,,[],四川省,[],[],2,[],金融保险服务;自动提款机;兴业银行ATM,160315
天府大道北段1480号拉德方斯大厦,武侯区,[],[],202,成都市,[],B001C8VK0L,[],"104.064548,30.574751",中信银行24小时自助银行(成都分行营业部),B001C8TY33,,[],四川省,[],[],2,[],金融保险服务;自动提款机;中信银行ATM,160308
天府东路25号(中国建设银行旁边),彭州市,[],[],[],成都市,[],B0FFKSLTKI,[],"103.953547,30.978377",尹显兰诊所,[],,[],四川省,[],[],2,13880168100,医疗保健服务;诊所;诊所,090300
盛华南路169号附近,武侯区,[],[],[],成都市,[],B0FFIQ0ZKY,[],"104.054177,30.546892",中国农业银行益州大道支行停车场(出入口),[],,[],四川省,[],[],2,[],交通设施服务;停车场;停车场出入口,150909
西华门街17号天府中心7层,青羊区,[],[],202,成都市,[],B0FFI0KMVJ,[],"104.062250,30.661956",平安银行汽车消费金融中心,B001C7X7IJ,,[],四川省,[],[],2,028-86770254,金融保险服务;银行相关;银行相关,160200
云华路与天府三街交叉路口东南侧,武侯区,[],[],[],成都市,[],B0G3L9HJGC,[],"104.060992,30.546406",招商银行24小时自助银行,[],,[],四川省,[],[],2,[],金融保险服务;自动提款机;招商银行ATM,160306
赵镇金泉路168号(近金海岸・天府花园水城),金堂县,[],[],3,成都市,[],B001C8O34G,[],"104.409067,30.850719",中国邮政储蓄银行24小时自助银行(迎宾大道一段),B001C7ZWQ9,,[],四川省,[],[],2,[],金融保险服务;自动提款机;中国邮政储蓄银行ATM,160336
世纪城南路509号天府软件园D区,武侯区,[],[],[],成都市,[],B0FFF3AEAF,[],"104.075253,30.541341",中国建设银行ATM(青年1号东),[],,[],四川省,[],[],2,[],金融保险服务;自动提款机;中国建设银行ATM,160303
天府四街招商银行信用卡中心,武侯区,[],[],[],成都市,[],B0FFHFH077,[],"104.065865,30.546150",成都后台运营中心,[],,[],四川省,[],[],0,[],公司企业;公司;公司,170200
华府大道一段518号蜀郡A区77栋附近,双流区,[],[],305,成都市,[],B0FFH95ZW5,[],"104.060179,30.527088",中国银行天府新区支行停车场,B0FFFPA22X,地面,[],四川省,[],[],2,[],交通设施服务;停车场;公共停车场,150904
犀浦镇天府路天府大道35号附1号(中国邮政储蓄银行东行50米),郫都区,[],[],[],成都市,[],B0FFIDL2QP,[],"103.973735,30.758169",蕾特恩专业祛痘(犀浦店),[],,[],四川省,[],[],0,19980450018;028-67244775,生活服务;美容美发店;美容美发店,071100
天府四街与益州大道中段交叉口西北100米,武侯区,[],[],[],成都市,[],B0FFHGM1LQ,[],"104.055956,30.542835",中国邮政储蓄银行大厦A,[],,[],四川省,[],[],0,[],商务住宅;楼宇;商务写字楼,120201
天府四街与益州大道中段交叉口西北150米,武侯区,[],[],[],成都市,[],B0FFGFOS23,[],"104.056138,30.542853",中国邮政储蓄银行金融后台服务中心(成都),[],,[],四川省,[],[],2,[],金融保险服务;银行相关;银行相关,160200
天府二街138号蜀都中心二号楼1层,武侯区,[],[],202,成都市,[],B0FFLPBRRZ,[],"104.066837,30.552060",南充市商业银行24小时自助银行服务,B0FFFODH9Z,,[],四川省,[],[],2,[],金融保险服务;自动提款机;自动提款机,160300
悦和二街159号(天府银行左侧),双流区,[],[],[],成都市,[],B0GKGXCR6I,[],"104.076445,30.506893",心田花开学校(广都校区),[],,[],四川省,[],[],0,028-64200248;028-65731687,科教文化服务;科教文化场所;科教文化场所,140000
金泉路168金海岸・天府花园水城附近,金堂县,[],[],202,成都市,[],B001C7ZWQ9,[],"104.409070,30.850699",中国邮政储蓄银行(迎宾大道营业所),B0FFH3WBKD,,[],四川省,[],[],2,028-84155902,金融保险服务;银行;中国邮政储蓄银行,160139
天府三街372号建设银行旁边,武侯区,[],[],[],成都市,[],B0FFHRN96Z,[],"104.043688,30.546129",海迪护肤造型,[],,[],四川省,[],[],0,028-65782387,生活服务;美容美发店;美容美发店,071100
天府四街300号财智中心3栋B座成都银行,武侯区,[],[],[],成都市,[],B0FFLF7SUR,[],"104.061721,30.542806",上海中电,[],,[],四川省,[],[],0,[],公司企业;公司;公司,170200
天府三街峰汇中心218号2号楼中信银行旁,武侯区,[],[],[],成都市,[],B0FFKW32YB,[],"104.038294,30.547047",一品CG公寓销售中心,[],,[],四川省,[],[],0,[],生活服务;生活服务场所;生活服务场所,070000
天府三街峰汇中心218号2号楼中信银行旁,武侯区,[],[],[],成都市,[],B0FFIMZ74T,[],"104.038315,30.547016",一品CG营销中心,[],,[],四川省,[],[],0,[],生活服务;生活服务场所;生活服务场所,070000
天府东路38号金阁新城旁(彭州民生村镇银行旁),彭州市,[],diner,[],成都市,[],B0FFI097Z5,[],"103.955318,30.977769",川江滋香老火锅(彭州店),[],,[],四川省,[],[],0,028-83459696;028-83458696,餐饮服务;中餐厅;火锅店,050117
盛华南路169号,武侯区,[],[],[],成都市,[],B0FFI64AQT,[],"104.053920,30.547144",成都市高速公路ETC安装点(农行益州大道支行),[],,[],四川省,[],[],0,028-65733847,生活服务;生活服务场所;生活服务场所,070000
天府街道南林路403号交通银行旁,温江区,[],diner,[],成都市,[],B0FFHEL8B8,[],"103.819400,30.691449",饮乐汁店,[],,[],四川省,[],[],0,15902850184,餐饮服务;冷饮店;冷饮店,050700
天府四街与益州大道中段交叉口西北100米,武侯区,[],[],101,成都市,[],B0FFHGM1G9,[],"104.056346,30.542557",中国邮政储蓄银行大厦A(东南门),B0FFHGM1LQ,,[],四川省,[],[],2,[],通行设施;建筑物门;建筑物门,991000
天府软件园A5-302(建设银行左侧3层),武侯区,[],[],202,成都市,[],B0FFKWBERP,[],"104.071324,30.550485",四川三思德科技有限公司(总部),B001C93C46,,[],四川省,[],[],1,[],公司企业;公司企业;公司企业,170000
天府软件园A5-302(建设银行左侧),武侯区,[],[],202,成都市,[],B0FFKYGBCA,[],"104.071306,30.550421",四川望村网络科技有限公司,B001C93C46,,[],四川省,[],[],1,028-64631559,公司企业;公司;公司,170200
西华门街20号附1平安银行(天府支行),青羊区,[],diner,[],成都市,[],B0G1FALZ0D,[],"104.062761,30.661588",肖一碗风味面馆(西华门街店),[],,[],四川省,[],[],0,[],餐饮服务;中餐厅;中餐厅,050100
通盈街122号(锦天府农业银行旁),锦江区,[],[],[],成都市,[],B0G14BCGMM,[],"104.105463,30.630717",学大教育(东大街学习中心),[],,[],四川省,[],[],0,028-86699695;028-83206163,科教文化服务;培训机构;培训机构,141400
天府大道北段966号天府国际金融中心3号楼6-7层,武侯区,[],[],202,成都市,[],B0FFFGMYBU,[],"104.065141,30.583696",中国银行保险监督管理委员会四川监管局,B0FFFGMYBQ,,[],四川省,[],[],2,[],政府机构及社会团体;政府机关;省直辖市级政府及事业单位,130102
"天府四街488号(银泰城9号楼,浙商银行旁)",武侯区,[],[],202,成都市,[],B0FFJD5OIG,[],"104.059844,30.541897",水果地带(银泰城店),B0FFIWN91W,,[],四川省,[],[],0,18228079131;028-68380103;4006693721,购物服务;综合市场;果品市场,060704
高新区天府二街99号新天府国际中心b座,武侯区,[],[],[],成都市,[],B0FFL9Q4JH,[],"104.066075,30.550041",平安银行大厦,[],,[],四川省,[],[],0,[],商务住宅;楼宇;商务写字楼,120201
正东上街与正北上街交叉口东北100米,双流区,[],[],[],成都市,[],B0FFK85S71,[],"104.055966,30.505942",中国共产党中国邮政储蓄银行股份有限公司天府新区支行支部委员会,[],,[],四川省,[],[],2,[],金融保险服务;金融保险服务机构;金融保险机构,160000
天府大道中段199号棕榈泉国际金融中心哈尔滨银行成都分行8楼,武侯区,[],[],[],成都市,[],B0FFL359XJ,[],"104.069602,30.555239",成都市哈尔滨商会,[],,[],四川省,[],[],2,[],政府机构及社会团体;社会团体;社会团体相关,130400
犀浦镇天府路23号(工商银行旁),郫都区,[],diner,[],成都市,[],B0FFGITHHR,[],"103.971831,30.758931",齐家面道坊,[],,[],四川省,[],[],0,15881188991,餐饮服务;中餐厅;中餐厅,050100
华阳海昌南路65号,双流区,[],[],[],成都市,[],B0FFHOEJ2W,[],"104.073212,30.491551",成都市高速公路ETC安装点(建行天府新区支行),[],,[],四川省,[],[],0,028-85753053,生活服务;生活服务场所;生活服务场所,070000
天长路91、93、95号1层,武侯区,[],[],[],成都市,[],B0FFHOEKKM,[],"104.075977,30.593268",成都市高速公路ETC安装点(建行天府长城支行),[],,[],四川省,[],[],0,028-85973208,生活服务;生活服务场所;生活服务场所,070000
天仁路388号凯德天府广场,武侯区,[],[],202,成都市,[],B0FFI64AQC,[],"104.070521,30.602632",成都市高速公路ETC安装点(农行成都凯德天府支行),B001C8P59N,,[],四川省,[],[],0,028-84191154,生活服务;生活服务场所;生活服务场所,070000
通盈街42号绿地锦天府沿街商铺兴业银行旁,锦江区,[],[],[],成都市,[],B0FFJCTRST,[],"104.103529,30.631654",与梦想花园(锦天府店),[],,[],四川省,[],[],0,15884570817,购物服务;花鸟鱼虫市场;花卉市场,060501
桂溪街道高新区天府二街新天府国际中心b座平安银行商务中心,武侯区,[],[],[],成都市,[],B0FFLD7TLH,[],"104.066111,30.550003",平安银行商务中心,[],,[],四川省,[],[],2,[],金融保险服务;金融保险服务机构;金融保险机构,160000
天府三街19号新希望国际A座302号,武侯区,[],[],202,成都市,[],B0FFHNF1UE,[],"104.067915,30.546615",招商证券,B001C8RGHG,,[],四川省,[],[],2,028-61069808,金融保险服务;证券公司;证券公司,160500
朝阳南路279号靠近中国农业发展银行,彭州市,[],[],[],成都市,[],B001C8Z7YQ,[],"103.947938,30.975431",林华副食,[],,[],四川省,[],[],0,15208150830,购物服务;综合市场;农副产品市场|购物服务;便民商店/便利店;便民商店/便利店,060703|060200
天府街中段附近,温江区,[],[],[],成都市,[],B0G1HHKLMI,[],"103.795561,30.686735",成都农商银行温江支行小微信贷中心,[],,[],四川省,[],[],2,[],金融保险服务;金融保险服务机构;金融保险机构,160000
天府长城天久街3号图南多(中国银行旁)(武侯区天顺路222号),武侯区,[],diner,[],成都市,[],B0FFKH39CW,[],"104.071597,30.592982",陈皓皓老火锅(天府长城店),[],,[],四川省,[],[],0,18602847077,餐饮服务;餐饮相关场所;餐饮相关,050000
城区天府大道北1段1480号中信银行西楼,武侯区,[],[],[],成都市,[],B0HG05YMTV,[],"104.064403,30.574792",中建投公司,[],,[],四川省,[],[],0,[],公司企业;公司;公司,170200
天府逸家二期14栋3楼(浙商银行三楼),龙泉驿区,[],[],[],成都市,[],B0G2H5PN32,[],"104.190397,30.572995",卡奇乐儿童乐园,[],,[],四川省,[],[],1,[],体育休闲服务;休闲场所;游乐场,080501
天府三街天合凯旋广场2号楼1203(贵阳银行隔壁),武侯区,[],[],[],成都市,[],B0FFLNGB49,[],"104.065337,30.545081",燃・FIT,[],,[],四川省,[],[],0,028-65293290,购物服务;购物相关场所;购物相关场所,060000
天府大道中段1号新会展中心南门工商银行2层,武侯区,[],diner,[],成都市,[],B0FFLFLBM2,[],"104.075159,30.553134",乔一乔怪味餐厅(世纪城店),[],,[],四川省,[],[],0,028-65750066,餐饮服务;中餐厅;中餐厅,050100
天府路润扬双铁广场一楼兴业银行与阿迪达斯之间,郫都区,[],[],[],成都市,[],B0FFL50AA7,[],"103.976171,30.757824",天才计划DIY陶艺手工馆(犀浦润扬双铁广场店),[],,[],四川省,[],[],0,19181723840,购物服务;专卖店;专营店,061200
天府三街69号新希望国际B座招商银行内,武侯区,[],[],202,成都市,[],B0FFJX8ST8,[],"104.066978,30.546118",招商证券升华路咨询点,B0FFF006BK,,[],四川省,[],[],2,13608026756,金融保险服务;金融保险服务机构;金融保险机构,160000
天府新区华阳街道华府大道一段932号农业银行旁边,双流区,[],[],[],成都市,[],B0FFHG09X9,[],"104.049838,30.526811",TZ雅轩美容美发会所(华府店),[],,[],四川省,[],[],0,028-62753958,生活服务;美容美发店;美容美发店,071100
天府新区华府大道一段898号8栋建设银行楼上3楼,双流区,[],[],[],成都市,[],B0FFFOD89K,[],"104.052110,30.526956",美之露美容养生SPA会所(华阳店),[],,[],四川省,[],[],0,028-62580961;18982053531;028-69911886,生活服务;美容美发店;美容美发店|购物服务;购物相关场所;购物相关场所,071100|060000
天府新区白沙镇白沙街农商银行对面白沙村一组147号,双流区,[],[],[],成都市,[],B0FFHI186U,[],"104.155275,30.468648",成都市诚品文化传播有限公司,[],,[],四川省,[],[],0,[],科教文化服务;科教文化场所;科教文化场所,140000
华金大道406号齐盛艺品2层(和谐广场正对面・天府银行2层),青白江区,[],[],[],成都市,[],B0FFF2EAC6,[],"104.256863,30.883344",望子成龙学校(青白江分校),[],,[],四川省,[],[],0,028-83694211,科教文化服务;培训机构;培训机构,141400
华府大道一段518号蜀郡A区77栋附近,双流区,[],[],305,成都市,[],B0FFIMFXQK,[],"104.059993,30.527048",中国银行停车场,B0FFFPA22X,其它,[],四川省,[],[],2,[],交通设施服务;停车场;公共停车场,150904
天府新区万安路西段201号,双流区,[],[],[],成都市,[],B0H6BZDMNW,[],"104.106072,30.486838",人社服务合作网点(成都农商银行万安支行),[],,[],四川省,[],[],2,[],政府机构及社会团体;政府机关;政府机关相关,130100
兴隆湖科学城天府菁蓉中心A区1-1033号,双流区,[],[],202,成都市,[],B0FFHD65CK,[],"104.078479,30.402438",中国农业银行24小时自助银行(成都自贸区支行),B0FFL1D46W,,[],四川省,[],[],2,[],金融保险服务;金融保险服务机构;金融保险机构,160000
天府大道北段20号,武侯区,[],[],305,成都市,[],B001C8YCBD,[],"104.066934,30.591185",中国农业银行-专用停车场,B001C8P6XZ,,[],四川省,[],[],2,[],交通设施服务;停车场;公共停车场,150904
天府新区兴隆街道湖畔路西段113号(工商银行旁),双流区,[],diner,202,成都市,[],B0FFKQ4IUR,[],"104.074392,30.395593",GANSO元祖食品(兴隆湖店),B0FFIZ9VLU,,[],四川省,[],[],0,028-62485808;13668115334,餐饮服务;糕饼店;糕饼店|购物服务;购物相关场所;购物相关场所,050800|060000
天府三街69号新希望国际B座广场2楼(招商银行楼上),武侯区,[],diner,202,成都市,[],B0FFK808OJ,[],"104.066429,30.546213",牛水煮・麻辣水煮牛肉(天府三街旗舰店),B0FFF006BK,,[],四川省,[],[],0,17723305201,餐饮服务;中餐厅;中餐厅,050100
成都市高新区银泰城3号门悦坊9栋3楼(浙商银行楼上),武侯区,[],[],202,成都市,[],B0HAKBFEXK,[],"104.059942,30.541891",纳堡树科学(银泰城店),B001C95DSR,,[],四川省,[],[],0,028-86054640,科教文化服务;科教文化场所;科教文化场所,140000
高新区吉泰路49号1层(建设银行旁),武侯区,[],[],[],成都市,[],B0GU7HGIVB,[],"104.059996,30.538380",成都六益图文,[],,[],四川省,[],[],1,028-61961423;15228956861,生活服务;摄影冲印店;摄影冲印,071300
水电大厦旁乐山银行楼上,武侯区,[],[],[],成都市,[],B0FFKKYBP2,[],"104.064523,30.551087",玖拾空间,[],,[],四川省,[],[],0,18402898739,公司企业;公司企业;公司企业,170000
招商银行金融服务中心b6层,武侯区,[],[],[],成都市,[],B0FFK7U3V9,[],"104.059038,30.543045",网络经营服务中心,[],,[],四川省,[],[],2,[],金融保险服务;金融保险服务机构;金融保险机构,160000
银泰城2栋2楼207号泸州商业银行旁扶手电梯上楼,武侯区,[],diner,202,成都市,[],B0FFHN2VHB,[],"104.060611,30.541788",一兜麦,B001C95DSR,,[],四川省,[],[],1,18283584754,餐饮服务;咖啡厅;咖啡厅,050500
郫都区郫都区犀浦地铁站万树森林一期中国银行楼上3楼,郫都区,[],[],[],成都市,[],B0FFH2BLIN,[],"103.974014,30.757389",美东锦装饰旧房改造新房装修,[],,[],四川省,[],[],1,18080438996,公司企业;公司;公司|生活服务;生活服务场所;生活服务场所,170200|070000
益州大道1999号9栋1单元(浙商银行旁),武侯区,[],[],202,成都市,[],B0FFJ2IVOT,[],"104.059719,30.541815",苹果手机维修中心(银泰城店),B001C95DSR,,[],四川省,[],[],1,15168449735,购物服务;家电电子卖场;手机销售,060305
天府新区籍田街道东街92号,双流区,[],[],[],成都市,[],B0H6BZF3LK,[],"104.023759,30.307367",人社服务合作网点(成都农商银行籍田东北街分理处),[],,[],四川省,[],[],2,[],政府机构及社会团体;政府机关;政府机关相关,130100
天府二街333号附近,武侯区,[],[],108,成都市,[],B0FFIMG2Z1,[],"104.060309,30.550695",长城华西银行停车场(出入口),B0FFIMG2AA,,[],四川省,[],[],2,[],交通设施服务;停车场;停车场出入口,150909
天府二街建发鹭洲里西广场一楼103-107号(中国银行旁边),武侯区,[],[],202,成都市,[],B0FFM1PCNM,[],"104.040475,30.550500",酷里南,B0FFKLBUFY,,[],四川省,[],[],0,028-85099832;15680002750,体育休闲服务;娱乐场所;酒吧,080304
桂溪街道天府大道北段1480号拉德方斯东楼12楼中信银行成都审计中心,武侯区,[],[],202,成都市,[],B0FFL953U1,[],"104.064708,30.574626",成都审计中心,B001C8TY33,,[],四川省,[],[],2,[],政府机构及社会团体;政府机关;政府机关相关,130100
天府长城・南熙里天长路30号3层(农业银行楼上天佑茶府旁),武侯区,[],[],[],成都市,[],B0FFI1CKW9,[],"104.075257,30.592742",七莲瑜伽,[],,[],四川省,[],[],0,028-83221567;028-67758787;15982292839,体育休闲服务;运动场馆;健身中心,080111
锦晖西二街天府新谷10号楼(中国建设银行东100米),武侯区,[],diner,[],成都市,[],B0G31DWJY0,[],"104.056469,30.585844",蓉庭新川菜・宴会厅,[],,[],四川省,[],[],0,028-67136677;028-67139966,餐饮服务;中餐厅;四川菜(川菜),050102
天府大道北段1677号交子金融科技中心,武侯区,[],[],[],成都市,[],B0GUXRAZRN,[],"104.069927,30.577708",中国人民银行个人信用报告代理查询服务点,[],,[],四川省,[],[],2,[],金融保险服务;金融保险服务机构;金融保险机构,160000
天府一街535号两江国际b栋,武侯区,[],[],[],成都市,[],B0HGVXSUVA,[],"104.058274,30.559365",交通银行股份有限公司,[],,[],四川省,[],[],2,[],金融保险服务;金融保险服务机构;金融保险机构,160000
体育路2号西星大厦成都银行旁,青羊区,[],hotel,202,成都市,[],B001C7V44B,[],"104.069948,30.663175",富洋酒店(天府广场店),B001C7WPIQ,,[],四川省,[],[],0,028-86751869,住宿服务;宾馆酒店;宾馆酒店,100100
天府大道北段1480号德商国际A座裙楼6层,武侯区,[],[],[],成都市,[],B0G1PUMCKC,[],"104.060635,30.574936",西南证券有限责任公司成都投资银行部,[],,[],四川省,[],[],2,[],金融保险服务;证券公司;证券公司,160500
东华门街53号富力史丹尼国际公寓B座1116室(工商银行自助取款旁左边玻璃门B座入口),青羊区,[],hotel,202,成都市,[],B0FFF6WB14,[],"104.069116,30.665643",成都巴蜀之家度假公寓天府广场店,B0FFHXNCLO,,[],四川省,[],[],0,18111651160;028-86981628,住宿服务;旅馆招待所;旅馆招待所,100200
天久街5号(中国银行),武侯区,[],[],[],成都市,[],B0FFJKT0VQ,[],"104.071614,30.593209",丝域养发馆(天府长城店),[],,[],四川省,[],[],0,028-63913618;18602872052,生活服务;生活服务场所;生活服务场所,070000
西御街77号国信大厦(西侧)2层(成都银行对面),青羊区,[],[],202,成都市,[],B001C935X1,[],"104.061096,30.656089",望子成龙学校(天府广场校区),B0FFFZUS5C,,[],四川省,[],[],0,028-86198655;17318609027;028-85565012,科教文化服务;培训机构;培训机构,141400
顺城大街316号融城云熙A座2215(中国农业银行楼上),青羊区,[],hotel,[],成都市,[],B0FFILCPG2,[],"104.071223,30.669519",成都蓉城・云熙精品名宿公寓,[],,[],四川省,[],[],0,17340028726,住宿服务;住宿服务相关;住宿服务相关,100000
南河东街与天府南路交叉口东南50米,彭州市,[],[],305,成都市,[],B0FFI6JU6Q,[],"103.948024,30.974375",天乐苑停车场,B001C8NTO4,,[],四川省,[],[],2,[],交通设施服务;停车场;专用停车场,150905
顺城大街88号,锦江区,[],hotel,[],成都市,[],B001C04C74,[],"104.071583,30.659065",银河王朝大酒店,[],,[],四川省,[],[],1,028-86618888,住宿服务;宾馆酒店;四星级宾馆,100103
高新孵化园天府大道北段1480号德商国际A座1层103-104号,武侯区,[],[],202,成都市,[],B0FFHOERI4,[],"104.060713,30.575082",成都市高速公路ETC安装点(建行益州支行),B0FFF2JJ9K,,[],四川省,[],[],0,028-85325387,生活服务;生活服务场所;生活服务场所,070000
天府三街91号,武侯区,[],[],[],成都市,[],B0FFGAAN3Y,[],"104.065563,30.546502",成都海洋莱普敦酒店-自动取款机,[],,[],四川省,[],[],2,[],金融保险服务;自动提款机;自动提款机,160300
西御街(近成都银行总行),青羊区,[],diner,302,成都市,[],B0FFF4VQVN,[],"104.062540,30.656509",清真烤羊肉串(西御街),B001C05GLK,,[],四川省,[],[],0,15828301929,餐饮服务;中餐厅;特色/地方风味餐厅|餐饮服务;中餐厅;清真菜馆,050118|050121
