address,adname,biz_ext,biz_type,childtype,cityname,distance,id,importance,location,name,parent,photos,pname,poiweight,shopid,shopinfo,tel,type,typecode
日月大道一段978号万达广场青羊金街1层,青羊区,[],[],202,成都市,[],B0FFKW5DVP,[],"103.973180,30.676796",中国农业银行24小时自助银行(万达支行),B0FFFZPMAL,[],四川省,[],[],2,[],金融保险服务;自动提款机;中国农业银行ATM,160304
上沙河铺街与东大街交叉口南50米,锦江区,[],[],[],成都市,[],B0FFKVZT4P,[],"104.122081,30.623863",中国农业银行24小时自助银行(沙河堡支行),[],[],四川省,[],[],2,[],金融保险服务;自动提款机;中国农业银行ATM,160304
东秀一路与杉板桥南一路交叉口东南50米,成华区,[],[],[],成都市,[],B0FFKVZJ05,[],"104.117741,30.660928",中国农业银行24小时自助银行(杉板桥分理处),[],[],四川省,[],[],2,[],金融保险服务;自动提款机;中国农业银行ATM,160304
[],成华区,[],[],[],成都市,[],B0FFKSDFVH,[],"104.155104,30.627031",中国农业银行24小时自助银行,[],[],四川省,[],[],2,[],金融保险服务;自动提款机;中国农业银行ATM,160304
成都工业学院长虹会堂后1层,郫都区,[],[],[],成都市,[],B0FFILF448,[],"103.886984,30.789097",中国农业银行24小时自助银行(不对外),[],[],四川省,[],[],2,[],金融保险服务;自动提款机;中国农业银行ATM,160304
天府大道639号附1号,都江堰市,[],[],[],成都市,[],B0FFF0KBNN,[],"103.646165,30.955369",中国农业银行ATM(社保分理处),[],[],四川省,[],[],2,[],金融保险服务;自动提款机;中国农业银行ATM,160304
剑南大道中段761、767号,武侯区,[],[],[],成都市,[],B0FFF9ULJU,[],"104.046694,30.556806",中国农业银行24小时自助银行(新南支行),[],[],四川省,[],[],2,[],金融保险服务;自动提款机;中国农业银行ATM,160304
南大街160号,郫都区,[],[],3,成都市,[],B001C0AGPI,[],"103.883716,30.807398",中国农业银行24小时自助银行(成都西区支行营业部),B001C0AGRT,[],四川省,[],[],2,[],金融保险服务;自动提款机;中国农业银行ATM,160304
芙蓉路118附近,温江区,[],[],[],成都市,[],B001C8P70X,[],"103.917223,30.703130",中国农业银行24小时自助银行(芙蓉路),[],[],四川省,[],[],2,[],金融保险服务;自动提款机;中国农业银行ATM,160304
S106(桥楼街),蒲江县,[],[],[],成都市,[],B0FFFWL426,[],"103.509984,30.298762",中国农业银行24小时自助银行,[],[],四川省,[],[],2,[],金融保险服务;自动提款机;中国农业银行ATM,160304
川橡路249号附近,简阳市,[],[],[],成都市,[],B0FFFS71NC,[],"104.504080,30.500969",中国农业银行24小时自助银行,[],[],四川省,[],[],2,[],金融保险服务;自动提款机;中国农业银行ATM,160304
华府大道一段926号附近,双流区,[],[],[],成都市,[],B0FFFOD9UJ,[],"104.050292,30.526766",中国农业银行24小时自助银行(成都华府支行),[],[],四川省,[],[],2,[],金融保险服务;自动提款机;中国农业银行ATM,160304
东升路与金融街交叉口东50米,简阳市,[],[],[],成都市,[],B0FFHKEGHI,[],"104.545285,30.407228",中国农业银行24小时自助银行(东升路支行),[],[],四川省,[],[],2,[],金融保险服务;自动提款机;中国农业银行ATM,160304
双林中横路16-24号,成华区,[],[],3,成都市,[],B001C0AGRY,[],"104.109926,30.651519",中国农业银行24小时自助银行(新华小区自助银行),B001C06KU6,[],四川省,[],[],2,[],金融保险服务;自动提款机;中国农业银行ATM,160304
菁华路128号,青白江区,[],[],3,成都市,[],B001C8R73C,[],"104.269940,30.885524",中国农业银行24小时自助银行(青白江凤凰湖分理处),B001C8O3GK,[],四川省,[],[],2,[],金融保险服务;自动提款机;中国农业银行ATM,160304
兆景路504号,武侯区,[],[],[],成都市,[],B0FFFE0EFH,[],"103.988369,30.621477",中国农业银行24小时自助银行(武科支行),[],[],四川省,[],[],2,[],金融保险服务;自动提款机;中国农业银行ATM,160304
元通镇通锦下街12号,崇州市,[],[],[],成都市,[],B0FFGBI3HZ,[],"103.624224,30.734227",中国农业银行24小时自助银行(崇州元通分理处),[],[],四川省,[],[],2,[],金融保险服务;自动提款机;中国农业银行ATM,160304
二环路北三段北站东二路,金牛区,[],[],202,成都市,[],B001C06VVG,[],"104.079753,30.693879",中国农业银行(成都北站东路支行),B001C03D32,[],四川省,[],[],2,028-83314891;028-83398410,金融保险服务;银行;中国农业银行,160107
天府三街69号新希望国际,武侯区,[],[],202,成都市,[],B001C95DTC,[],"104.066521,30.546049",中国农业银行24小时自助银行(成都新希望国际支行),B0FFHOL8UW,[],四川省,[],[],2,[],金融保险服务;自动提款机;中国农业银行ATM,160304
迎宾大道与渠山路交叉路口东侧(鹤翔山庄),都江堰市,[],[],[],成都市,[],B001C8ODGY,[],"103.589768,30.895837",中国农业银行24小时自助银行(成都分行),[],[],四川省,[],[],2,[],金融保险服务;自动提款机;中国农业银行ATM,160304
市场路228号,彭州市,[],[],3,成都市,[],B001C80KMU,[],"103.829808,31.160135",中国农业银行24小时自助银行(通济分理处),B001C80KMT,[],四川省,[],[],2,[],金融保险服务;自动提款机;中国农业银行ATM,160304
简城镇红建路175-179号,简阳市,[],[],[],成都市,[],B0FFF5YAI0,[],"104.551128,30.393938",中国农业银行24小时自助银行,[],[],四川省,[],[],2,[],金融保险服务;自动提款机;中国农业银行ATM,160304
新创路6成都中医药大学高新校区,郫都区,[],[],[],成都市,[],B0FFF2OVDD,[],"103.953630,30.740904",中国农业银行ATM(新创路),[],[],四川省,[],[],2,[],金融保险服务;自动提款机;中国农业银行ATM,160304
三岔街道三岔街200号,简阳市,[],[],[],成都市,[],B0FFF3UEMV,[],"104.300827,30.297728",中国农业银行24小时自助银行,[],[],四川省,[],[],2,[],金融保险服务;自动提款机;中国农业银行ATM,160304
蜀蓉路2号,金牛区,[],[],3,成都市,[],B001C7WBVF,[],"104.024985,30.686683",中国农业银行24小时自助银行(蜀汉路支行),B001C7WBVG,[],四川省,[],[],2,[],金融保险服务;自动提款机;中国农业银行ATM,160304
文井中路139号,崇州市,[],[],3,成都市,[],B001C8OF2E,[],"103.525796,30.742780",中国农业银行24小时自助银行(崇州怀远分理处),B001C8MCGH,[],四川省,[],[],2,[],金融保险服务;自动提款机;中国农业银行ATM,160304
新华大道双林路119号,成华区,[],[],3,成都市,[],B001C0AGQA,[],"104.100256,30.657750",中国农业银行24小时自助银行(成都锦东支行),B001C06FMV,[],四川省,[],[],2,[],金融保险服务;自动提款机;中国农业银行ATM,160304
红旗大道南段328号,郫都区,[],[],[],成都市,[],B001C8VF3Y,[],"103.854108,30.773524",中国农业银行24小时自助银行(德源支行),[],[],四川省,[],[],2,[],金融保险服务;自动提款机;中国农业银行ATM,160304
犀浦街道犀浦下街360-366号,郫都区,[],[],3,成都市,[],B001C808UB,[],"103.973453,30.752081",中国农业银行24小时自助银行(犀浦一所分理处),B001C808UA,[],四川省,[],[],2,[],金融保险服务;自动提款机;中国农业银行ATM,160304
金福北路17-23号,青羊区,[],[],3,成都市,[],B001C8MUSR,[],"103.984960,30.680263",中国农业银行ATM(成都金福支行),B001C805L5,[],四川省,[],[],2,[],金融保险服务;自动提款机;中国农业银行ATM,160304
五津西路128号,新津区,[],[],3,成都市,[],B001C7UX56,[],"103.807658,30.414750",中国农业银行24小时自助银行(顺江分理处),B001C05I5B,[],四川省,[],[],2,[],金融保险服务;自动提款机;中国农业银行ATM,160304
洞子口路333号附1-2号,金牛区,[],[],3,成都市,[],B001C8P6ME,[],"104.060966,30.721731",中国农业银行24小时自助银行(洞子口支行),B001C8P767,[],四川省,[],[],2,[],金融保险服务;自动提款机;中国农业银行ATM,160304
鹤山镇政府街40号,蒲江县,[],[],[],成都市,[],B0FFF40Q3J,[],"103.506184,30.196510",中国农业银行24小时自助银行(政府街),[],[],四川省,[],[],2,[],金融保险服务;自动提款机;中国农业银行ATM,160304
南街81-89,新都区,[],[],3,成都市,[],B001C8OAG0,[],"104.026471,30.818320",中国农业银行24小时自助银行(龙桥分理处),B001C0AGTI,[],四川省,[],[],2,[],金融保险服务;自动提款机;中国农业银行ATM,160304
翔凤路689-691号,都江堰市,[],[],3,成都市,[],B001C8OLQF,[],"103.641876,30.972962",中国农业银行24小时自助银行(翔凤分理处),B001C8OM04,[],四川省,[],[],2,[],金融保险服务;自动提款机;中国农业银行ATM,160304
官仓路与惠安大道交叉口东南200米,彭州市,[],[],[],成都市,[],B0FFJF30QZ,[],"103.959787,31.132091",中国农业银行24小时自助银行(葛仙山镇自助银行),[],[],四川省,[],[],2,[],金融保险服务;自动提款机;中国农业银行ATM,160304
和平路68-74号,龙泉驿区,[],[],3,成都市,[],B001C8MZQJ,[],"104.177566,30.650310",中国农业银行24小时自助银行(十陵支行),B001C8MR5F,[],四川省,[],[],2,[],金融保险服务;自动提款机;中国农业银行ATM,160304
金地路103号附近,龙泉驿区,[],[],[],成都市,[],B0FFGMXHOY,[],"104.193313,30.583932",中国农业银行24小时自助银行(金地路),[],[],四川省,[],[],2,[],金融保险服务;自动提款机;中国农业银行ATM,160304
兴淮大道190-196号,金堂县,[],[],[],成都市,[],B0FFFADCIM,[],"104.546720,30.715566",中国农业银行24小时自助银行(金堂兴淮分理处),[],[],四川省,[],[],2,[],金融保险服务;自动提款机;中国农业银行ATM,160304
高新区芳草街47号附1号,武侯区,[],[],[],成都市,[],B0FFG1I0EN,[],"104.052292,30.627188",中国农业银行24小时自助银行(芳草街),[],[],四川省,[],[],2,[],金融保险服务;自动提款机;中国农业银行ATM,160304
青羊大道10号附5-7号,青羊区,[],[],3,成都市,[],B001C7WQZF,[],"104.008643,30.658232",中国农业银行24小时自助银行(成都花园支行),B001C7TKL0,[],四川省,[],[],2,[],金融保险服务;自动提款机;中国农业银行ATM,160304
光华大道三段1623号附近,温江区,[],[],[],成都市,[],B0FFG9YNLJ,[],"103.864265,30.682049",中国农业银行24小时自助银行(光华大道三段),[],[],四川省,[],[],2,[],金融保险服务;自动提款机;中国农业银行ATM,160304
牛沙南路3号1层附14号,锦江区,[],[],202,成都市,[],B001C7WR08,[],"104.108178,30.621261",中国农业银行24小时自助银行(静居寺支行),B001C7WF5V,[],四川省,[],[],2,[],金融保险服务;自动提款机;中国农业银行ATM,160304
仁和街与新犀路交叉口,郫都区,[],[],[],成都市,[],B0FFGDRP40,[],"103.980892,30.816628",中国农业银行24小时自助银行(仁和街),[],[],四川省,[],[],2,[],金融保险服务;自动提款机;中国农业银行ATM,160304
滨江路一段55号附近,金堂县,[],[],[],成都市,[],B0FFG7992O,[],"104.428444,30.849486",中国农业银行24小时自助银行(滨江路一段),[],[],四川省,[],[],2,[],金融保险服务;自动提款机;中国农业银行ATM,160304
平安路一段147号,青白江区,[],[],3,成都市,[],B001C8MJZM,[],"104.393454,30.746742",中国农业银行24小时自助银行(平安路分理处),B001C7YJUD,[],四川省,[],[],2,[],金融保险服务;自动提款机;中国农业银行ATM,160304
王泗镇营经大道212-222号,大邑县,[],[],3,成都市,[],B001C7ZZJ4,[],"103.475997,30.518320",中国农业银行24小时自助银行(王泗分理处),B001C7ZZJ3,[],四川省,[],[],2,[],金融保险服务;自动提款机;中国农业银行ATM,160304
养马街道天华街67号西南方向5米,简阳市,[],[],[],成都市,[],B0FFHS59K2,[],"104.506250,30.494050",中国农业银行24小时自助银行,[],[],四川省,[],[],2,[],金融保险服务;自动提款机;中国农业银行ATM,160304
白衣下街与迎春路四段交叉口东50米,双流区,[],[],[],成都市,[],B0FFGFV4AT,[],"103.915162,30.579675",中国农业银行24小时自助银行(迎春路四段),[],[],四川省,[],[],2,[],金融保险服务;自动提款机;中国农业银行ATM,160304
解放路一段83号附6-8号,金牛区,[],[],3,成都市,[],B001C0AGSX,[],"104.088279,30.689722",中国农业银行24小时自助银行(成都高笋塘分理处),B001C0AGSW,[],四川省,[],[],2,[],金融保险服务;自动提款机;中国农业银行ATM,160304
