address,adname,biz_ext,biz_type,childtype,cityname,distance,id,importance,location,name,parent,photos,pname,poiweight,shopid,shopinfo,tel,type,typecode
高升桥16号,武侯区,[],[],[],成都市,[],B0FFFOX4D0,[],"104.036575,30.639964",平安银行(成都高升桥支行),[],[],四川省,[],[],2,028-61960820,金融保险服务;银行;平安银行,160117
成飞大道1号青羊工业总部基地A9栋,青羊区,[],[],[],成都市,[],B001C8MVE0,[],"103.960938,30.680441",平安银行(成都青羊支行),[],[],四川省,[],[],2,028-87300391,金融保险服务;银行;平安银行,160117
建设南路83号,成华区,[],[],[],成都市,[],B001C8OQHR,[],"104.121065,30.669510",中国银行(音乐公园支行),[],[],四川省,[],[],2,028-84397276;95566,金融保险服务;银行;中国银行,160104
西华门街17号天府中心,青羊区,[],[],202,成都市,[],B001C7WF0K,[],"104.062295,30.661922",平安银行(成都天府支行),B001C7X7IJ,[],四川省,[],[],2,028-86637101,金融保险服务;银行;平安银行,160117
新光路1号,武侯区,[],[],[],成都市,[],B001C80RJ1,[],"104.057658,30.617527",成都银行(银都支行),[],[],四川省,[],[],2,028-85972571;028-85972572,金融保险服务;银行;银行,160100
蜀西路35号,金牛区,[],[],[],成都市,[],B001C09IC6,[],"103.999523,30.707121",成都农商银行(金泉支行),[],[],四川省,[],[],2,028-87508702;028-87510229,金融保险服务;银行;农村商业银行,160121
双林路102-116号,成华区,[],[],[],成都市,[],B001C7Y8DZ,[],"104.109429,30.653037",成都农商银行(成华支行),[],[],四川省,[],[],2,028-84330523;028-84330295,金融保险服务;银行;农村商业银行,160121
春熙路北段50号,锦江区,[],[],[],成都市,[],B001C7WQWD,[],"104.078265,30.657074",中国工商银行(春熙路步行街支行),[],[],四川省,[],[],2,028-86663907,金融保险服务;银行;中国工商银行,160105
人民中路三段2号附1-3,青羊区,[],[],[],成都市,[],B001C02EB3,[],"104.067794,30.672937",成都银行(华兴支行),[],[],四川省,[],[],2,028-86267691;028-86243459;4006896511,金融保险服务;银行;银行,160100
北京路57号,龙泉驿区,[],[],[],成都市,[],B0FFF1Z3WH,[],"104.244097,30.568718",成都银行(龙泉驿支行),[],[],四川省,[],[],2,028-84868178;028-84879851,金融保险服务;银行;银行,160100
东大街下东大街段42-46,锦江区,[],[],[],成都市,[],B001C8OPI4,[],"104.080759,30.650971",成都农商银行(东大街支行),[],[],四川省,[],[],2,028-85951503,金融保险服务;银行;农村商业银行,160121
东大街下东大街段258号,锦江区,[],[],[],成都市,[],B0FFHPFCKU,[],"104.084116,30.649275",四川天府银行(成都锦江支行),[],[],四川省,[],[],2,028-86660303;028-86661515,金融保险服务;银行;银行,160100
滨江西路12号,锦江区,[],[],[],成都市,[],B001C7WQW2,[],"104.061862,30.647638",中国工商银行(滨江支行),[],[],四川省,[],[],2,028-86110182;028-86113536,金融保险服务;银行;中国工商银行,160105
中和新下街242号锦华市场,双流区,[],[],[],成都市,[],B0FFFE8VYJ,[],"104.087701,30.549251",交通银行(成都中和支行),[],[],四川省,[],[],2,028-64469911,金融保险服务;银行;交通银行,160108
顺城大街206号,青羊区,[],[],[],成都市,[],B001C7WA5O,[],"104.071151,30.660556",平安银行(成都顺城支行),[],[],四川省,[],[],2,028-60160891,金融保险服务;银行;平安银行,160117
花圃路2号附1-附4、附13号,金牛区,[],[],[],成都市,[],B001C8N4K9,[],"104.080079,30.678976",中国邮政储蓄银行(簸箕街支行),[],[],四川省,[],[],2,[],金融保险服务;银行;中国邮政储蓄银行,160139
机场东二路与机场南四路交叉口北150米,双流区,[],[],[],成都市,[],B001C8MQKB,[],"103.965892,30.568047",交通银行(双流机场支行),[],[],四川省,[],[],2,028-85208065;028-85208066,金融保险服务;银行;交通银行,160108
科华中路88号附1号成都市农商银行大厦,武侯区,[],[],202,成都市,[],B001C80OUW,[],"104.076805,30.614706",成都农商银行(总行营业部),B001C80SKW,[],四川省,[],[],2,028-85351200;028-85357369,金融保险服务;银行;农村商业银行,160121
马超西路金荷大厦1单元1层,新都区,[],[],202,成都市,[],B001C7ZY2F,[],"104.165752,30.812548",成都银行(新都支行),B001C7XQSY,[],四川省,[],[],2,028-83969970,金融保险服务;银行;银行,160100
淳化街86号-90,双流区,[],[],[],成都市,[],B001C0856M,[],"103.923332,30.572037",交通银行(双流支行),[],[],四川省,[],[],2,028-85822391;028-85815466,金融保险服务;银行;交通银行,160108
高新孵化园天府大道北段1480号德商国际B座103-104号德商国际1层,武侯区,[],[],202,成都市,[],B001C80F4V,[],"104.060363,30.575066",中国建设银行(益州支行),B0FFF2MB5C,[],四川省,[],[],2,028-85325387;028-85111496,金融保险服务;银行;中国建设银行,160106
清江东路39号附18-19号,青羊区,[],[],[],成都市,[],B001C7V8EQ,[],"104.030138,30.668581",交通银行(草堂支行),[],[],四川省,[],[],2,028-87330937;028-87332510,金融保险服务;银行;交通银行,160108
华阳大道一段28号,双流区,[],[],[],成都市,[],B001C8MOFT,[],"104.042575,30.511132",成都银行(华阳支行),[],[],四川省,[],[],2,028-85625393,金融保险服务;银行;银行,160100
蜀西路20号附8号,金牛区,[],[],[],成都市,[],B001C8RA2J,[],"104.003305,30.705223",华夏银行(成都蜀汉支行),[],[],四川省,[],[],2,028-62066325;028-62066367,金融保险服务;银行;华夏银行,160110
犀浦街道犀浦下街360-366号,郫都区,[],[],[],成都市,[],B001C808UA,[],"103.973439,30.752114",中国农业银行(犀浦一分理处),[],[],四川省,[],[],2,028-87851025,金融保险服务;银行;中国农业银行,160107
大慈寺路79号,锦江区,[],[],[],成都市,[],B0FFF9ZXDD,[],"104.082586,30.655826",中国光大银行(成都分行),[],[],四川省,[],[],2,028-86716845;028-86665566,金融保险服务;银行;中国光大银行,160113
西南航空港经济开发区西航港大道二段12号,双流区,[],[],[],成都市,[],B001C8MRA2,[],"103.973131,30.533892",中国建设银行(双流西航港支行),[],[],四川省,[],[],2,028-62142256,金融保险服务;银行;中国建设银行,160106
高新西区科新路8号,郫都区,[],[],[],成都市,[],B001C0AFUL,[],"103.917562,30.772082",中国工商银行(高新综合保税区支行),[],[],四川省,[],[],2,028-87955666,金融保险服务;银行;中国工商银行,160105
晋阳路41号,武侯区,[],[],[],成都市,[],B001C80PYQ,[],"104.006309,30.651413",成都农商银行(机投支行),[],[],四川省,[],[],2,028-87431987;028-87433333,金融保险服务;银行;农村商业银行,160121
一环路西三段184号,金牛区,[],[],[],成都市,[],B001C7UFFK,[],"104.043346,30.679006",成都农商银行(金牛支行营业部),[],[],四川省,[],[],2,028-87779520;028-87769721,金融保险服务;银行;农村商业银行,160121
柳城街道光华大道三段1403号,温江区,[],[],[],成都市,[],B0FFFVUEMU,[],"103.864592,30.681907",中国农业银行(光华大道支行),[],[],四川省,[],[],2,028-82726375,金融保险服务;银行;中国农业银行,160107
天府二街99号,武侯区,[],[],202,成都市,[],B0FFG4D4XF,[],"104.066764,30.550752",平安银行(成都分行营业部),B0FFFODSM2,[],四川省,[],[],2,028-61805165,金融保险服务;银行;平安银行,160117
杨柳西路北段1-4号,温江区,[],[],[],成都市,[],B001C80IRS,[],"103.827568,30.690186",成都银行(温江支行),[],[],四川省,[],[],2,028-82685791,金融保险服务;银行;银行,160100
大业路16号大地・城市脉搏1层,锦江区,[],[],202,成都市,[],B001C7Y7UA,[],"104.070748,30.654225",中国农业银行(成都盐市口支行),B001C7WJEE,[],四川省,[],[],2,[],金融保险服务;银行;中国农业银行,160107
肖家村二巷67-81号,金牛区,[],[],[],成都市,[],B0FFF2EIHC,[],"104.075805,30.688316",中信银行(成都人民北路支行),[],[],四川省,[],[],2,028-62563378;028-62563363,金融保险服务;银行;中信银行,160111
桃蹊路76-78号,成华区,[],[],[],成都市,[],B001C80IQ7,[],"104.108349,30.681515",成都农商银行(桃蹊分理处),[],[],四川省,[],[],2,028-83252890,金融保险服务;银行;农村商业银行,160121
大丰街道崇义社区文化街15-51号丰怡阳光A区1幢1层2号,新都区,[],[],[],成都市,[],B001C91Y83,[],"104.052503,30.763365",中国工商银行(成都大丰支行),[],[],四川省,[],[],2,028-83919506,金融保险服务;银行;中国工商银行,160105
提督街50号,锦江区,[],[],[],成都市,[],B001C7WHV5,[],"104.074616,30.659679",中国工商银行(提督支行),[],[],四川省,[],[],2,028-86751641;028-86616907,金融保险服务;银行;中国工商银行,160105
柳城大道东段221号,温江区,[],[],[],成都市,[],B001C7XQOB,[],"103.837164,30.693908",交通银行(温江支行),[],[],四川省,[],[],2,028-82763350,金融保险服务;银行;交通银行,160108
创业路16号火炬大厦1层,武侯区,[],[],202,成都市,[],B001C7WLBA,[],"104.042835,30.620527",交通银行(创业路支行),B001C8ZE4K,[],四川省,[],[],2,028-85181826;028-85180904,金融保险服务;银行;交通银行,160108
棠湖西路一段13号吉丰百货1层,双流区,[],[],[],成都市,[],B001C7Y4DG,[],"103.920153,30.572166",中国农业银行(双流支行营业部),[],[],四川省,[],[],2,028-85816813,金融保险服务;银行;中国农业银行,160107
九江镇蛟龙工业港蛟龙大道53-57号,双流区,[],[],202,成都市,[],B001C8083U,[],"103.910914,30.604950",中国工商银行(双流蛟龙支行),B0FFF2VYQ4,[],四川省,[],[],2,028-85739051,金融保险服务;银行;中国工商银行,160105
二环路南三段3号附25号,武侯区,[],[],[],成都市,[],B001C078UU,[],"104.062641,30.620383",交通银行(成都南二环支行),[],[],四川省,[],[],2,028-85544464;028-85540727,金融保险服务;银行;交通银行,160108
董家湾北街3号附7号,武侯区,[],[],[],成都市,[],B001C80QWX,[],"104.030815,30.632512",中国建设银行(成都红牌楼支行),[],[],四川省,[],[],2,028-61817563,金融保险服务;银行;中国建设银行,160106
人民中路一段28号成都房地产大厦,青羊区,[],[],202,成都市,[],B001C7U8YJ,[],"104.065339,30.664842",中国建设银行(后子门支行),B001C7U8Y9,[],四川省,[],[],2,028-86257811;028-86245776,金融保险服务;银行;中国建设银行,160106
星河路90号附1号,金牛区,[],[],[],成都市,[],B001C7YPH6,[],"104.046945,30.707279",中国建设银行(星辰路储蓄所),[],[],四川省,[],[],2,028-87625936,金融保险服务;银行;中国建设银行,160106
宏济中路8号附5号,锦江区,[],[],[],成都市,[],B0FFFAAWLR,[],"104.095300,30.643273",兴业银行(锦江支行),[],[],四川省,[],[],2,028-84337836;028-84330868,金融保险服务;银行;兴业银行,160118
广场路北一段130号,金牛区,[],[],[],成都市,[],B001C8R8FN,[],"103.951028,30.781580",中国银行(红光支行)(装修中),[],[],四川省,[],[],2,95566,金融保险服务;银行;中国银行,160104
光华大道三段1860号,温江区,[],[],[],成都市,[],B001C952M0,[],"103.856214,30.688302",成都银行(光华大道支行),[],[],四川省,[],[],2,028-67230731;028-67230753;4006896511,金融保险服务;银行;银行,160100
成龙大道二段888号总部经济港A区1幢1层,龙泉驿区,[],[],[],成都市,[],B001C8R8WI,[],"104.185636,30.566751",中国工商银行(成都总部经济港支行),[],[],四川省,[],[],2,028-65084336;028-65084338,金融保险服务;银行;中国工商银行,160105
蓉北商贸大道一段附近,金牛区,[],[],[],成都市,[],B0FFFV9359,[],"104.063396,30.709536",招商银行(成都五福桥东街支行),[],[],四川省,[],[],2,028-87619562,金融保险服务;银行;招商银行,160109
苏坡中路7号,青羊区,[],[],[],成都市,[],B001C0AGU2,[],"103.984328,30.669242",中国农业银行(苏坡桥支行),[],[],四川省,[],[],2,028-87460089,金融保险服务;银行;中国农业银行,160107
玉林横街1号附5号,武侯区,[],[],[],成都市,[],B001C7WHIA,[],"104.061840,30.626502",中国邮政储蓄银行(玉林小区营业所),[],[],四川省,[],[],2,028-85560382;028-85568053,金融保险服务;银行;中国邮政储蓄银行,160139
一环路南三段45号,武侯区,[],[],[],成都市,[],B001C060N7,[],"104.056615,30.633585",中国银行(武侯支行营业部),[],[],四川省,[],[],2,028-85565107;028-85541955;95566,金融保险服务;银行;中国银行,160104
柳城镇东大街1号,温江区,[],[],[],成都市,[],B001C7VRDU,[],"103.836324,30.698608",中国建设银行(温江支行),[],[],四川省,[],[],2,028-82722481,金融保险服务;银行;中国建设银行,160106
永丰路20号之13-附14,武侯区,[],[],[],成都市,[],B001C05XNP,[],"104.049260,30.630304",中国农业银行(新蓉支行),[],[],四川省,[],[],2,028-85124477,金融保险服务;银行;中国农业银行,160107
东城根上街95成都证券大厦1层,青羊区,[],[],[],成都市,[],B001C06CMT,[],"104.060364,30.662308",中信银行(成都东城根街支行),[],[],四川省,[],[],2,028-86253888;028-86269498,金融保险服务;银行;银行,160100
蜀汉路522号附2号,金牛区,[],[],[],成都市,[],B001C7WR6V,[],"104.014118,30.692364",中信银行(成都蜀汉支行),[],[],四川省,[],[],2,028-87537074;028-87520776;95558,金融保险服务;银行;中信银行,160111
晋阳路184号金雁大厦1层,武侯区,[],[],[],成都市,[],B001C7WEJI,[],"104.000863,30.650979",中国农业银行(机投支行),[],[],四川省,[],[],2,028-87425867,金融保险服务;银行;中国农业银行,160107
玉双路9号,成华区,[],[],[],成都市,[],B001C8OJPE,[],"104.092980,30.656624",招商银行(成都玉双路支行),[],[],四川省,[],[],2,028-84320870,金融保险服务;银行;招商银行,160109
建设路56号附5号,成华区,[],[],[],成都市,[],B001C022CB,[],"104.099130,30.667985",交通银行(成都城东支行),[],[],四川省,[],[],2,028-84320210;028-84317406,金融保险服务;银行;交通银行,160108
三河大道69号,新都区,[],[],[],成都市,[],B001C01F98,[],"104.134076,30.777371",成都农商银行(新都三河分理处),[],[],四川省,[],[],2,028-83909083,金融保险服务;银行;农村商业银行,160121
北纱帽街101号附1,锦江区,[],[],[],成都市,[],B001C06DD1,[],"104.083199,30.655451",交通银行(成都红星路支行),[],[],四川省,[],[],2,028-86652124;028-86710192,金融保险服务;银行;交通银行,160108
建和路6号附33号,成华区,[],[],[],成都市,[],B001C80BZH,[],"104.112674,30.672927",中国银行(成都城东支行),[],[],四川省,[],[],2,028-84298001;95566,金融保险服务;银行;中国银行,160104
指挥街38-40号,锦江区,[],[],[],成都市,[],B001C060P6,[],"104.067336,30.649933",中国工商银行(指挥街支行),[],[],四川省,[],[],2,028-86661397;028-86659141;95588,金融保险服务;银行;中国工商银行,160105
灵龙路494-506号,龙泉驿区,[],[],[],成都市,[],B001C7Y43B,[],"104.176266,30.652506",中国工商银行(十陵支行),[],[],四川省,[],[],2,028-84600057,金融保险服务;银行;中国工商银行,160105
金花街1号附28-附34号,武侯区,[],[],[],成都市,[],B001C8N42B,[],"103.969346,30.604799",中国农业银行(成都金花支行),[],[],四川省,[],[],2,028-85003450,金融保险服务;银行;中国农业银行,160107
华兴正街王府井商城B座,锦江区,[],[],202,成都市,[],B001C06PBN,[],"104.080483,30.658960",中国银行(成都王府井支行),B001C8OSCD,[],四川省,[],[],2,028-86745960;95566,金融保险服务;银行;中国银行,160104
机场东二路机场集团大楼附楼1层,双流区,[],[],[],成都市,[],B001C7YGLB,[],"103.963431,30.568353",中国建设银行(双流机场支行),[],[],四川省,[],[],2,028-85207801,金融保险服务;银行;中国建设银行,160106
犀浦街道珠江路26号中铁十五局西南工程综合大楼1层,郫都区,[],[],[],成都市,[],B001C06S8F,[],"103.965505,30.758616",中国工商银行(成都珠江路支行),[],[],四川省,[],[],2,028-87859532;028-87851296;95588,金融保险服务;银行;中国工商银行,160105
海椒市街6号之附1-附4,锦江区,[],[],[],成都市,[],B001C00B10,[],"104.102396,30.639431",中国银行(海椒市支行),[],[],四川省,[],[],2,028-84533180;028-84530360,金融保险服务;银行;中国银行,160104
东大街76-84号,郫都区,[],[],[],成都市,[],B001C7U3WO,[],"103.887991,30.807600",中国建设银行(郫都支行),[],[],四川省,[],[],2,028-87864039;028-87864368,金融保险服务;银行;中国建设银行,160106
二环路南四段69号附15号,武侯区,[],[],[],成都市,[],B001C7Y8JC,[],"104.031593,30.632900",中国农业银行(成都永丰场支行),[],[],四川省,[],[],2,028-61812183,金融保险服务;银行;中国农业银行,160107
一环路南一段57号附1号,武侯区,[],[],[],成都市,[],B001C0AFVJ,[],"104.077632,30.634559",中国工商银行(东大支行),[],[],四川省,[],[],2,028-85442173;028-85453153,金融保险服务;银行;中国工商银行,160105
花都大道819号附9号,新都区,[],[],[],成都市,[],B0FFF005B1,[],"104.056238,30.760818",中国建设银行(新都大丰支行),[],[],四川省,[],[],2,028-83910213,金融保险服务;银行;中国建设银行,160106
崔家店路568号,成华区,[],[],[],成都市,[],B001C80GBW,[],"104.137381,30.669826",成都农商银行(十里店分理处),[],[],四川省,[],[],2,028-84118941,金融保险服务;银行;农村商业银行,160121
新兴街道正街和四维街的交叉口附近,双流区,[],[],[],成都市,[],B001C8OFT3,[],"104.148353,30.527862",成都农商银行(新兴支行),[],[],四川省,[],[],2,028-85600063,金融保险服务;银行;农村商业银行,160121
红星路三段99号银石广场1层,锦江区,[],[],201,成都市,[],B0FFG17K4P,[],"104.079776,30.652984",招商银行ATM(春熙路银石广场),B001C8X4RV,[],四川省,[],[],2,[],金融保险服务;自动提款机;招商银行ATM,160306
绿茵街11号2栋,金牛区,[],[],202,成都市,[],B001C8VXJ8,[],"103.977645,30.724110",中信银行(成都西区支行),B0FFLF71S4,[],四川省,[],[],2,028-69923690;028-69923680,金融保险服务;银行;中信银行,160111
新希望路6号附2号,武侯区,[],[],[],成都市,[],B001C7WQNY,[],"104.072241,30.615921",招商银行(成都锦官城支行),[],[],四川省,[],[],2,028-85227908,金融保险服务;银行;招商银行,160109
蓉北路一段180-184,新都区,[],[],[],成都市,[],B001C7TA9V,[],"104.055585,30.755243",成都农商银行(蓉北分理处),[],[],四川省,[],[],2,028-83911262,金融保险服务;银行;农村商业银行,160121
草市街64号,青羊区,[],[],[],成都市,[],B001C0AFUE,[],"104.075560,30.672150",中国工商银行(成都草市支行),[],[],四川省,[],[],2,028-86949130;028-86956055;95588,金融保险服务;银行;中国工商银行,160105
西区大道1704号,郫都区,[],[],[],成都市,[],B001C7TK46,[],"103.929744,30.773882",中国建设银行(成都西区支行),[],[],四川省,[],[],2,028-87958170,金融保险服务;银行;中国建设银行,160106
成灌东路38号(中铁世纪中心B栋),郫都区,[],[],202,成都市,[],B0FFFAC3YX,[],"103.895008,30.813558",成都银行(郫都支行),B0FFFACX4B,[],四川省,[],[],2,028-87922679;028-87929353,金融保险服务;银行;银行,160100
新希望路7号之附8-10号,武侯区,[],[],[],成都市,[],B001C7WR2R,[],"104.071100,30.616086",中国银行(航空路支行),[],[],四川省,[],[],2,028-85266380,金融保险服务;银行;中国银行,160104
驿都东路1030号,龙泉驿区,[],[],[],成都市,[],B001C7SE7N,[],"104.263779,30.560241",交通银行(龙泉驿支行),[],[],四川省,[],[],2,028-84862304;028-84852018,金融保险服务;银行;交通银行,160108
佳灵路3号1栋1层、3层,武侯区,[],[],[],成都市,[],B001C80RLM,[],"104.029878,30.634421",中信银行(成都武侯支行),[],[],四川省,[],[],2,028-61817171;028-85050320,金融保险服务;银行;中信银行,160111
国宁西路98号,郫都区,[],[],[],成都市,[],B001C06O6K,[],"103.971394,30.759300",中国工商银行(成都犀浦支行),[],[],四川省,[],[],2,028-87851296,金融保险服务;银行;中国工商银行,160105
龙腾东路36-42号,武侯区,[],[],[],成都市,[],B001C8O64J,[],"104.018473,30.652255",招商银行(成都武侯支行),[],[],四川省,[],[],2,028-61817871,金融保险服务;银行;招商银行,160109
天府二街99号1栋附近,武侯区,[],[],[],成都市,[],B0FFIMSEB5,[],"104.066968,30.550554",平安银行,[],[],四川省,[],[],2,[],金融保险服务;银行;平安银行,160117
世纪城路208号假日酒店成都世纪城西楼1层,武侯区,[],[],[],成都市,[],B001C8086B,[],"104.074058,30.557518",中信银行(世纪城支行),[],[],四川省,[],[],2,028-85330615;028-85330616,金融保险服务;银行;中信银行,160111
琉璃路694号,锦江区,[],[],[],成都市,[],B001C80P2H,[],"104.094137,30.611477",中国银行(成都翡翠城支行),[],[],四川省,[],[],2,028-85272430;95566,金融保险服务;银行;中国银行,160104
红牌楼佳灵路4号,武侯区,[],[],[],成都市,[],B001C8O29L,[],"104.028597,30.634478",交通银行(成都武侯支行),[],[],四川省,[],[],2,028-85074330;028-85075239,金融保险服务;银行;交通银行,160108
尚锦路241号,郫都区,[],[],[],成都市,[],B001C8O0XK,[],"103.928967,30.780641",成都银行(红光支行),[],[],四川省,[],[],2,028-87955192,金融保险服务;银行;银行,160100
武侯大道铁佛段120-122号,武侯区,[],[],[],成都市,[],B001C8O98B,[],"103.987868,30.612385",成都农商银行(铁佛分理处),[],[],四川省,[],[],2,028-85360012,金融保险服务;银行;农村商业银行,160121
紫杉路82号(神仙树南路紫荆名苑11栋综合楼),武侯区,[],[],[],成都市,[],B001C7UTYF,[],"104.048398,30.614444",中国建设银行(神仙树南路支行),[],[],四川省,[],[],2,028-85195752;028-85130836,金融保险服务;银行;中国建设银行,160106
天顺路4-8,武侯区,[],[],[],成都市,[],B001C80884,[],"104.071174,30.589373",成都银行(高新支行),[],[],四川省,[],[],2,028-85359403,金融保险服务;银行;银行,160100
华阳镇正北上街24-28号,双流区,[],[],[],成都市,[],B001C808DP,[],"104.056049,30.505991",中国邮政储蓄银行(天府新区支行),[],[],四川省,[],[],2,028-85642431;028-85646123;95580,金融保险服务;银行;中国邮政储蓄银行,160139
柏合街道新街65号,龙泉驿区,[],[],[],成都市,[],B001C09E2J,[],"104.205348,30.503642",成都农商银行(柏合分理处),[],[],四川省,[],[],2,028-84818020,金融保险服务;银行;农村商业银行,160121
犀湖街74-84,郫都区,[],[],[],成都市,[],B001C8VMQ7,[],"103.971073,30.756292",中国邮政储蓄银行(犀浦支行),[],[],四川省,[],[],2,028-87855033;95580,金融保险服务;银行;中国邮政储蓄银行,160139
高新区天泰路120号国家开发银行大厦,武侯区,[],[],202,成都市,[],B0FFFVDLA4,[],"104.069646,30.591730",国家开发银行(四川省分行),B0FFG6XTN5,[],四川省,[],[],2,028-86029998,金融保险服务;银行;国家开发银行,160102
犀浦街道泰山南街24号,郫都区,[],[],[],成都市,[],B001C7U3RA,[],"103.960474,30.759610",中国银行(泰山大道支行),[],[],四川省,[],[],2,028-62532622,金融保险服务;银行;中国银行,160104
金色校园广场1号,双流区,[],[],202,成都市,[],B001C8MQXE,[],"103.989903,30.550167",中国工商银行(川大西路支行),B001C937OV,[],四川省,[],[],2,028-85860291;028-85860292;028-62583075,金融保险服务;银行;中国工商银行,160105
二环路西三段32号,金牛区,[],[],[],成都市,[],B001C8MJA7,[],"104.035177,30.686602",中国农业银行(成西支行),[],[],四川省,[],[],2,028-61998937;028-87538330,金融保险服务;银行;中国农业银行,160107
世纪城路1132号,武侯区,[],[],[],成都市,[],B0FFFQZD3H,[],"104.071288,30.551786",招商银行(世纪城支行),[],[],四川省,[],[],2,028-83184965,金融保险服务;银行;招商银行,160109
紫瑞北街86-90号,武侯区,[],[],[],成都市,[],B001C80ODO,[],"104.044674,30.615245",中国农业银行(成都神仙树支行),[],[],四川省,[],[],2,028-85161359,金融保险服务;银行;中国农业银行,160107
郫筒镇望东路117号,郫都区,[],[],[],成都市,[],B001C7ZXO1,[],"103.891999,30.798266",兴业银行(郫都支行),[],[],四川省,[],[],2,028-61832888;028-61832901,金融保险服务;银行;兴业银行,160118
总府路35号附1-4号,锦江区,[],[],[],成都市,[],B001C7WQWF,[],"104.076656,30.659106",中国工商银行(四川省分行),[],[],四川省,[],[],2,028-86616907;95588,金融保险服务;银行;中国工商银行,160105
华金大道二段521-525号附1,青白江区,[],[],[],成都市,[],B001C0675O,[],"104.251971,30.884276",成都农商银行(青白江支行),[],[],四川省,[],[],2,028-83691533;028-83661253,金融保险服务;银行;农村商业银行,160121
成汉南路11号,武侯区,[],[],[],成都市,[],B001C80TFU,[],"104.054742,30.587845",成都农商银行(高新支行),[],[],四川省,[],[],2,028-85316665;028-85316663,金融保险服务;银行;农村商业银行,160121
武阳西路314-318号,新津区,[],[],[],成都市,[],B001C804RW,[],"103.801519,30.414231",成都农商银行(新津水城支行),[],[],四川省,[],[],2,028-82596104,金融保险服务;银行;农村商业银行,160121
青羊大道10号附1-4号,青羊区,[],[],[],成都市,[],B001C7WQXL,[],"104.008921,30.658027",中国建设银行(青羊大道支行),[],[],四川省,[],[],2,028-87362742;028-87348431;95533,金融保险服务;银行;中国建设银行,160106
八宝街88号附2号,青羊区,[],[],[],成都市,[],B001C7WDET,[],"104.061026,30.671030",中国邮政储蓄银行(八宝街营业所),[],[],四川省,[],[],2,028-86644302;028-95580,金融保险服务;银行;中国邮政储蓄银行,160139
人民南路四段11号(大陆国际1层),武侯区,[],[],202,成都市,[],B001C80RLA,[],"104.067134,30.628794",兴业银行(成都人民南路支行),B001C80O4M,[],四川省,[],[],2,028-85217271;028-85216637,金融保险服务;银行;兴业银行,160118
广都大道10号,双流区,[],[],[],成都市,[],B001C8MQVK,[],"103.922348,30.561100",中国民生银行(双流支行),[],[],四川省,[],[],2,028-85896385;95568,金融保险服务;银行;中国民生银行,160112
柳台大道东段235-239,温江区,[],[],202,成都市,[],B001C8N0JP,[],"103.822505,30.687175",中国农业银行(温江海科分理处),B001C809SS,[],四川省,[],[],2,028-61706451,金融保险服务;银行;中国农业银行,160107
致民路36号锦江新园1层,武侯区,[],[],[],成都市,[],B001C0AHJ8,[],"104.075568,30.643812",中国银行(新南支行),[],[],四川省,[],[],2,028-85445730;028-85441511;95566,金融保险服务;银行;中国银行,160104
东御街66号,锦江区,[],[],[],成都市,[],B001C7UQ55,[],"104.067426,30.656253",中国建设银行(金河支行),[],[],四川省,[],[],2,028-86725244;028-86725246,金融保险服务;银行;中国建设银行,160106
中同仁路6号附2号,青羊区,[],[],[],成都市,[],B001C0AHHP,[],"104.051992,30.667692",中国银行(成都同仁路支行),[],[],四川省,[],[],2,028-86257578;95566,金融保险服务;银行;中国银行,160104
滨江西路10号,锦江区,[],[],[],成都市,[],B001C8NYZO,[],"104.062172,30.647584",天津银行(成都滨江支行),[],[],四川省,[],[],2,028-86196728;028-86196723;4006960296,金融保险服务;银行;银行,160100
金府路593号附8-12,金牛区,[],[],202,成都市,[],B001C8020K,[],"104.036135,30.711700",中国农业银行(金府支行),B0FFFQ6216,[],四川省,[],[],2,95599,金融保险服务;银行;中国农业银行,160107
世纪城路211-216号,武侯区,[],[],[],成都市,[],B001C8MQ13,[],"104.074784,30.559920",中国建设银行(新会展支行),[],[],四川省,[],[],2,028-85307381,金融保险服务;银行;中国建设银行,160106
星辰路30,金牛区,[],[],[],成都市,[],B001C0AGS2,[],"104.045860,30.704760",中国农业银行(星辰支行),[],[],四川省,[],[],2,028-63931184,金融保险服务;银行;中国农业银行,160107
紫荆东路66号,武侯区,[],[],[],成都市,[],B001C7UT7C,[],"104.053156,30.614682",中国农业银行(紫荆支行),[],[],四川省,[],[],2,028-69280366;028-85179698,金融保险服务;银行;中国农业银行,160107
凤溪大道中段95号附1号,温江区,[],[],[],成都市,[],B001C8VB2K,[],"103.841951,30.689617",中国邮政储蓄银行(向阳路营业所),[],[],四川省,[],[],2,028-82763116;028-82762163,金融保险服务;银行;中国邮政储蓄银行,160139
科华街5号附9号,武侯区,[],[],[],成都市,[],B001C7WLB6,[],"104.077935,30.623497",交通银行(成都磨子桥支行),[],[],四川省,[],[],2,028-85406216;028-85461297,金融保险服务;银行;交通银行,160108
清江中路4号附11号,青羊区,[],[],[],成都市,[],B001C7WR3G,[],"104.017940,30.671214",中国银行(双顺路支行),[],[],四川省,[],[],2,028-87383781;028-95566,金融保险服务;银行;中国银行,160104
三洞桥路20号附8号,金牛区,[],[],[],成都市,[],B001C7WR32,[],"104.051862,30.675547",中国银行(成都金牛支行),[],[],四川省,[],[],2,028-87778725;028-87749690;95566,金融保险服务;银行;中国银行,160104
平福路151号附1号,金牛区,[],[],[],成都市,[],B001C05A5G,[],"104.090758,30.682873",招商银行24小时自助银行(三友路)(装修中),[],[],四川省,[],[],2,[],金融保险服务;自动提款机;招商银行ATM,160306
犀浦街道兴业街南段168号,郫都区,[],[],[],成都市,[],B001C0AFV7,[],"103.971206,30.749342",中国工商银行(创业路支行),[],[],四川省,[],[],2,028-87848761;028-87848763;95588,金融保险服务;银行;中国工商银行,160105
物流大道富森・美家居汽配城MALL19-02,新都区,[],[],[],成都市,[],B0FFFWNVB9,[],"104.142387,30.793925",中国农业银行(新都城南分理处),[],[],四川省,[],[],2,028-83974409,金融保险服务;银行;中国农业银行,160107
黄甲大道一段185,双流区,[],[],[],成都市,[],B001C09S5Q,[],"103.966409,30.534629",成都农商银行(双华分理处),[],[],四川省,[],[],2,028-85745737,金融保险服务;银行;农村商业银行,160121
和平路47-61号,龙泉驿区,[],[],[],成都市,[],B001C05DHR,[],"104.177175,30.649759",中国银行(成都龙泉驿十陵支行),[],[],四川省,[],[],2,028-84600861;028-84605815;95566,金融保险服务;银行;中国银行,160104
甘溪镇北街87号,蒲江县,[],[],[],成都市,[],B001C7YKCY,[],"103.351698,30.253366",成都农商银行(甘溪镇分理处),[],[],四川省,[],[],2,028-88641289,金融保险服务;银行;农村商业银行,160121
昭觉寺横路99号附3号,成华区,[],[],[],成都市,[],B001C7WDMS,[],"104.104838,30.701220",中国农业银行(成都青龙支行),[],[],四川省,[],[],2,028-83518180,金融保险服务;银行;中国农业银行,160107
总府路31号附2-4号,锦江区,[],[],[],成都市,[],B001C7TKLO,[],"104.076941,30.658972",中国农业银行(总府支行),[],[],四川省,[],[],2,028-86787731;028-86765100;95599,金融保险服务;银行;中国农业银行,160107
高升桥北街10附46号,武侯区,[],[],[],成都市,[],B001C7WAFM,[],"104.037566,30.637059",交通银行(成都广福支行),[],[],四川省,[],[],2,028-85075203;028-85075103,金融保险服务;银行;交通银行,160108
丽都路3号附4号,武侯区,[],[],[],成都市,[],B001C0AHGD,[],"104.032942,30.624565",中国银行(成都丽都支行),[],[],四川省,[],[],2,95566,金融保险服务;银行;中国银行,160104
光华大道三段涌泉清泉南街168号,温江区,[],[],[],成都市,[],B0FFHNJ3JY,[],"103.876162,30.677777",中国农业银行(温江涌泉分理处),[],[],四川省,[],[],2,028-82724631,金融保险服务;银行;中国农业银行,160107
华新中街191-197号,双流区,[],[],[],成都市,[],B001C7UW8U,[],"104.053361,30.510127",中国银行(华新中街支行),[],[],四川省,[],[],2,028-85643632;95566,金融保险服务;银行;中国银行,160104
小北街一巷附2号,新都区,[],[],[],成都市,[],B001C7U4H5,[],"104.161076,30.827042",中国工商银行(成都新都支行),[],[],四川省,[],[],2,028-83972021,金融保险服务;银行;中国工商银行,160105
双建路1号附1号,成华区,[],[],[],成都市,[],B0FFGDG69B,[],"104.116318,30.678255",广发银行(成都建设北路支行),[],[],四川省,[],[],2,028-68360398,金融保险服务;银行;广发银行,160120
区高新区中和大道一段11号,双流区,[],[],[],成都市,[],B001C80OH0,[],"104.077231,30.548095",中国银行(成都中和支行),[],[],四川省,[],[],2,028-61900589;95566,金融保险服务;银行;中国银行,160104
大南街144号,温江区,[],[],[],成都市,[],B001C04E04,[],"103.836832,30.694793",中国银行(温江支行),[],[],四川省,[],[],2,028-82722144;028-82726821;95566,金融保险服务;银行;中国银行,160104
顺城大街106-108号,锦江区,[],[],[],成都市,[],B001C7UO8V,[],"104.071318,30.660022",中信银行(银河王朝支行),[],[],四川省,[],[],2,028-86628106;028-86612518;95558,金融保险服务;银行;中信银行,160111
东大街上东大街段266号新良宾馆与西南书城之间,锦江区,[],[],[],成都市,[],B0FFHGLZ1P,[],"104.074441,30.653986",中国民生银行(成都东大街支行),[],[],四川省,[],[],2,028-86675670;95568,金融保险服务;银行;中国民生银行,160112
龙泉镇东街61号,龙泉驿区,[],[],[],成都市,[],B001C7UWV3,[],"104.274085,30.557528",中国银行(龙泉驿东街分理处),[],[],四川省,[],[],2,028-84855490;028-84852345;95566,金融保险服务;银行;中国银行,160104
黄忠路5号附4号,金牛区,[],[],[],成都市,[],B001C7UBVZ,[],"104.014760,30.689654",中国农业银行(黄忠路分理处),[],[],四川省,[],[],2,028-87575739,金融保险服务;银行;中国农业银行,160107
二环路西二段19号仁和春天广场A座1层,青羊区,[],[],202,成都市,[],B001C7YQ0R,[],"104.019736,30.662597",中国农业银行(锦西支行),B001C8TY45,[],四川省,[],[],2,028-61500872;028-61500825,金融保险服务;银行;中国农业银行,160107
长益东一路71-75号,武侯区,[],[],[],成都市,[],B001C8P6D7,[],"104.031609,30.623396",华夏银行(成都玉林支行),[],[],四川省,[],[],2,028-87037381;028-87037160,金融保险服务;银行;华夏银行,160110
沙湾路268号金茂大厦,金牛区,[],[],[],成都市,[],B001C7WR39,[],"104.050741,30.690372",中国银行(成都沙湾支行),[],[],四川省,[],[],2,[],金融保险服务;银行;中国银行,160104
盛和一路99号星巴克咖啡门口,武侯区,[],[],201,成都市,[],B0FFG17K42,[],"104.063301,30.601948",招商银行24小时自助银行(凯丹广场),B0FFHKCDQW,[],四川省,[],[],2,[],金融保险服务;自动提款机;招商银行ATM,160306
来凤路297号,温江区,[],[],[],成都市,[],B001C80IQ8,[],"103.828278,30.700309",成都农商银行(新建分理处),[],[],四川省,[],[],2,028-82713507,金融保险服务;银行;农村商业银行,160121
马鞍北路46号,金牛区,[],[],[],成都市,[],B001C7WQZI,[],"104.087626,30.678129",中国农业银行(成都马鞍支行),[],[],四川省,[],[],2,028-83353915;028-83330105,金融保险服务;银行;中国农业银行,160107
北大街99-101号,郫都区,[],[],[],成都市,[],B001C0AGRP,[],"103.888654,30.810188",中国农业银行(西区城关支行),[],[],四川省,[],[],2,028-87862802,金融保险服务;银行;中国农业银行,160107
犀浦街道天府大道18、20、22号,郫都区,[],[],[],成都市,[],B001C8MET0,[],"103.973793,30.758186",中银富登村镇银行,[],[],四川省,[],[],2,95566,金融保险服务;银行;中国银行,160104
天府大道中段279号成达大厦,武侯区,[],[],202,成都市,[],B001C80T7V,[],"104.070320,30.551768",中国光大银行(成都世纪城支行),B0FFFZUSTB,[],四川省,[],[],2,028-85330121;95595,金融保险服务;银行;中国光大银行,160113
东风路7,锦江区,[],[],[],成都市,[],B001C7WQXG,[],"104.089407,30.652693",中国建设银行(成都第七支行),[],[],四川省,[],[],2,028-84462503;028-84472281;95533,金融保险服务;银行;中国建设银行,160106
蜀汉路206号,金牛区,[],[],[],成都市,[],B001C7WBVG,[],"104.024868,30.686604",中国农业银行(蜀汉路分理处),[],[],四川省,[],[],2,028-87524738,金融保险服务;银行;中国农业银行,160107
天韵路150号高新国际广场D座1层103号,武侯区,[],[],202,成都市,[],B001C8O7Z9,[],"104.065603,30.592928",中国工商银行,B0FFF9VG3L,[],四川省,[],[],2,028-85319725,金融保险服务;银行;中国工商银行,160105
永丰路20号黄金时代3号楼1层,武侯区,[],[],202,成都市,[],B001C03BDA,[],"104.049414,30.630540",中国民生银行(永丰支行),B0FFHLKV71,[],四川省,[],[],2,028-85185853;028-85175959,金融保险服务;银行;中国民生银行,160112
万象南路398号,武侯区,[],[],[],成都市,[],B0FFH02TRP,[],"104.050710,30.585574",招商银行(成都万象南路支行),[],[],四川省,[],[],2,028-61125439;028-61154945,金融保险服务;银行;招商银行,160109
华新下街192-194,双流区,[],[],[],成都市,[],B001C056MM,[],"104.054741,30.515064",中国农业银行(成都华新支行),[],[],四川省,[],[],2,028-85621536,金融保险服务;银行;中国农业银行,160107
航空路6号附6-7号,武侯区,[],[],[],成都市,[],B001C7UR29,[],"104.070268,30.616161",中国工商银行(成都航空路支行),[],[],四川省,[],[],2,028-85266783;028-85266559;028-95588,金融保险服务;银行;中国工商银行,160105
圣谕亭巷319号,新都区,[],[],[],成都市,[],B001C0298F,[],"104.164429,30.823595",中国银行(新都支行),[],[],四川省,[],[],2,028-83972336;95566,金融保险服务;银行;中国银行,160104
双林路200号,成华区,[],[],[],成都市,[],B001C7WF52,[],"104.105927,30.654718",中国工商银行(新华公园支行),[],[],四川省,[],[],2,028-95588,金融保险服务;银行;中国工商银行,160105
小天北街18号小天丽苑1层,武侯区,[],[],[],成都市,[],B001C7WHKN,[],"104.058156,30.635826",中国银行(小天北街支行),[],[],四川省,[],[],2,028-85568873;028-85568872;95566,金融保险服务;银行;中国银行,160104
岳府街64号附1号,锦江区,[],[],[],成都市,[],B001C060QB,[],"104.079248,30.662945",中国农业银行(锦阳支行),[],[],四川省,[],[],2,028-86758633,金融保险服务;银行;银行,160100
肖家村三巷81号,金牛区,[],[],[],成都市,[],B0FFF5VR04,[],"104.076115,30.690089",中国民生银行(成都荷花池支行),[],[],四川省,[],[],2,028-83324292;028-83314621,金融保险服务;银行;中国民生银行,160112
科华一路1号,郫都区,[],[],[],成都市,[],B001C8MFD8,[],"103.903922,30.796634",中国工商银行(鹃城支行),[],[],四川省,[],[],2,028-65328319;028-87827465,金融保险服务;银行;中国工商银行,160105
红牌楼永盛南街2号,武侯区,[],[],[],成都市,[],B001C8MNRS,[],"104.025458,30.638520",中国建设银行(人防路支行),[],[],四川省,[],[],2,028-85086282;95533,金融保险服务;银行;中国建设银行,160106
江汉路168号附1号,青羊区,[],[],[],成都市,[],B001C7WDFO,[],"104.064696,30.673921",交通银行(成都江汉路支行),[],[],四川省,[],[],2,028-86245588;028-87011151,金融保险服务;银行;交通银行,160108
锦里东路8号宏达大厦一楼,青羊区,[],[],[],成都市,[],B001C7WQZO,[],"104.060749,30.648468",中国农业银行(锦城支行),[],[],四川省,[],[],2,028-86136012;028-86116163,金融保险服务;银行;中国农业银行,160107
清江中路52号附5-6号,青羊区,[],[],202,成都市,[],B001C7WKXB,[],"104.009124,30.672691",华夏银行(成都金沙支行),B001C7WLI8,[],四川省,[],[],2,028-87383020;95577,金融保险服务;银行;华夏银行,160110
三洞桥街槐树街79号,金牛区,[],[],[],成都市,[],B001C7WCQ5,[],"104.048363,30.672270",中国农业银行(三洞桥支行),[],[],四川省,[],[],2,028-87748808;95599,金融保险服务;银行;中国农业银行,160107
府城大道中段88号,武侯区,[],[],201,成都市,[],B0FFGRALSC,[],"104.064820,30.590755",招商银行(成都府城大道支行),B001C8OMLC,[],四川省,[],[],2,028-85173071,金融保险服务;银行;招商银行,160109
抚琴西路115号附8-12号,金牛区,[],[],202,成都市,[],B001C05Y5D,[],"104.035965,30.678806",中国银行(成都抚琴支行),B0FFGDWCKT,[],四川省,[],[],2,028-87736590;95566,金融保险服务;银行;中国银行,160104
成都市武侯区少陵东街1号,武侯区,[],[],[],成都市,[],B001C0AGQ6,[],"104.029761,30.648164",中国农业银行(金地花园支行),[],[],四川省,[],[],2,028-87055259,金融保险服务;银行;中国农业银行,160107
新华大道双林路119号,成华区,[],[],[],成都市,[],B001C06FMV,[],"104.100271,30.657823",中国农业银行(锦东支行),[],[],四川省,[],[],2,028-84321501;028-84293066,金融保险服务;银行;中国农业银行,160107
桐梓林北路6号附8号,武侯区,[],[],[],成都市,[],B001C05IVR,[],"104.062941,30.616292",中国农业银行(桐梓林支行),[],[],四川省,[],[],2,028-85134315;028-85133497,金融保险服务;银行;中国农业银行,160107
光华大道瑞联路52号天合凯旋城,青羊区,[],[],[],成都市,[],B001C7WR6T,[],"104.002851,30.665925",中信银行(成都光华支行),[],[],四川省,[],[],2,028-85259336;028-85251981,金融保险服务;银行;银行,160100
人民中路二段86号,青羊区,[],[],[],成都市,[],B001C05N8I,[],"104.067480,30.672130",中国建设银行(成都第五支行),[],[],四川省,[],[],2,028-86201976;95533,金融保险服务;银行;中国建设银行,160106
兆景路504号1层,武侯区,[],[],[],成都市,[],B0FFFE7JMO,[],"103.988323,30.621435",中国农业银行(武科支行),[],[],四川省,[],[],2,028-87055113,金融保险服务;银行;中国农业银行,160107
剑南大道中段998号,武侯区,[],[],201,成都市,[],B0FFFWQJBJ,[],"104.045671,30.549130",招商银行(成都世豪广场支行),B0FFF9UNIK,[],四川省,[],[],2,028-83168860,金融保险服务;银行;招商银行,160109
金仙桥路7号,金牛区,[],[],[],成都市,[],B001C0AG91,[],"104.052614,30.677200",中国建设银行(金仙桥支行),[],[],四川省,[],[],2,028-87670772;028-87655613;028-87677924,金融保险服务;银行;中国建设银行,160106
凤凰西六路28号,青白江区,[],[],[],成都市,[],B0FFGPUT5H,[],"104.262497,30.891513",交通银行(成都青白江支行),[],[],四川省,[],[],2,028-83665775;028-83665780,金融保险服务;银行;交通银行,160108
武科东二路11号附2号,武侯区,[],[],[],成都市,[],B001C0AGQD,[],"103.989498,30.630241",中国农业银行(成都科技园支行),[],[],四川省,[],[],2,028-85362356;028-85363707,金融保险服务;银行;中国农业银行,160107
蜀信东路5号龙湖・弗莱明戈二期,郫都区,[],[],[],成都市,[],B0FFHPFDMO,[],"103.894643,30.795528",四川天府银行(成都郫都支行),[],[],四川省,[],[],2,028-65105533,金融保险服务;银行;银行,160100
武侯大道双楠段335号,武侯区,[],[],[],成都市,[],B001C06W9W,[],"104.012753,30.636422",中国农业银行(双丰西路支行),[],[],四川省,[],[],2,028-87437001;028-87437005,金融保险服务;银行;中国农业银行,160107
北三环路一段221号华侨城创想中心A座,金牛区,[],[],202,成都市,[],B0FFHH25SO,[],"104.029696,30.713221",中国银行(华侨城支行),B0FFL2ICT3,[],四川省,[],[],2,028-68381260;95566,金融保险服务;银行;中国银行,160104
二环路东二段8号附5-12号,成华区,[],[],[],成都市,[],B001C8MGC9,[],"104.110661,30.668737",中信银行(成都建设路支行),[],[],四川省,[],[],2,028-61303611;028-61303137,金融保险服务;银行;中信银行,160111
瑞联西路83号,青羊区,[],[],[],成都市,[],B0FFGFTMC9,[],"103.960764,30.685152",招商银行(青羊工业园支行),[],[],四川省,[],[],2,028-64233317,金融保险服务;银行;招商银行,160109
天顺路特拉克斯国际广场B座1层(近高新孵化园),武侯区,[],[],[],成都市,[],B001C8MZP6,[],"104.070591,30.591828",中信银行(成都高新支行),[],[],四川省,[],[],2,028-61550886;028-61550868;95558,金融保险服务;银行;中信银行,160111
千祥街32号银都大厦B座1-5层,青羊区,[],[],[],成都市,[],B001C060AF,[],"104.065878,30.673416",中国银行(成都江汉路支行),[],[],四川省,[],[],2,028-86699474;028-86240131;95566,金融保险服务;银行;中国银行,160104
大石西路259号(清水河大桥旁),武侯区,[],[],[],成都市,[],B001C7WFQI,[],"104.023700,30.651300",中信银行(成都双楠支行),[],[],四川省,[],[],2,028-87018275;028-85958772,金融保险服务;银行;中信银行,160111
瑞联路66号天合凯旋城7栋1层5号,青羊区,[],[],202,成都市,[],B001C7WE2Q,[],"104.003378,30.666664",中国农业银行(贝森南路支行),B0FFFPJ9KA,[],四川省,[],[],2,028-81713299,金融保险服务;银行;银行,160100
红星路三段1号国际金融中心3号办公楼T3-102、T3-202,锦江区,[],[],202,成都市,[],B0FFHS7XP6,[],"104.082447,30.655011",渣打银行(成都总府路支行),B0FFME17HD,[],四川省,[],[],2,028-85282758,金融保险服务;银行;渣打银行,160125
清江中路35号附41-42号,青羊区,[],[],[],成都市,[],B001C06G4S,[],"104.014115,30.671175",中国农业银行(西南财大分理处),[],[],四川省,[],[],2,028-87352434,金融保险服务;银行;中国农业银行,160107
一环路南三段28号附10-14号,武侯区,[],[],[],成都市,[],B001C7US16,[],"104.057716,30.633085",中国工商银行(一环路南三段分理处),[],[],四川省,[],[],2,028-85903885;028-85903497,金融保险服务;银行;中国工商银行,160105
新希望路4号附4号,武侯区,[],[],[],成都市,[],B001C7UR2S,[],"104.072235,30.614630",交通银行(新希望路支行),[],[],四川省,[],[],2,028-85355859;028-85355533,金融保险服务;银行;交通银行,160108
天泰路111号特拉克斯国际广场北楼1层,武侯区,[],[],[],成都市,[],B001C8O8H5,[],"104.070614,30.592660",交通银行(成都科技支行),[],[],四川省,[],[],2,028-61551329;028-85052179,金融保险服务;银行;交通银行,160108
建设南街15号附1号,成华区,[],[],[],成都市,[],B001C7YOWB,[],"104.106250,30.669415",中国农业银行(成都厂北路支行),[],[],四川省,[],[],2,028-84320472,金融保险服务;银行;中国农业银行,160107
人民南路三段6号附9号,武侯区,[],[],[],成都市,[],B001C0AGRU,[],"104.065795,30.644096",中国农业银行(小天竺支行),[],[],四川省,[],[],2,028-85564144,金融保险服务;银行;中国农业银行,160107
营门口路56-60号,金牛区,[],[],[],成都市,[],B001C06TZY,[],"104.042759,30.684050",中国工商银行(花牌坊支行),[],[],四川省,[],[],2,028-87734616;028-87735228;95588,金融保险服务;银行;中国工商银行,160105
南街81-89,新都区,[],[],[],成都市,[],B001C0AGTI,[],"104.026371,30.818310",中国农业银行(龙桥分理处),[],[],四川省,[],[],2,028-63932051,金融保险服务;银行;中国农业银行,160107
二环路西一段94号,武侯区,[],[],[],成都市,[],B001C7WFT8,[],"104.022976,30.645035",中国邮政储蓄银行(双楠支行),[],[],四川省,[],[],2,028-85087342,金融保险服务;银行;中国邮政储蓄银行,160139
清江西路74华府金沙商业裙房1号楼1层,青羊区,[],[],202,成都市,[],B001C80FBS,[],"104.002547,30.675198",成都银行(金沙支行),B001C8UJQ1,[],四川省,[],[],2,028-61962312;028-87353830,金融保险服务;银行;银行,160100
大华街10号附37号,武侯区,[],[],[],成都市,[],B001C7UK3K,[],"104.014156,30.649976",中国建设银行(大华街支行),[],[],四川省,[],[],2,028-87062313;95533,金融保险服务;银行;中国建设银行,160106
光华大道三段1588号合生汇(光华大道三段)L1层,温江区,[],[],202,成都市,[],B0FFFPV4HS,[],"103.863952,30.686119",中国建设银行ATM(合生汇),B0FFMAP2XK,[],四川省,[],[],2,[],金融保险服务;自动提款机;中国建设银行ATM,160303
龙泉街办佳美路331号,龙泉驿区,[],[],[],成都市,[],B0FFFACK17,[],"104.253951,30.543575",中国建设银行(东山支行),[],[],四川省,[],[],2,028-84611428;028-84856413,金融保险服务;银行;中国建设银行,160106
美领事馆科华北路18号,武侯区,[],[],[],成都市,[],B001C80RRN,[],"104.075960,30.631568",成都农商银行(磨子桥分理处),[],[],四川省,[],[],2,028-85222948;028-85351253,金融保险服务;银行;农村商业银行,160121
江汉路228号,青羊区,[],[],[],成都市,[],B001C7WQZY,[],"104.062280,30.675007",中国农业银行(新华支行),[],[],四川省,[],[],2,028-86697006,金融保险服务;银行;中国农业银行,160107
世纪城路198号附1637号,武侯区,[],[],[],成都市,[],B001C80IZZ,[],"104.075093,30.552486",中国农业银行(成都世纪城支行),[],[],四川省,[],[],2,028-85333272;95599,金融保险服务;银行;中国农业银行,160107
提督街101号四川国际大厦1层,青羊区,[],[],3,成都市,[],B001C8OQUJ,[],"104.071204,30.661038",兴业银行(提督街支行),B001C7WSAH,[],四川省,[],[],2,95561,金融保险服务;银行;兴业银行,160118
长寿路10号附21号,武侯区,[],[],[],成都市,[],B001C0AGPM,[],"104.071927,30.612166",中国农业银行(长寿路支行),[],[],四川省,[],[],2,028-61675307,金融保险服务;银行;中国农业银行,160107
蜀汉路289号附19号,金牛区,[],[],[],成都市,[],B001C7YL3V,[],"104.019656,30.689264",中国民生银行(蜀汉支行),[],[],四川省,[],[],2,028-87527357;95568,金融保险服务;银行;中国民生银行,160112
东兴北街189-11号,崇州市,[],[],[],成都市,[],B001C8NPZ1,[],"103.693409,30.631726",成都银行(崇州唐人街支行),[],[],四川省,[],[],2,028-82181090,金融保险服务;银行;银行,160100
紫荆南路52号附1号,武侯区,[],[],[],成都市,[],B001C7UTXG,[],"104.050748,30.613962",中国民生银行(神仙树支行),[],[],四川省,[],[],2,028-86031010;028-86030047;028-86030074,金融保险服务;银行;中国民生银行,160112
龙平路383号阳光香榭6号楼,龙泉驿区,[],[],[],成都市,[],B001C0A7JB,[],"104.263122,30.565635",兴业银行(龙泉驿支行),[],[],四川省,[],[],2,028-82862038;028-82862012,金融保险服务;银行;兴业银行,160118
天久街19-21号,武侯区,[],[],[],成都市,[],B001C8MR1K,[],"104.071858,30.592970",中国银行(成都海关大厦支行),[],[],四川省,[],[],2,028-61557006;028-61557012;95566,金融保险服务;银行;中国银行,160104
昭觉寺横路20号附1-2,成华区,[],[],[],成都市,[],B001C80DK7,[],"104.102093,30.702897",成都农商银行(青龙支行营业部),[],[],四川省,[],[],2,028-83506677;028-83516818,金融保险服务;银行;农村商业银行,160121
星辉西路6号,金牛区,[],[],[],成都市,[],B001C7UAN5,[],"104.076721,30.677802",成都农商银行(城隍庙分理处),[],[],四川省,[],[],2,028-83229034,金融保险服务;银行;农村商业银行,160121
昭觉寺横路99号附13号,成华区,[],[],[],成都市,[],B0FFFE1N4D,[],"104.105581,30.701674",中国邮政储蓄银行(青龙场营业所),[],[],四川省,[],[],2,028-84790560;95580,金融保险服务;银行;中国邮政储蓄银行,160139
凤凰街95号,温江区,[],[],[],成都市,[],B001C7YLJH,[],"103.870498,30.670063",成都农商银行(温江涌泉分理处),[],[],四川省,[],[],2,028-82600575,金融保险服务;银行;农村商业银行,160121
东大街59号附1、61,温江区,[],[],[],成都市,[],B001C7YO7B,[],"103.839432,30.698891",成都农商银行(温江柳城支行),[],[],四川省,[],[],2,028-82723297;028-82725006,金融保险服务;银行;农村商业银行,160121
德盛路24号附5号,青羊区,[],[],[],成都市,[],B001C7XDJL,[],"104.077506,30.667797",浙江民泰商业银行(成都分行),[],[],四川省,[],[],2,028-86530046,金融保险服务;银行;银行,160100
人民北路一段九号,金牛区,[],[],[],成都市,[],B001C7VGLD,[],"104.072573,30.680125",平安银行(成都万福支行),[],[],四川省,[],[],2,028-83230246,金融保险服务;银行;平安银行,160117
升华路131号,武侯区,[],[],[],成都市,[],B001C8R9BC,[],"104.066255,30.546159",招商银行(成都天府大道支行),[],[],四川省,[],[],2,028-85323265,金融保险服务;银行;招商银行,160109
顺城大街248号1楼,青羊区,[],[],202,成都市,[],B001C0AECF,[],"104.071101,30.663350",招商银行(顺城大街支行),B001C037A9,[],四川省,[],[],2,028-86531193;95555,金融保险服务;银行;银行,160100
二环路西二段39号附5-10号,青羊区,[],[],[],成都市,[],B001C80IXO,[],"104.021161,30.664883",成都农商银行(青羊支行),[],[],四川省,[],[],2,028-87339338;028-87380585,金融保险服务;银行;农村商业银行,160121
双林路346号,成华区,[],[],[],成都市,[],B001C7WR47,[],"104.096830,30.658969",中国邮政储蓄银行(猛追湾支行),[],[],四川省,[],[],2,028-84341074;028-83269707,金融保险服务;银行;中国邮政储蓄银行,160139
二环路北四段49号附16号-17,成华区,[],[],[],成都市,[],B001C80IXJ,[],"104.093901,30.690135",成都农商银行(李家沱分理处),[],[],四川省,[],[],2,028-83254820,金融保险服务;银行;农村商业银行,160121
正北下街154-178号,双流区,[],[],[],成都市,[],B001C8OBDY,[],"104.066328,30.516393",成都农商银行(天府新区支行),[],[],四川省,[],[],2,028-81508032,金融保险服务;银行;农村商业银行,160121
成灌路西段2-8,郫都区,[],[],[],成都市,[],B001C80RSX,[],"103.940375,30.774655",成都农商银行(红光支行),[],[],四川省,[],[],2,028-87985348;028-87985797,金融保险服务;银行;农村商业银行,160121
五丁路9号附1号,金牛区,[],[],[],成都市,[],B001C7WQXU,[],"104.065369,30.683630",中国建设银行(成都铁道支行),[],[],四川省,[],[],2,028-83174373,金融保险服务;银行;中国建设银行,160106
天回镇西部战区总医院门诊楼B1层,金牛区,[],[],[],成都市,[],B001C8VB5E,[],"104.115091,30.745827",中国农业银行(大湾分理处),[],[],四川省,[],[],2,028-83571660,金融保险服务;银行;中国农业银行,160107
建设路53号附1-3,成华区,[],[],[],成都市,[],B001C7WDHV,[],"104.101007,30.668166",中国邮政储蓄银行(建设路邮政支局),[],[],四川省,[],[],2,028-95580;028-84341899,金融保险服务;银行;中国邮政储蓄银行,160139
天府四街588号,武侯区,[],[],[],成都市,[],B0FFHCB9XG,[],"104.055467,30.542967",中国邮政储蓄银行(天府支行),[],[],四川省,[],[],2,028-88619988;95580,金融保险服务;银行;中国邮政储蓄银行,160139
宏济新路298号附278号,锦江区,[],[],[],成都市,[],B001C7WQNZ,[],"104.095880,30.639278",招商银行(世纪朝阳支行),[],[],四川省,[],[],2,028-84533509,金融保险服务;银行;招商银行,160109
一环路南三段47号附2号,武侯区,[],[],[],成都市,[],B001C0AECS,[],"104.055764,30.633479",招商银行(小天支行),[],[],四川省,[],[],2,028-85541910,金融保险服务;银行;招商银行,160109
莲桂西路174号,锦江区,[],[],[],成都市,[],B001C7TK6X,[],"104.093588,30.636684",中国建设银行(顺江路分理处),[],[],四川省,[],[],2,028-84530628,金融保险服务;银行;中国建设银行,160106
双楠路310号双楠谊苑,武侯区,[],[],[],成都市,[],B001C06M7D,[],"104.026672,30.644700",中国银行(成都双楠支行),[],[],四川省,[],[],2,028-85072500;028-85086670;95566,金融保险服务;银行;中国银行,160104
望平街167号,成华区,[],[],[],成都市,[],B001C7WFHW,[],"104.091398,30.656818",中国银行(成都望平街支行),[],[],四川省,[],[],2,028-84461277;028-84461536;95566,金融保险服务;银行;中国银行,160104
大田坎街162号附32-34号,锦江区,[],[],[],成都市,[],B001C7Y8F8,[],"104.103049,30.643269",中国建设银行(蜀都花园支行),[],[],四川省,[],[],2,028-84421286;028-84459103,金融保险服务;银行;中国建设银行,160106
天仙桥北路6号附1号,锦江区,[],[],[],成都市,[],B001C09XAH,[],"104.085850,30.650283",中国邮政储蓄银行(天福街营业所),[],[],四川省,[],[],2,028-86713900;028-95580,金融保险服务;银行;中国邮政储蓄银行,160139
十二桥路37号2栋附1-4,金牛区,[],[],[],成都市,[],B001C05JAK,[],"104.042281,30.665589",中国农业银行(西郊支行),[],[],四川省,[],[],2,028-87766772;028-87713535,金融保险服务;银行;中国农业银行,160107
海椒市街56号之附1-6号,锦江区,[],[],[],成都市,[],B001C0AGB0,[],"104.100306,30.636483",中国建设银行(成都莲花新区支行),[],[],四川省,[],[],2,028-84530780;028-84530781,金融保险服务;银行;中国建设银行,160106
北泉路1018号31栋1层20号,龙泉驿区,[],[],[],成都市,[],B0FFHDE5QM,[],"104.243030,30.571027",中国银行(北泉支行),[],[],四川省,[],[],2,028-69417917;95566,金融保险服务;银行;中国银行,160104
蜀光路2号附6-12号,金牛区,[],[],[],成都市,[],B001C02EBD,[],"104.015204,30.692129",成都银行(蜀光路支行),[],[],四川省,[],[],2,028-87533790;028-87536761,金融保险服务;银行;银行,160100
丽都路16号附3号,武侯区,[],[],[],成都市,[],B001C8O3FB,[],"104.032213,30.624752",中国建设银行(成都丽都路支行),[],[],四川省,[],[],2,028-85096821,金融保险服务;银行;中国建设银行,160106
大丰街办花都大道696号17幢1-01号,新都区,[],[],[],成都市,[],B001C8R8F9,[],"104.063072,30.761692",交通银行(成都新都大丰支行),[],[],四川省,[],[],2,028-83027646;028-83964766,金融保险服务;银行;交通银行,160108
益州大道北段333东方希望大楼25层,武侯区,[],[],[],成都市,[],B0FFGXDU9F,[],"104.060903,30.581723",东亚银行(成都分行),[],[],四川省,[],[],2,028-64368088;028-85132000,金融保险服务;银行;东亚银行,160123
蜀汉路520号附8号千和馨城1层,金牛区,[],[],[],成都市,[],B001C7WNKG,[],"104.015012,30.691411",上海浦东发展银行(成都蜀汉支行),[],[],四川省,[],[],2,028-87571105;028-87577312;95528,金融保险服务;银行;上海浦东发展银行,160115
希望路1号,新津区,[],[],[],成都市,[],B001C8O3A6,[],"103.812648,30.424092",中国工商银行(新津支行),[],[],四川省,[],[],2,028-82521642;95588;028-82522043,金融保险服务;银行;中国工商银行,160105
琴台路10号,青羊区,[],[],[],成都市,[],B001C06FQO,[],"104.044964,30.658071",中国工商银行(青羊宫支行),[],[],四川省,[],[],2,028-86132905;028-86135313,金融保险服务;银行;中国工商银行,160105
建设路1号附30-32号,成华区,[],[],[],成都市,[],B001C8MGC5,[],"104.107862,30.670174",中国民生银行(建设路支行),[],[],四川省,[],[],2,028-84302002;028-84302019,金融保险服务;银行;中国民生银行,160112
武科东二路11号附4号,武侯区,[],[],[],成都市,[],B001C0AFYJ,[],"103.989863,30.630432",中国工商银行(武侯科技园支行),[],[],四川省,[],[],2,028-85372363,金融保险服务;银行;中国工商银行,160105
人民南路三段37号附5-9号,武侯区,[],[],[],成都市,[],B001C7VG9A,[],"104.066880,30.634958",成都银行(跳伞塔支行),[],[],四川省,[],[],2,028-85451574,金融保险服务;银行;银行,160100
实业街7号1层,青羊区,[],[],[],成都市,[],B001C7Y7N0,[],"104.055789,30.665014",中国银行(成都实业街支行),[],[],四川省,[],[],2,028-86638952;028-86638327;95566,金融保险服务;银行;中国银行,160104
簇锦南街19号,武侯区,[],[],[],成都市,[],B001C7WEL6,[],"103.995949,30.600232",中国农业银行(簇锦南路支行),[],[],四川省,[],[],2,028-85013723,金融保险服务;银行;中国农业银行,160107
万科路4号1幢101-102号、2幢105-07号,成华区,[],[],[],成都市,[],B001C7ZZ3Q,[],"104.154528,30.625264",中国工商银行(万科路支行),[],[],四川省,[],[],2,028-84754155,金融保险服务;银行;中国工商银行,160105
鸥鹏大道9号附1号,龙泉驿区,[],[],[],成都市,[],B001C7VRAQ,[],"104.268950,30.559758",中国工商银行(龙泉广场支行),[],[],四川省,[],[],2,028-84851209,金融保险服务;银行;中国工商银行,160105
春熙路北段12号附3-4号,锦江区,[],[],[],成都市,[],B001C0AGSG,[],"104.077444,30.655972",中国农业银行(成都春熙路支行),[],[],四川省,[],[],2,028-86721222;028-86721666,金融保险服务;银行;中国农业银行,160107
一环路北一段279号,金牛区,[],[],[],成都市,[],B0FFH9A3KX,[],"104.058448,30.685459",招商银行(成都西体北路支行),[],[],四川省,[],[],2,028-87672778;028-87673300;95555,金融保险服务;银行;招商银行,160109
下东大街199号睿东中心一楼,锦江区,[],[],[],成都市,[],B0FFG77G5J,[],"104.084057,30.650000",中国银行(成都大慈寺支行),[],[],四川省,[],[],2,028-85233218;028-85230219;95566,金融保险服务;银行;中国银行,160104
小天竺街7号,武侯区,[],[],[],成都市,[],B001C05BFQ,[],"104.067509,30.642820",中国光大银行(小天竺支行),[],[],四川省,[],[],2,028-85446033;028-85457484,金融保险服务;银行;中国光大银行,160113
庆丰街146-148号,温江区,[],[],[],成都市,[],B001C7U5J6,[],"103.830044,30.698325",中国银行(庆丰街支行),[],[],四川省,[],[],2,028-82726327;95566,金融保险服务;银行;中国银行,160104
大石西路235号,武侯区,[],[],[],成都市,[],B001C02EBE,[],"104.026433,30.650701",成都银行(双楠支行),[],[],四川省,[],[],2,028-87047310,金融保险服务;银行;银行,160100
剑南大道中段761-767号,武侯区,[],[],[],成都市,[],B0FFF9ULJT,[],"104.046684,30.556833",中国农业银行(新南支行),[],[],四川省,[],[],2,028-86040239;028-86040067,金融保险服务;银行;中国农业银行,160107
犀浦街道国宁西路56号,郫都区,[],[],[],成都市,[],B001C80NZD,[],"103.972047,30.758684",成都银行(犀浦支行),[],[],四川省,[],[],2,028-87851281;028-87851510,金融保险服务;银行;银行,160100
一环路北一段99号环球广场,金牛区,[],[],202,成都市,[],B001C8VMPH,[],"104.048381,30.683243",交通银行(成都城西支行),B001C8N32Z,[],四川省,[],[],2,028-87664932;028-87661767,金融保险服务;银行;交通银行,160108
东大街紫东楼段35号明宇金融广场1层,锦江区,[],[],[],成都市,[],B0FFFAD48G,[],"104.091164,30.646876",中国银行(成都东大街支行),[],[],四川省,[],[],2,028-86731050;95566,金融保险服务;银行;中国银行,160104
百锦路215号-217号,武侯区,[],[],201,成都市,[],B001C7YQ2L,[],"103.990903,30.607976",中国银行(成都簇锦支行),B001C7WN1X,[],四川省,[],[],2,028-85026180,金融保险服务;银行;中国银行,160104
宏济巷153-161号,锦江区,[],[],[],成都市,[],B001C7XDT0,[],"104.095448,30.642957",中国农业银行(成都晶蓝半岛支行),[],[],四川省,[],[],2,028-84595271,金融保险服务;银行;中国农业银行,160107
火神庙路65号附34-37,成华区,[],[],[],成都市,[],B0FFF006Y3,[],"104.171259,30.706229",成都农商银行(龙潭支行),[],[],四川省,[],[],2,028-84204226,金融保险服务;银行;农村商业银行,160121
黄金路256号-266号,金牛区,[],[],[],成都市,[],B001C8MV45,[],"103.991260,30.708617",中国银行(成都黄金路支行),[],[],四川省,[],[],2,95566,金融保险服务;银行;中国银行,160104
吉祥街1-11号,青羊区,[],[],[],成都市,[],B001C7WQY2,[],"104.055984,30.667975",中国建设银行(成都锦城支行),[],[],四川省,[],[],2,028-86162191;028-86162652,金融保险服务;银行;中国建设银行,160106
华泰路29号附5-6,成华区,[],[],[],成都市,[],B001C955CL,[],"104.167116,30.692724",中国农业银行(龙港支行),[],[],四川省,[],[],2,028-84113198,金融保险服务;银行;中国农业银行,160107
[],锦江区,[],[],[],成都市,[],B001C8O7WF,[],"104.067203,30.652947",中国银行(成都人民南路支行),[],[],四川省,[],[],2,028-86511780;028-81472169;95566,金融保险服务;银行;中国银行,160104
东坡北三路505-507号,青羊区,[],[],[],成都市,[],B001C80EF1,[],"103.989254,30.665039",中国农业银行(成都东坡支行),[],[],四川省,[],[],2,028-81716655,金融保险服务;银行;中国农业银行,160107
两河路西段73-79号,温江区,[],[],[],成都市,[],B001C8OBT3,[],"103.840088,30.687841",中国农业银行(友谊花园支行),[],[],四川省,[],[],2,028-82760971,金融保险服务;银行;中国农业银行,160107
北站西二巷4号附2-3号,金牛区,[],[],[],成都市,[],B001C06W7H,[],"104.032723,30.680414",中国工商银行(抚琴西路支行),[],[],四川省,[],[],2,028-83170671;028-83197060;028-87776880,金融保险服务;银行;中国工商银行,160105
站北东街3-5号,成华区,[],[],[],成都市,[],B001C06N6E,[],"104.079249,30.700507",中国农业银行(成都站北支行),[],[],四川省,[],[],2,028-83150744;028-83139347,金融保险服务;银行;银行,160100
华冠路13-34,成华区,[],[],[],成都市,[],B001C8MI0O,[],"104.172641,30.693895",成都农商银行(龙潭总部城分理处),[],[],四川省,[],[],2,028-62024069,金融保险服务;银行;农村商业银行,160121
二环路西一段90号附1-附2号,武侯区,[],[],[],成都市,[],B001C06LTU,[],"104.024732,30.643628",中国建设银行(成都双楠支行),[],[],四川省,[],[],2,028-85061943,金融保险服务;银行;中国建设银行,160106
蜀金路1号金沙万瑞中心2栋,青羊区,[],[],[],成都市,[],B001C7YPZK,[],"103.999053,30.674537",中国银行(成都青羊支行),[],[],四川省,[],[],2,028-61506536;95566,金融保险服务;银行;中国银行,160104
犀浦街道天府大道1-3号,郫都区,[],[],[],成都市,[],B001C8ORGN,[],"103.973009,30.758109",成都农商银行(西区支行),[],[],四川省,[],[],2,028-87999565,金融保险服务;银行;农村商业银行,160121
双流机场内六号路,双流区,[],[],[],成都市,[],B001C8MQYL,[],"103.963472,30.568180",中国银行(双流机场支行),[],[],四川省,[],[],2,028-85206531,金融保险服务;银行;中国银行,160104
三槐树路3号附30-32号,锦江区,[],[],[],成都市,[],B001C033D5,[],"104.089965,30.662644",交通银行(成都新华支行),[],[],四川省,[],[],2,028-86920612,金融保险服务;银行;交通银行,160108
龙腾中路26号,武侯区,[],[],[],成都市,[],B001C80ROY,[],"104.014335,30.652472",中国农业银行(成都龙腾支行),[],[],四川省,[],[],2,028-61355012,金融保险服务;银行;中国农业银行,160107
花源镇花园街94号,新津区,[],[],[],成都市,[],B001C808DM,[],"103.878749,30.498273",成都农商银行(花园场分理处),[],[],四川省,[],[],2,028-82482989,金融保险服务;银行;农村商业银行,160121
成龙大道一段9号卓锦城二期22栋1层2-8号,锦江区,[],[],[],成都市,[],B001C95BB8,[],"104.131567,30.598953",中国建设银行(汽车城支行),[],[],四川省,[],[],2,028-84775546,金融保险服务;银行;中国建设银行,160106
北东街15附近,青羊区,[],[],[],成都市,[],B001C7UB08,[],"104.077303,30.671780",招商银行24小时自助银行(北东街),[],[],四川省,[],[],2,[],金融保险服务;自动提款机;招商银行ATM,160306
汇源北路272号、274号、276号、278号一层,锦江区,[],[],[],成都市,[],B0FFHPPAL2,[],"104.116710,30.638251",中国银行(东部新区支行),[],[],四川省,[],[],2,028-64357600;028-61197020;95566,金融保险服务;银行;中国银行,160104
紫杉路80号,武侯区,[],[],[],成都市,[],B001C069F8,[],"104.048619,30.614293",中国银行(成都紫荆西路支行),[],[],四川省,[],[],2,028-85130836;95566,金融保险服务;银行;中国银行,160104
清江中路10号附4-6号,青羊区,[],[],[],成都市,[],B001C7WE1K,[],"104.015403,30.671569",中国工商银行(清江中路支行),[],[],四川省,[],[],2,028-87371557;95588,金融保险服务;银行;中国工商银行,160105
新光路1号附8号,武侯区,[],[],[],成都市,[],B001C80SIW,[],"104.057811,30.617182",中国光大银行(紫荆支行),[],[],四川省,[],[],2,028-85972580;028-85972581;95595,金融保险服务;银行;中国光大银行,160113
青华路42号附1-3号,青羊区,[],[],[],成都市,[],B001C7WG2S,[],"104.023474,30.662477",中国银行(成都青华路支行),[],[],四川省,[],[],2,028-87371175;028-87372613;95566,金融保险服务;银行;中国银行,160104
锦东路559-561号,锦江区,[],[],[],成都市,[],B001C0AGQJ,[],"104.105975,30.639841",中国农业银行(成都牛市口支行),[],[],四川省,[],[],2,028-84517342,金融保险服务;银行;中国农业银行,160107
建祥路76-86号,成华区,[],[],[],成都市,[],B001C8NUNF,[],"104.110725,30.673814",成都银行(龙湖支行),[],[],四川省,[],[],2,028-86307025,金融保险服务;银行;银行,160100
树德大街38号,龙泉驿区,[],[],[],成都市,[],B001C7UUIU,[],"104.195934,30.584402",中国邮政储蓄银行(大面支行),[],[],四川省,[],[],2,028-84635865;95580,金融保险服务;银行;中国邮政储蓄银行,160139
天久北巷139号附9号,武侯区,[],[],[],成都市,[],B001C8O9L1,[],"104.075317,30.592738",中国农业银行(天府长城支行),[],[],四川省,[],[],2,028-84715907;028-61554386,金融保险服务;银行;中国农业银行,160107
双流机场内六号路四川机场集团公司商务楼1层,双流区,[],[],[],成都市,[],B001C8O25W,[],"103.963340,30.568273",中国工商银行(机场支行),[],[],四川省,[],[],2,028-85206529,金融保险服务;银行;中国工商银行,160105
长庆东一路4号附1号,金牛区,[],[],[],成都市,[],B001C7TIFO,[],"104.038822,30.703288",招商银行24小时自助银行(长庆东一路),[],[],四川省,[],[],2,[],金融保险服务;自动提款机;招商银行ATM,160306
北三路518号东坡生活广场,青羊区,[],[],[],成都市,[],B001C80EF0,[],"103.989595,30.665304",中国邮政储蓄银行(苏坡支行),[],[],四川省,[],[],2,028-81716052;95580,金融保险服务;银行;中国邮政储蓄银行,160139
西安南路63号金座大厦1层,金牛区,[],[],[],成都市,[],B001C05LEC,[],"104.046666,30.665178",交通银行(成都西安路支行)(装修中),[],[],四川省,[],[],2,028-87794303;028-87771157,金融保险服务;银行;交通银行,160108
成龙大道一段9号4栋1-3,锦江区,[],[],[],成都市,[],B001C8N110,[],"104.135087,30.595820",中国工商银行(成龙大道分理处),[],[],四川省,[],[],2,028-84777808,金融保险服务;银行;中国工商银行,160105
大石东路58号,武侯区,[],[],[],成都市,[],B001C7WG20,[],"104.043065,30.651569",中国银行(大石东路支行),[],[],四川省,[],[],2,028-85500722;95566,金融保险服务;银行;中国银行,160104
青江东路210号,青白江区,[],[],[],成都市,[],B001C06NEA,[],"104.259749,30.878000",中国建设银行(青白江支行),[],[],四川省,[],[],2,028-83304042,金融保险服务;银行;中国建设银行,160106
二环路南四段52号莱蒙置地广场2号楼1层,武侯区,[],[],202,成都市,[],B001C92GR8,[],"104.032730,30.631359",兴业银行(成都武侯支行),B001C9222B,[],四川省,[],[],2,028-62379294;028-61692647,金融保险服务;银行;兴业银行,160118
顺城大街312号附1-3号,青羊区,[],[],202,成都市,[],B001C068QT,[],"104.071051,30.668892",中国光大银行(冠城支行),B0FFH0JQLM,[],四川省,[],[],2,028-86528391;028-86528385;95595,金融保险服务;银行;中国光大银行,160113
何公路28附26号,郫都区,[],[],[],成都市,[],B001C801Y1,[],"103.878656,30.804126",中国工商银行(现代工业港支行),[],[],四川省,[],[],2,028-87921852;028-87921878;95588,金融保险服务;银行;中国工商银行,160105
芙蓉西路502号,锦江区,[],[],[],成都市,[],B0FFHXKKZ9,[],"104.142158,30.608462",中国银行(芙蓉西路支行),[],[],四川省,[],[],2,028-87022127,金融保险服务;银行;中国银行,160104
二环路东五段5号,锦江区,[],[],[],成都市,[],B001C05HRY,[],"104.098996,30.626522",中国工商银行(成都龙舟路支行),[],[],四川省,[],[],2,028-84525355;028-84529216,金融保险服务;银行;中国工商银行,160105
灵龙路67-69号,龙泉驿区,[],[],[],成都市,[],B001C8MZQS,[],"104.183533,30.652126",成都农商银行(灵龙路分理处),[],[],四川省,[],[],2,028-84600727,金融保险服务;银行;农村商业银行,160121
一环路西二段4-10号,青羊区,[],[],[],成都市,[],B001C8RVW1,[],"104.040488,30.660191",中国建设银行(青羊支行),[],[],四川省,[],[],2,028-87784937;028-87741787,金融保险服务;银行;中国建设银行,160106
宏济新路194-198号,锦江区,[],[],[],成都市,[],B001C7UPNJ,[],"104.094621,30.639241",中国银行(宏济新路支行),[],[],四川省,[],[],2,028-84513605;028-84513607,金融保险服务;银行;中国银行,160104
三洞桥路20号附2号,金牛区,[],[],202,成都市,[],B001C7WQVX,[],"104.050843,30.675482",中国工商银行(石灰街支行),B001C7WOYZ,[],四川省,[],[],2,028-87701731;95588,金融保险服务;银行;中国工商银行,160105
东城根上街93号(桂楼大厦1楼),青羊区,[],[],[],成都市,[],B001C05HXE,[],"104.060394,30.661573",中国工商银行(东城根街支行),[],[],四川省,[],[],2,028-86262466;028-86242766;95588,金融保险服务;银行;中国工商银行,160105
紫荆北路3号附1号,武侯区,[],[],[],成都市,[],B001C7WHFW,[],"104.053165,30.618927",中信银行(成都紫荆支行),[],[],四川省,[],[],2,028-85175095;028-85178173,金融保险服务;银行;中信银行,160111
电子路101附3-附8,新都区,[],[],[],成都市,[],B001C05BFK,[],"104.151302,30.816452",中国农业银行(新都电子路分理处),[],[],四川省,[],[],2,028-63932047,金融保险服务;银行;中国农业银行,160107
金阳路123-127号,青羊区,[],[],[],成都市,[],B001C7WR05,[],"104.004016,30.679896",中国农业银行(金沙西园支行),[],[],四川省,[],[],2,028-81710362;028-81710361,金融保险服务;银行;中国农业银行,160107
二环路北三段388号荷花池宏正广场1层,金牛区,[],[],[],成都市,[],B001C06V01,[],"104.078764,30.693833",中国工商银行(成都荷花池支行),[],[],四川省,[],[],2,028-83377529;028-95588,金融保险服务;银行;中国工商银行,160105
蓉都大道天回路270号,金牛区,[],[],[],成都市,[],B0FFFGYKJQ,[],"104.118721,30.744226",中国农业银行ATM,[],[],四川省,[],[],2,[],金融保险服务;自动提款机;中国农业银行ATM,160304
人民南路三段17号附1号,武侯区,[],[],[],成都市,[],B001C7WQXS,[],"104.066781,30.638685",中国建设银行(成都第九支行),[],[],四川省,[],[],2,028-85442271,金融保险服务;银行;中国建设银行,160106
长庆路3号附1-2号,金牛区,[],[],[],成都市,[],B001C0AFUI,[],"104.036552,30.706128",中国工商银行(长庆路支行),[],[],四川省,[],[],2,028-87696121;95588,金融保险服务;银行;中国工商银行,160105
金阳路1号青羊大道储蓄所,青羊区,[],[],[],成都市,[],B001C0AGBS,[],"104.011209,30.676592",中国建设银行(金沙园支行),[],[],四川省,[],[],2,028-87311205,金融保险服务;银行;中国建设银行,160106
武城大街1号(三洲佳润娇子苑2号门北侧),锦江区,[],[],[],成都市,[],B0FFFFRN3H,[],"104.089998,30.657654",中国建设银行(玉双路支行),[],[],四川省,[],[],2,028-86585110,金融保险服务;银行;中国建设银行,160106
金府路799号金府国际1期2栋1单元5号,金牛区,[],[],202,成都市,[],B001C8NQFB,[],"104.043497,30.717541",中国工商银行(金府路支行),B0FFFPF3FV,[],四川省,[],[],2,028-87623086;028-87629786,金融保险服务;银行;中国工商银行,160105
华星路2号附3-6号,锦江区,[],[],[],成都市,[],B001C7WHY9,[],"104.092200,30.662112",兴业银行(成都新华大道支行),[],[],四川省,[],[],2,028-86965235;028-86962951;95561,金融保险服务;银行;兴业银行,160118
新繁街道正东街64-70号,新都区,[],[],[],成都市,[],B001C0AFYW,[],"104.019445,30.874493",中国工商银行(新繁支行),[],[],四川省,[],[],2,028-83080050;028-83080324;95588,金融保险服务;银行;中国工商银行,160105
柳台大道东段215-219号,温江区,[],[],[],成都市,[],B001C807U0,[],"103.823006,30.687536",中国工商银行(海峡科技园支行),[],[],四川省,[],[],2,028-82685344;028-95588;028-82685395,金融保险服务;银行;中国工商银行,160105
解放路一段75号附16-20号,金牛区,[],[],[],成都市,[],B001C8MGYJ,[],"104.087750,30.688665",兴业银行(解放路社区支行),[],[],四川省,[],[],2,028-82862085;028-61380145,金融保险服务;银行;兴业银行,160118
驿都东路1140-1144号,龙泉驿区,[],[],[],成都市,[],B001C7VRDJ,[],"104.262274,30.560719",中国建设银行(成都经济技术开发区支行),[],[],四川省,[],[],2,028-84856413;028-84852601,金融保险服务;银行;中国建设银行,160106
贝森路56号附2号,青羊区,[],[],[],成都市,[],B0FFGCBDSS,[],"104.003187,30.669869",中国银行(贝森路支行),[],[],四川省,[],[],2,028-87335605;95566,金融保险服务;银行;中国银行,160104
新成仁路沙河段晨辉路1号,锦江区,[],[],[],成都市,[],B001C7UR9F,[],"104.099786,30.610693",中国建设银行(金象花园支行),[],[],四川省,[],[],2,028-85951831;95533,金融保险服务;银行;中国建设银行,160106
抚琴西路244-246号,金牛区,[],[],[],成都市,[],B001C05CUY,[],"104.033003,30.680242",中国建设银行(抚琴西路支行),[],[],四川省,[],[],2,028-87713239;95533,金融保险服务;银行;中国建设银行,160106
人民南路三段2号附6号汇日央扩1层,武侯区,[],[],202,成都市,[],B001C7WQYZ,[],"104.065716,30.645875",中国民生银行(成都锦江支行),B0FFFZUSAS,[],四川省,[],[],2,028-85102587;028-85516617;028-85516620,金融保险服务;银行;中国民生银行,160112
和平路68-74号,龙泉驿区,[],[],[],成都市,[],B001C8MR5F,[],"104.177559,30.650229",中国农业银行(十陵分理处),[],[],四川省,[],[],2,028-84600224;028-84605815;028-95599,金融保险服务;银行;中国农业银行,160107
东升镇迎春路三段158号富豪时代1幢,双流区,[],[],202,成都市,[],B001C808DN,[],"103.918920,30.579636",中信银行(双流支行),B0FFGB3UNI,[],四川省,[],[],2,028-85734206,金融保险服务;银行;中信银行,160111
长顺上街2-4号,青羊区,[],[],[],成都市,[],B001C7VRD4,[],"104.056684,30.660505",中国建设银行(成都新华支行),[],[],四川省,[],[],2,028-86636265;028-86261901;028-86636330,金融保险服务;银行;中国建设银行,160106
清江西路58-68号,青羊区,[],[],[],成都市,[],B001C80J0W,[],"104.003295,30.674614",中国建设银行(金沙祥域储蓄所),[],[],四川省,[],[],2,028-61333251,金融保险服务;银行;中国建设银行,160106
双建路8号,成华区,[],[],[],成都市,[],B001C7WDKL,[],"104.115066,30.678921",中国建设银行(成都双建路支行),[],[],四川省,[],[],2,[],金融保险服务;银行;中国建设银行,160106
同善桥南街7号附12号,青羊区,[],[],[],成都市,[],B001C7VRE4,[],"104.022658,30.680635",中国建设银行(战旗分理处),[],[],四川省,[],[],2,028-87316752;028-87310925;95533,金融保险服务;银行;中国建设银行,160106
滨河路三段7-9(华阳镇华兴大道府河音乐花园2号),双流区,[],[],[],成都市,[],B001C7UW2R,[],"104.056159,30.523714",中国工商银行(府河音乐花园支行),[],[],四川省,[],[],2,028-81505838;95588,金融保险服务;银行;中国工商银行,160105
黄河中路二段蓝光圣菲TOWN城旁边,双流区,[],[],[],成都市,[],B001C95DGT,[],"104.003093,30.566208",交通银行ATM(暂停营业),[],[],四川省,[],[],2,[],金融保险服务;自动提款机;交通银行ATM,160305
东城根中街138附2-7,青羊区,[],[],[],成都市,[],B001C7WQXI,[],"104.060809,30.666492",中国建设银行(成都第一支行),[],[],四川省,[],[],2,028-86272817;028-86255539;95533,金融保险服务;银行;中国建设银行,160106
金强步行街1-3,温江区,[],[],[],成都市,[],B001C0AGB3,[],"103.837049,30.693477",中国建设银行(柳城干道支行),[],[],四川省,[],[],2,028-82711644;95533,金融保险服务;银行;中国建设银行,160106
广场路13附2-4,郫都区,[],[],[],成都市,[],B001C8MG33,[],"103.942785,30.773670",中国邮政储蓄银行(西华大学邮政储蓄所),[],[],四川省,[],[],2,028-87987771;95580,金融保险服务;银行;中国邮政储蓄银行,160139
朝阳路232-238,双流区,[],[],[],成都市,[],B001C8OMKA,[],"104.094095,30.559702",中国建设银行(成都中和支行),[],[],四川省,[],[],2,028-85835575,金融保险服务;银行;中国建设银行,160106
茶店子街道金瑞路148号,金牛区,[],[],[],成都市,[],B001C8OL6D,[],"104.010243,30.707118",中国建设银行(成都迎宾支行),[],[],四川省,[],[],2,028-87507353,金融保险服务;银行;中国建设银行,160106
长顺下街1-9号,青羊区,[],[],[],成都市,[],B001C0AFYP,[],"104.056160,30.669630",中国工商银行(西马棚分理处),[],[],四川省,[],[],2,028-86693621;95588,金融保险服务;银行;中国工商银行,160105
朝阳路254号,双流区,[],[],[],成都市,[],B001C0AFZH,[],"104.094577,30.559955",中国工商银行(中和支行),[],[],四川省,[],[],2,028-81503357;95588,金融保险服务;银行;中国工商银行,160105
成飞大道117-123号青羊工业总部基地,青羊区,[],[],[],成都市,[],B001C8MVDY,[],"103.961476,30.681711",中国建设银行(成都青羊工业园支行),[],[],四川省,[],[],2,028-85367723,金融保险服务;银行;中国建设银行,160106
解放路二段2号附3号,金牛区,[],[],[],成都市,[],B001C7UAG8,[],"104.081880,30.681005",中国建设银行(成都梁家巷支行),[],[],四川省,[],[],2,[],金融保险服务;银行;中国建设银行,160106
太升北路58号江信大厦1层,青羊区,[],[],202,成都市,[],B001C05CI1,[],"104.082801,30.672032",中国农业银行(太升支行),B001C06XY4,[],四川省,[],[],2,028-86911330,金融保险服务;银行;中国农业银行,160107
武侯大道铁佛段1号优博国际1层,武侯区,[],[],202,成都市,[],B001C8O8SU,[],"103.984711,30.622453",交通银行(成都新城支行),B0FFHLKCCY,[],四川省,[],[],2,028-85374620;028-85366939,金融保险服务;银行;交通银行,160108
青华路59号附1-5号,青羊区,[],[],[],成都市,[],B001C7YLBV,[],"104.022432,30.662003",中信银行(成都草堂支行),[],[],四川省,[],[],2,028-87321573;028-87321057;028-87322297,金融保险服务;银行;中信银行,160111
蜀汉路289号锦城苑大厦内,金牛区,[],[],202,成都市,[],B001C0AGC5,[],"104.020149,30.688954",中国建设银行(蜀汉路分理处),B0FFFDZ8ZY,[],四川省,[],[],2,028-87578056,金融保险服务;银行;中国建设银行,160106
高升桥东路1号,武侯区,[],[],202,成都市,[],B001C7VS4L,[],"104.044329,30.637905",中信银行(成都高升路支行),B001C04B3A,[],四川省,[],[],2,028-85196696;028-85151217,金融保险服务;银行;中信银行,160111
光华北三路149-153,青羊区,[],[],[],成都市,[],B0FFFODE38,[],"103.963151,30.672116",中国建设银行(光华支行),[],[],四川省,[],[],2,028-85276745,金融保险服务;银行;中国建设银行,160106
锦泉街285-291号,温江区,[],[],[],成都市,[],B0FFFFLTIT,[],"103.855976,30.688896",中国工商银行(成都锦泉街支行),[],[],四川省,[],[],2,028-61710506,金融保险服务;银行;中国工商银行,160105
人民南路四段47号附2号,武侯区,[],[],[],成都市,[],B001C7VS4K,[],"104.067680,30.614830",中信银行(成都锦绣支行),[],[],四川省,[],[],2,028-85357876;028-85258805,金融保险服务;银行;中信银行,160111
小天东街5号附13-19号,武侯区,[],[],[],成都市,[],B001C7WLB1,[],"104.058562,30.635157",交通银行(成都华西支行),[],[],四川省,[],[],2,[],金融保险服务;银行;交通银行,160108
高新区天府大道中段688号大源国际中心A3栋1层,武侯区,[],[],202,成都市,[],B0FFFODL67,[],"104.068313,30.548142",中国农业银行(天府新区分行),B001C8NQZF,[],四川省,[],[],2,028-87672359,金融保险服务;银行;中国农业银行,160107
科华北路145号附1号,武侯区,[],[],[],成都市,[],B001C0AGOR,[],"104.077135,30.622460",中国民生银行(科华支行),[],[],四川省,[],[],2,028-85258203;028-85253795,金融保险服务;银行;中国民生银行,160112
大面街道东洪路257号,龙泉驿区,[],[],[],成都市,[],B001C7UUI5,[],"104.150532,30.614992",交通银行(龙泉驿桃花源支行),[],[],四川省,[],[],2,028-84636318;028-84630393,金融保险服务;银行;交通银行,160108
双庆路99号,成华区,[],[],[],成都市,[],B0FFGQ84DO,[],"104.115589,30.652675",中国农业银行(成都双庆支行),[],[],四川省,[],[],2,028-84293066,金融保险服务;银行;中国农业银行,160107
惠王陵东路457号,龙泉驿区,[],[],[],成都市,[],B001C7UUHV,[],"104.155929,30.615246",中国邮政储蓄银行(洪河镇支行),[],[],四川省,[],[],2,028-88436233,金融保险服务;银行;中国邮政储蓄银行,160139
天府大道中段1366号天府软件园e8,武侯区,[],[],202,成都市,[],B001C8R8CM,[],"104.068085,30.535782",中国银行(成都高新技术产业开发区支行),B0FFHG1VM5,[],四川省,[],[],2,028-62038635;028-62038731,金融保险服务;银行;中国银行,160104
佳灵路53号附1号,武侯区,[],[],[],成都市,[],B001C0AFUT,[],"104.026305,30.627509",中国工商银行成都红牌楼支行,[],[],四川省,[],[],2,028-85067701,金融保险服务;银行;银行,160100
一环路南二段1号附8-9号,武侯区,[],[],[],成都市,[],B001C7VRIE,[],"104.075115,30.633873",中国农业银行(武城支行),[],[],四川省,[],[],2,028-85442076,金融保险服务;银行;中国农业银行,160107
华阳大道一段237号,双流区,[],[],[],成都市,[],B0FFFPXYJZ,[],"104.046654,30.511974",中国工商银行24小时自助银行(华阳大道一段),[],[],四川省,[],[],2,[],金融保险服务;自动提款机;中国工商银行ATM,160302
双成三路18号18栋1层1号,成华区,[],[],[],成都市,[],B0FFLA9E93,[],"104.118990,30.644757",平安银行(成都成华支行),[],[],四川省,[],[],2,028-60730118,金融保险服务;银行;平安银行,160117
清江东路9号,青羊区,[],[],[],成都市,[],B001C7WR3S,[],"104.037803,30.667275",中国银行(罗家碾支行),[],[],四川省,[],[],2,028-87313361;028-95566;028-87310312,金融保险服务;银行;中国银行,160104
中环路武阳大道二段158号,武侯区,[],[],[],成都市,[],B0FFG8KWJQ,[],"104.016093,30.630535",中信银行(武阳大道支行),[],[],四川省,[],[],2,028-80585017;028-80585015,金融保险服务;银行;中信银行,160111
瑞联路3号附34-36,青羊区,[],[],[],成都市,[],B001C7WE2O,[],"104.004784,30.665269",中国工商银行(光华大道支行),[],[],四川省,[],[],2,028-61860135;028-81707447;95588,金融保险服务;银行;中国工商银行,160105
科华街1号附3号,武侯区,[],[],[],成都市,[],B001C7UQHG,[],"104.079767,30.623488",中国工商银行(九眼桥支行),[],[],四川省,[],[],2,028-85460468;028-85460498;95588,金融保险服务;银行;中国工商银行,160105
成华大道新鸿路71-75号,成华区,[],[],[],成都市,[],B001C0AHGL,[],"104.099000,30.662322",中国银行(成都猛追湾支行),[],[],四川省,[],[],2,028-84356612;028-84356613,金融保险服务;银行;中国银行,160104
永丰路6号之附1-附5,武侯区,[],[],[],成都市,[],B001C7WR4N,[],"104.051016,30.632997",中国邮政储蓄银行(衣冠庙支行),[],[],四川省,[],[],2,028-85194252;028-85194201;95580,金融保险服务;银行;中国邮政储蓄银行,160139
狮子山街道静沙南路29号53-71,锦江区,[],[],[],成都市,[],B0FFFYKETY,[],"104.114996,30.619365",中国建设银行(成都沙河支行),[],[],四川省,[],[],2,028-84497973,金融保险服务;银行;中国建设银行,160106
武侯祠东街2号,武侯区,[],[],[],成都市,[],B001C7WR0C,[],"104.047658,30.642504",中国农业银行(武侯东街支行),[],[],四川省,[],[],2,028-85572265;028-63930481,金融保险服务;银行;中国农业银行,160107
福锦路一段598-600号,武侯区,[],[],[],成都市,[],B0FFFYKF3Q,[],"103.988001,30.619035",中信银行(万兴路支行),[],[],四川省,[],[],2,95558,金融保险服务;银行;中信银行,160111
蜀跃路2号附9-11号,金牛区,[],[],[],成都市,[],B001C0AHHN,[],"104.006096,30.705611",中国银行(成都蜀跃路支行),[],[],四川省,[],[],2,028-87596011;028-87594328;95566,金融保险服务;银行;中国银行,160104
IT大道蜀鑫路67-69-蜀鑫东路131号,青羊区,[],[],[],成都市,[],B001C953EM,[],"103.991447,30.682600",中国农业银行(成都蜀鑫支行),[],[],四川省,[],[],2,028-83189776;028-83192439,金融保险服务;银行;中国农业银行,160107
建设路2号附20号,成华区,[],[],[],成都市,[],B001C8MGY5,[],"104.108232,30.670915",中国建设银行(成都建设路支行),[],[],四川省,[],[],2,028-84257519,金融保险服务;银行;中国建设银行,160106
双庆路99号附173号,成华区,[],[],[],成都市,[],B001C7YBJW,[],"104.118083,30.651169",招商银行24小时自助银行(双庆路),[],[],四川省,[],[],2,[],金融保险服务;自动提款机;招商银行ATM,160306
机投镇半边街村九金街86号附40-43号,武侯区,[],[],[],成都市,[],B001C8O92N,[],"103.971075,30.648160",成都农商银行(永康分理处),[],[],四川省,[],[],2,028-85367212,金融保险服务;银行;农村商业银行,160121
金阳路81-83号,青羊区,[],[],[],成都市,[],B001C7UBXF,[],"104.005119,30.679386",成都银行(金阳路支行),[],[],四川省,[],[],2,028-81711050,金融保险服务;银行;银行,160100
柳城镇柳城大道西段86、88号,温江区,[],[],[],成都市,[],B001C0AHII,[],"103.829443,30.691087",中国银行(柳台大道支行),[],[],四川省,[],[],2,028-82712300;95566,金融保险服务;银行;中国银行,160104
双林中横路16-24号,成华区,[],[],[],成都市,[],B001C06KU6,[],"104.109920,30.651504",中国农业银行(新华小区支行),[],[],四川省,[],[],2,028-84333517,金融保险服务;银行;中国农业银行,160107
东明街112-114号,双流区,[],[],[],成都市,[],B001C0AHIT,[],"103.927722,30.575402",中国银行(双流安福街支行),[],[],四川省,[],[],2,028-85823844;028-95566,金融保险服务;银行;中国银行,160104
培华西路7号附16号,成华区,[],[],[],成都市,[],B001C7TKKX,[],"104.101208,30.665872",中国农业银行(成都东郊支行),[],[],四川省,[],[],2,028-84319750,金融保险服务;银行;中国农业银行,160107
惠王陵东路109(四川师范大学东校区),龙泉驿区,[],[],[],成都市,[],B001C8MRZM,[],"104.163189,30.608437",中国建设银行ATM(椿树街),[],[],四川省,[],[],2,[],金融保险服务;自动提款机;中国建设银行ATM,160303
菱安路276-284号,锦江区,[],[],[],成都市,[],B0FFIZDZA6,[],"104.116654,30.609698",中国银行(成都万科支行),[],[],四川省,[],[],2,028-84782962;028-84783400;95566,金融保险服务;银行;中国银行,160104
经一路82号,青羊区,[],[],[],成都市,[],B001C7U6B6,[],"103.965210,30.693708",成都农商银行(黄田坝分理处),[],[],四川省,[],[],2,028-87416573,金融保险服务;银行;农村商业银行,160121
来凤二路28号,武侯区,[],[],[],成都市,[],B0FFMGRO35,[],"103.985281,30.615501",平安银行(成都武侯支行),[],[],四川省,[],[],2,028-85553239,金融保险服务;银行;平安银行,160117
龙泉东街68号,龙泉驿区,[],[],[],成都市,[],B001C7UWVN,[],"104.274030,30.557168",中国工商银行(龙泉支行营业室),[],[],四川省,[],[],2,028-84851367;028-84852345;95588,金融保险服务;银行;中国工商银行,160105
高新技术产业开发区九兴大道2号,武侯区,[],[],[],成都市,[],B001C7VRA4,[],"104.042035,30.619912",中国工商银行(成都永丰路支行),[],[],四川省,[],[],2,028-85160211;028-85199048,金融保险服务;银行;中国工商银行,160105
东大街12号附4号,温江区,[],[],3,成都市,[],B001C7U591,[],"103.836662,30.698288",中国邮政储蓄银行24小时自助银行(温江区支行),B001C7TLJU,[],四川省,[],[],2,[],金融保险服务;自动提款机;中国邮政储蓄银行ATM,160336
通盈街302号,锦江区,[],[],[],成都市,[],B0FFFE1OQ1,[],"104.106399,30.630195",中国建设银行(成都牛沙路支行),[],[],四川省,[],[],2,028-83396692,金融保险服务;银行;中国建设银行,160106
红星路二段70号,锦江区,[],[],[],成都市,[],B0FFG0UBOV,[],"104.082864,30.659501",中国建设银行(成都华兴支行),[],[],四川省,[],[],2,028-86966816;028-86966830,金融保险服务;银行;中国建设银行,160106
科华北路58号附1号,武侯区,[],[],202,成都市,[],B001C06MXH,[],"104.076441,30.624803",中国银行(成都棕南支行),B001C7TDQL,[],四川省,[],[],2,028-85233301;95566,金融保险服务;银行;中国银行,160104
和韵路197号,成华区,[],[],[],成都市,[],B0FFGILAHT,[],"104.158523,30.626646",中国建设银行(锦绣城支行),[],[],四川省,[],[],2,028-84421107,金融保险服务;银行;中国建设银行,160106
建材路66号博瑞优品尚东5号楼1层5号-12号,成华区,[],[],[],成都市,[],B001C80FIV,[],"104.140145,30.642378",中国农业银行(杨柳店支行),[],[],四川省,[],[],2,028-84716507,金融保险服务;银行;中国农业银行,160107
天目路69号,郫都区,[],[],[],成都市,[],B0FFFVNGYN,[],"103.976216,30.732085",中国建设银行(天目路储蓄所),[],[],四川省,[],[],2,028-62537716,金融保险服务;银行;中国建设银行,160106
天顺路116号,武侯区,[],[],[],成都市,[],B001C7YL8F,[],"104.071220,30.591755",中国工商银行(天顺路支行),[],[],四川省,[],[],2,028-85359638;028-85359366;95588,金融保险服务;银行;中国工商银行,160105
书院西街1号亚太大厦,锦江区,[],[],202,成都市,[],B001C02EB6,[],"104.084549,30.657326",成都银行(锦江支行),B001C0507D,[],四川省,[],[],2,028-86655102;028-86754556;4006896511,金融保险服务;银行;银行,160100
蜀汉路211-213号,金牛区,[],[],[],成都市,[],B001C7WR3B,[],"104.026248,30.684988",中国银行(成都蜀汉路支行),[],[],四川省,[],[],2,95566,金融保险服务;银行;中国银行,160104
天彭镇朝阳中路460号(一品蓉和旁),彭州市,[],[],[],成都市,[],B001C8NT92,[],"103.951065,30.992287",成都银行(牡丹新城支行),[],[],四川省,[],[],2,028-86231672;028-86231157,金融保险服务;银行;银行,160100
贝森路31号附1-3号,青羊区,[],[],[],成都市,[],B001C7UCO2,[],"104.003511,30.669513",中国建设银行(贝森路储蓄所),[],[],四川省,[],[],2,028-81703917;95533,金融保险服务;银行;中国建设银行,160106
高新区天顺路90号,武侯区,[],[],[],成都市,[],B001C7YL9I,[],"104.071184,30.590579",中国建设银行(兴南支行),[],[],四川省,[],[],2,028-85359491,金融保险服务;银行;中国建设银行,160106
蜀汉路289号(一品天下站地铁2号线D出口旁),金牛区,[],[],[],成都市,[],B001C7YQI1,[],"104.019062,30.689643",中国光大银行(蜀汉路支行),[],[],四川省,[],[],2,028-87521289;95595,金融保险服务;银行;中国光大银行,160113
天府大道北段1700号新世纪环球中心1F层,武侯区,[],[],202,成都市,[],B0FFF5TMCU,[],"104.064855,30.571303",中国工商银行(天府支行),B0FFFAF652,[],四川省,[],[],2,028-87344865,金融保险服务;银行;中国工商银行,160105
华阳街道丽都街195号,双流区,[],[],[],成都市,[],B0FFFAC64U,[],"104.060054,30.504579",中国工商银行24小时自助银行(双峰岭西南),[],[],四川省,[],[],2,[],金融保险服务;自动提款机;中国工商银行ATM,160302
草堂北路21号附4-5号,青羊区,[],[],[],成都市,[],B001C054RR,[],"104.029325,30.667408",中国建设银行(草堂北路支行),[],[],四川省,[],[],2,028-87369040;95533,金融保险服务;银行;中国建设银行,160106
科华街1号附9号,武侯区,[],[],[],成都市,[],B001C0AGSE,[],"104.079541,30.623488",中国农业银行(成都川大花园支行),[],[],四川省,[],[],2,028-85463799;028-85408788,金融保险服务;银行;中国农业银行,160107
花园街41号,锦江区,[],[],[],成都市,[],B001C7UQBD,[],"104.114303,30.616519",中国建设银行(万科城市花园支行),[],[],四川省,[],[],2,028-84790365,金融保险服务;银行;中国建设银行,160106
成飞大道131-135号青羊工业总部基地,青羊区,[],[],[],成都市,[],B001C8MVDX,[],"103.961582,30.681986",中国工商银行(青羊工业园支行),[],[],四川省,[],[],2,028-61311357;028-61311356,金融保险服务;银行;中国工商银行,160105
高新区盛安街369号,武侯区,[],[],[],成都市,[],B0FFFODM11,[],"104.047941,30.557755",中国民生银行(铁像寺支行),[],[],四川省,[],[],2,028-62962628,金融保险服务;银行;中国民生银行,160112
培风路80号17栋1-2-3,青羊区,[],[],202,成都市,[],B001C8O8WS,[],"103.978403,30.664215",成都农商银行(培风分理处),B0FFFPCQTU,[],四川省,[],[],2,028-87493296,金融保险服务;银行;农村商业银行,160121
江汉路230号,青羊区,[],[],[],成都市,[],B001C01F68,[],"104.062017,30.675195",成都银行(青羊支行),[],[],四川省,[],[],2,028-86273237,金融保险服务;银行;银行,160100
火车南站东路5号附7-9号,武侯区,[],[],[],成都市,[],B001C7Y97M,[],"104.078574,30.608042",中国银行(成都高攀支行),[],[],四川省,[],[],2,028-85210367;028-85216852,金融保险服务;银行;中国银行,160104
涧槽北街2-8,双流区,[],[],[],成都市,[],B001C95CX7,[],"103.910115,30.567438",中国建设银行(新城支行),[],[],四川省,[],[],2,028-62580126,金融保险服务;银行;中国建设银行,160106
荆竹中路266-268,成华区,[],[],[],成都市,[],B001C8OTDF,[],"104.105811,30.713678",成都农商银行(白莲分理处),[],[],四川省,[],[],2,028-83506128;028-83530360,金融保险服务;银行;农村商业银行,160121
二环路东三段40号,成华区,[],[],[],成都市,[],B001C055WS,[],"104.115605,30.651072",中国建设银行(成都双庆路支行),[],[],四川省,[],[],2,028-84321455;028-95533,金融保险服务;银行;中国建设银行,160106
童子街2号附1-附4,青羊区,[],[],[],成都市,[],B001C7WQXF,[],"104.078075,30.666108",中国建设银行(成都第六支行),[],[],四川省,[],[],2,028-86621516;028-86613151;028-95533,金融保险服务;银行;中国建设银行,160106
光华南三路110号,青羊区,[],[],[],成都市,[],B0FFFZL2JX,[],"103.963482,30.668105",招商银行24小时自助银行(光华南三路支行),[],[],四川省,[],[],2,[],金融保险服务;自动提款机;招商银行ATM,160306
高升桥北街9号,武侯区,[],[],[],成都市,[],B001C0AGB8,[],"104.038995,30.637626",中国建设银行(罗浮世家分理处),[],[],四川省,[],[],2,028-85090513,金融保险服务;银行;中国建设银行,160106
置信路25号,武侯区,[],[],[],成都市,[],B0FFJ06KSY,[],"104.018752,30.647604",兴业银行(双楠支行),[],[],四川省,[],[],2,028-87014281,金融保险服务;银行;兴业银行,160118
紫荆西路31-33号,武侯区,[],[],[],成都市,[],B001C7UT63,[],"104.048385,30.616956",中国工商银行(紫荆西路支行),[],[],四川省,[],[],2,028-85182833;028-95588,金融保险服务;银行;中国工商银行,160105
桐梓林南路12号,武侯区,[],[],[],成都市,[],B001C7Y9XJ,[],"104.057847,30.611895",中国工商银行(桐梓林南路支行),[],[],四川省,[],[],2,028-85177928;028-85178809;95588,金融保险服务;银行;中国工商银行,160105
永丰路21号附3-7,武侯区,[],[],[],成都市,[],B001C7URU3,[],"104.050181,30.630666",中国建设银行(成都武侯支行),[],[],四川省,[],[],2,028-85137873;95533,金融保险服务;银行;中国建设银行,160106
一环路西一段144号附1号,青羊区,[],[],[],成都市,[],B001C056ED,[],"104.040782,30.652442",中国农业银行(百花支行),[],[],四川省,[],[],2,028-87034699,金融保险服务;银行;中国农业银行,160107
成汉南路93-97,武侯区,[],[],[],成都市,[],B001C8O932,[],"104.054822,30.585964",中国建设银行(天府新谷支行),[],[],四川省,[],[],2,028-85325668,金融保险服务;银行;中国建设银行,160106
橡树林路34-40号,锦江区,[],[],[],成都市,[],B0FFHGM2AB,[],"104.093486,30.624798",中国建设银行(三官堂支行),[],[],四川省,[],[],2,028-84514017,金融保险服务;银行;中国建设银行,160106
暑袜中街55、57号,锦江区,[],[],[],成都市,[],B001C06ODQ,[],"104.074489,30.657202",中国农业银行(成都暑袜街支行),[],[],四川省,[],[],2,028-86711837;028-86654257,金融保险服务;银行;中国农业银行,160107
广都上街193附近,双流区,[],[],[],成都市,[],B001C8MQCG,[],"104.062629,30.505903",招商银行24小时自助银行(广都上街),[],[],四川省,[],[],2,[],金融保险服务;自动提款机;招商银行ATM,160306
郫筒镇科化二路178-188号,郫都区,[],[],[],成都市,[],B001C8ZVV6,[],"103.897850,30.794912",交通银行(郫都区支行),[],[],四川省,[],[],2,028-87901210,金融保险服务;银行;交通银行,160108
顺和街10号附44-49号,武侯区,[],[],202,成都市,[],B001C8O585,[],"104.001930,30.632963",中国银行(成都中华名园支行),B001C8UFX7,[],四川省,[],[],2,028-87537563;028-85378131;95566,金融保险服务;银行;中国银行,160104
犀浦街道浦兴街252号,郫都区,[],[],[],成都市,[],B001C7SQCU,[],"103.964787,30.751926",成都农商银行(犀浦支行),[],[],四川省,[],[],2,028-61772997,金融保险服务;银行;农村商业银行,160121
均隆街63号裙楼201室,锦江区,[],[],[],成都市,[],B001C0611N,[],"104.088875,30.651851",中国农业发展银行(四川省分行),[],[],四川省,[],[],2,028-84460501;028-84460167;028-84463373,金融保险服务;银行;银行,160100
银河路1号6栋附130、131、132,龙泉驿区,[],[],[],成都市,[],B001C8ORGS,[],"104.180020,30.569210",成都农商银行(龙泉驿大面支行),[],[],四川省,[],[],2,028-84640118,金融保险服务;银行;农村商业银行,160121
世纪城路天府软件园A5座,武侯区,[],[],202,成都市,[],B001C8OAXC,[],"104.070998,30.550935",中国建设银行(高新支行),B001C93C46,[],四川省,[],[],2,028-85342190;028-85342178,金融保险服务;银行;中国建设银行,160106
上升街96号交银大厦,青羊区,[],[],3,成都市,[],B001C929M3,[],"104.066087,30.666897",交通银行(四川省分行),B001C04E49,[],四川省,[],[],2,028-86525118;028-86525666,金融保险服务;银行;交通银行,160108
顺城街27号,双流区,[],[],[],成都市,[],B001C7VRDR,[],"103.922910,30.574464",中国建设银行(双流支行),[],[],四川省,[],[],2,028-85824848,金融保险服务;银行;中国建设银行,160106
药王庙街2-12,龙泉驿区,[],[],[],成都市,[],B001C8VF1Q,[],"104.235512,30.651612",中国邮政储蓄银行24小时自助银行,[],[],四川省,[],[],2,[],金融保险服务;自动提款机;中国邮政储蓄银行ATM,160336
汇泉南路1号,锦江区,[],[],[],成都市,[],B0FFFAAW4F,[],"104.103372,30.624916",中国银行(锦江支行),[],[],四川省,[],[],2,[],金融保险服务;银行;中国银行,160104
中街165号,龙泉驿区,[],[],[],成都市,[],B0FFILXEZR,[],"104.269308,30.560149",成都农商银行(界牌分理处),[],[],四川省,[],[],2,028-84852841;028-84850931,金融保险服务;银行;农村商业银行,160121
前锋街2号1层,成华区,[],[],[],成都市,[],B001C7TLGE,[],"104.091742,30.678940",中国银行(成都府青路支行),[],[],四川省,[],[],2,028-83369068;028-83369058;95566,金融保险服务;银行;中国银行,160104
永丰路47号,武侯区,[],[],[],成都市,[],B001C7V5QP,[],"104.047750,30.626699",恒丰银行(成都分行),[],[],四川省,[],[],2,028-86023000;028-86023125,金融保险服务;银行;银行,160100
人民北路二段198号附7号,金牛区,[],[],[],成都市,[],B001C7U71I,[],"104.073673,30.691449",成都农商银行(北站分理处),[],[],四川省,[],[],2,028-83388676,金融保险服务;银行;农村商业银行,160121
蜀汉路259号附1号,金牛区,[],[],202,成都市,[],B001C05QRE,[],"104.022391,30.687477",成都农商银行(营门口支行),B001C08Y3K,[],四川省,[],[],2,028-87532136,金融保险服务;银行;农村商业银行,160121
人民北路二段21号,金牛区,[],[],[],成都市,[],B001C7WDR8,[],"104.073007,30.692095",中国建设银行(火车北站支行),[],[],四川省,[],[],2,028-83176817,金融保险服务;银行;中国建设银行,160106
建设北路三段与二仙桥东路路口处,成华区,[],[],[],成都市,[],B001C7YPIV,[],"104.125297,30.680656",成都农商银行(二仙桥分理处),[],[],四川省,[],[],2,028-83244608,金融保险服务;银行;农村商业银行,160121
五津东路243、249,新津区,[],[],[],成都市,[],B001C8O4RO,[],"103.814656,30.414779",成都农商银行(新津支行),[],[],四川省,[],[],2,028-82523487;028-82520772,金融保险服务;银行;农村商业银行,160121
天乡路一段2461号,温江区,[],[],[],成都市,[],B001C8O20B,[],"103.836266,30.724250",成都农商银行(温江天乡分理处),[],[],四川省,[],[],2,028-82610120;028-82611403,金融保险服务;银行;农村商业银行,160121
蜀通街12号,金牛区,[],[],[],成都市,[],B001C7UGE5,[],"104.028077,30.684572",招商银行(金牛支行),[],[],四川省,[],[],2,028-87563957,金融保险服务;银行;招商银行,160109
万和路100号,青羊区,[],[],[],成都市,[],B001C7YQD6,[],"104.060654,30.675529",长城华西银行(成都万和路支行),[],[],四川省,[],[],2,028-61988871;028-61980572,金融保险服务;银行;银行,160100
永顺路22附近,武侯区,[],[],[],成都市,[],B001C80PLQ,[],"104.025999,30.638987",浙江民泰商业银行(武侯支行),[],[],四川省,[],[],2,028-65971602,金融保险服务;银行;银行,160100
白衣上街118号优品道广场对面,双流区,[],[],[],成都市,[],B001C95AH9,[],"103.915305,30.596174",中国农业银行(棠湖支行),[],[],四川省,[],[],2,028-85825837,金融保险服务;银行;中国农业银行,160107
高攀东路74-78号,武侯区,[],[],[],成都市,[],B001C7Y8IR,[],"104.081140,30.608656",中国农业银行(成都高攀路支行),[],[],四川省,[],[],2,028-85276235,金融保险服务;银行;中国农业银行,160107
锦城大道539号盈创动力科技金融服务平台a座1层,武侯区,[],[],202,成都市,[],B0FFF00EHN,[],"104.062201,30.575102",交通银行24小时自助银行(成都高新区支行),B0FFF05LSW,[],四川省,[],[],2,[],金融保险服务;自动提款机;交通银行ATM,160305
花牌坊北街8号,金牛区,[],[],[],成都市,[],B001C8N1TG,[],"104.046529,30.680654",中国农业银行(外西支行),[],[],四川省,[],[],2,028-87651947,金融保险服务;银行;中国农业银行,160107
黄田坝经一路123号,青羊区,[],[],[],成都市,[],B001C8MV6T,[],"103.964733,30.694289",中国银行(成飞支行),[],[],四川省,[],[],2,028-87418330;028-87415606;95566,金融保险服务;银行;中国银行,160104
桃蹊路110号,成华区,[],[],[],成都市,[],B001C7SW3I,[],"104.109864,30.682947",成都银行(八里庄支行),[],[],四川省,[],[],2,028-83260380,金融保险服务;银行;银行,160100
沙湾路262号附5-8号,金牛区,[],[],[],成都市,[],B001C0AG9C,[],"104.050861,30.689683",中国建设银行(成都沙湾支行),[],[],四川省,[],[],2,[],金融保险服务;银行;中国建设银行,160106
盛华南路169号,武侯区,[],[],[],成都市,[],B0FFGY0BUE,[],"104.054004,30.547247",中国农业银行(蜀都支行营业部),[],[],四川省,[],[],2,028-63930569,金融保险服务;银行;中国农业银行,160107
西河街道开元南路79号滨西绿洲6栋9号,龙泉驿区,[],[],202,成都市,[],B0FFF0AJ53,[],"104.231920,30.644465",中国银行(龙泉驿西河支行),B0FFGB5L34,[],四川省,[],[],2,028-88425672;95566,金融保险服务;银行;中国银行,160104
一环路西一段130号索尔国际2层,武侯区,[],[],[],成都市,[],B001C0AG8R,[],"104.040748,30.650221",中国建设银行(百花潭支行),[],[],四川省,[],[],2,028-87012830;028-85228840,金融保险服务;银行;中国建设银行,160106
羊子山西路118-124号,成华区,[],[],[],成都市,[],B0FFFCOU9A,[],"104.095344,30.707875",中国银行(成都羊子山支行),[],[],四川省,[],[],2,028-61294392;95566,金融保险服务;银行;中国银行,160104
洪山北路99号附15-17号,成华区,[],[],[],成都市,[],B0FFG2YRF6,[],"104.094820,30.706543",中国农业银行(成都仙湖支行),[],[],四川省,[],[],2,028-83240341,金融保险服务;银行;中国农业银行,160107
瑞联路69号附5号,青羊区,[],[],[],成都市,[],B001C7U6F1,[],"103.999947,30.665170",中国建设银行(光华大道支行),[],[],四川省,[],[],2,028-81704523,金融保险服务;银行;中国建设银行,160106
人民中路二段22号附4-6,青羊区,[],[],202,成都市,[],B001C7WQZ2,[],"104.065313,30.668318",中国民生银行(成都骡马市支行),B001C04FCC,[],四川省,[],[],2,028-86268061;028-86268011;95568,金融保险服务;银行;中国民生银行,160112
人民南路四段9号中国科学院成都分院院内43栋,武侯区,[],[],[],成都市,[],B0FFF9VJ45,[],"104.071913,30.629702",中国银行(成都中科支行),[],[],四川省,[],[],2,028-85239061;95566;028-85229461,金融保险服务;银行;中国银行,160104
新乐南街111号附3号,武侯区,[],[],[],成都市,[],B001C7UTZ2,[],"104.040491,30.603983",中国工商银行(新义路分理处),[],[],四川省,[],[],2,028-85178351;028-85191061;028-95588,金融保险服务;银行;中国工商银行,160105
蜀西路52号珠宝中心一栋一楼,金牛区,[],[],[],成都市,[],B0FFIAKDL2,[],"103.986386,30.717659",中国银行(成都蜀西路支行),[],[],四川省,[],[],2,028-86582487;95566,金融保险服务;银行;中国银行,160104
科华北路153号附3号,武侯区,[],[],[],成都市,[],B001C09P0K,[],"104.077295,30.620759",上海浦东发展银行(科华支行),[],[],四川省,[],[],2,028-85212830,金融保险服务;银行;银行,160100
府城大道西段399号8栋1层102-01、02号,武侯区,[],[],[],成都市,[],B0GDD9W5LJ,[],"104.054830,30.586028",平安银行(成都金融城支行),[],[],四川省,[],[],2,028-83210701,金融保险服务;银行;平安银行,160117
文康路26号,青羊区,[],[],[],成都市,[],B001C0AGUI,[],"103.928685,30.698980",中国农业银行(成都新城花园支行),[],[],四川省,[],[],2,028-87078606,金融保险服务;银行;中国农业银行,160107
成华大道龙潭路1号(北湖龙郡),成华区,[],[],[],成都市,[],B001C05GW6,[],"104.162514,30.699925",中国农业银行(成都龙潭支行),[],[],四川省,[],[],2,028-84202242,金融保险服务;银行;中国农业银行,160107
锦逸路69号,锦江区,[],[],[],成都市,[],B0FFGHG36P,[],"104.115468,30.590379",成都农商银行(锦城逸景分理处),[],[],四川省,[],[],2,028-85912420,金融保险服务;银行;农村商业银行,160121
公园路81-83号,新都区,[],[],[],成都市,[],B001C7U4H6,[],"104.155036,30.820373",成都农商银行(公园路分理处),[],[],四川省,[],[],2,028-83965194,金融保险服务;银行;农村商业银行,160121
站北路129号边上,成华区,[],[],[],成都市,[],B001C8MX1C,[],"104.074842,30.702452",成都农商银行(站北分理处)(装修中),[],[],四川省,[],[],2,028-83137275,金融保险服务;银行;农村商业银行,160121
白马庙街141-149号,温江区,[],[],[],成都市,[],B001C921Q6,[],"103.839536,30.704793",中国建设银行(白马庙街支行),[],[],四川省,[],[],2,028-82742582;028-82748960,金融保险服务;银行;中国建设银行,160106
一环路北一段436号附1-2号,金牛区,[],[],[],成都市,[],B001C06SVQ,[],"104.059537,30.685674",中国工商银行(成都白马寺支行),[],[],四川省,[],[],2,028-87664609,金融保险服务;银行;中国工商银行,160105
榕声路50-52,锦江区,[],[],[],成都市,[],B001C8MQTN,[],"104.096974,30.587876",成都农商银行(锦馨家园分理处),[],[],四川省,[],[],2,028-62031590,金融保险服务;银行;农村商业银行,160121
高升桥东路15号附2-4号,武侯区,[],[],[],成都市,[],B001C7WH9D,[],"104.042372,30.635031",成都银行(高升桥支行),[],[],四川省,[],[],2,028-85193701;4006896511,金融保险服务;银行;银行,160100
物流大道88号招商楼1层,新都区,[],[],[],成都市,[],B001C80KZI,[],"104.132337,30.795095",中国工商银行(物流大道支行),[],[],四川省,[],[],2,028-83935046,金融保险服务;银行;中国工商银行,160105
云影路1号附22号,武侯区,[],[],[],成都市,[],B0FFILWSL7,[],"104.018090,30.647604",中国银行(逸都分理处),[],[],四川省,[],[],2,028-87040208;95566,金融保险服务;银行;中国银行,160104
天目路188附3号附近,郫都区,[],[],[],成都市,[],B0FFFVKJ41,[],"103.976251,30.732149",中国建设银行24小时自助银行(天目路储蓄所),[],[],四川省,[],[],2,[],金融保险服务;自动提款机;中国建设银行ATM,160303
火车南站街道长华路72号(安德鲁森旁),武侯区,[],[],[],成都市,[],B0FFGIFAJ6,[],"104.083635,30.611979",中信银行(长华路社区银行),[],[],四川省,[],[],2,028-69857532;95558,金融保险服务;银行;中信银行,160111
金耀路162-168,金牛区,[],[],[],成都市,[],B0FFG352C0,[],"104.011758,30.710913",中国建设银行(金域支行),[],[],四川省,[],[],2,028-61364756,金融保险服务;银行;中国建设银行,160106
锦东路612-626号,锦江区,[],[],[],成都市,[],B001C80NIQ,[],"104.105022,30.639735",华夏银行(锦江支行),[],[],四川省,[],[],2,028-86008125;95577,金融保险服务;银行;华夏银行,160110
新街120号,新都区,[],[],[],成都市,[],B001C80IW2,[],"104.051779,30.763326",成都农商银行(东街分理处),[],[],四川省,[],[],2,028-83911457,金融保险服务;银行;农村商业银行,160121
模范街106号,新津区,[],[],[],成都市,[],B001C09IBZ,[],"103.811659,30.410860",成都农商银行(城关分理处),[],[],四川省,[],[],2,028-82523049,金融保险服务;银行;农村商业银行,160121
紫竹南一街1号紫荆美熙广场,武侯区,[],[],202,成都市,[],B001C0AJ20,[],"104.054173,30.613199",中国邮政储蓄银行(紫荆东路营业所),B0FFGXCHXO,[],四川省,[],[],2,028-85194255;028-69919277;95580,金融保险服务;银行;中国邮政储蓄银行,160139
水碾河路25号4幢1楼2号,成华区,[],[],[],成都市,[],B001C7WR4J,[],"104.104603,30.646407",中国邮政储蓄银行(水碾河路支行),[],[],四川省,[],[],2,028-84471066;95580,金融保险服务;银行;中国邮政储蓄银行,160139
涌泉街道清泉北街31-35,温江区,[],[],[],成都市,[],B001C8MVT7,[],"103.877744,30.679263",中国工商银行(温泉大道支行),[],[],四川省,[],[],2,028-82601365,金融保险服务;银行;中国工商银行,160105
陕西街239号附1号,青羊区,[],[],[],成都市,[],B001C7WQZ6,[],"104.060296,30.654287",中国农业银行(成都祠堂街支行),[],[],四川省,[],[],2,028-86122327,金融保险服务;银行;中国农业银行,160107
倪家桥路11号附5-6号,武侯区,[],[],[],成都市,[],B001C7VR9M,[],"104.058304,30.624994",中国工商银行(倪家桥支行),[],[],四川省,[],[],2,028-85371721;028-85554992;95588,金融保险服务;银行;中国工商银行,160105
鹭岛路15-19号,武侯区,[],[],[],成都市,[],B001C7VRB9,[],"104.012460,30.644856",中国工商银行(鹭岛支行),[],[],四川省,[],[],2,028-87060355;028-87060207;95588,金融保险服务;银行;中国工商银行,160105
经天路4号14幢附58-59号,锦江区,[],[],[],成都市,[],B001C7UREL,[],"104.102595,30.602811",中国工商银行(经天路支行),[],[],四川省,[],[],2,028-85918055;028-85915133;95588,金融保险服务;银行;中国工商银行,160105
柏合街道龙工南路888号附3号,龙泉驿区,[],[],[],成都市,[],B001C8NVS5,[],"104.254553,30.544559",成都农商银行(龙泉支行),[],[],四川省,[],[],2,028-88432938,金融保险服务;银行;农村商业银行,160121
东虹路66号亚光电子有限公司门口,成华区,[],[],[],成都市,[],B001C8ZIG2,[],"104.154804,30.646511",招商银行24小时自助银行(东虹路),[],[],四川省,[],[],2,[],金融保险服务;自动提款机;招商银行ATM,160306
红星路二段120号附1-4号,锦江区,[],[],202,成都市,[],B001C7WR2T,[],"104.084503,30.662198",中国银行(成都红星中路支行),B001C7TDR3,[],四川省,[],[],2,028-86513499,金融保险服务;银行;中国银行,160104
华润路36号附31、32号,锦江区,[],[],[],成都市,[],B001C92CP8,[],"104.092811,30.611041",中国农业银行(成都翡翠城支行),[],[],四川省,[],[],2,028-61641885,金融保险服务;银行;中国农业银行,160107
三友路210号1层营业房,金牛区,[],[],[],成都市,[],B001C80IRP,[],"104.091872,30.684533",成都银行(李家沱支行),[],[],四川省,[],[],2,028-83355268,金融保险服务;银行;银行,160100
青羊大道215号,青羊区,[],[],[],成都市,[],B001C7WBXJ,[],"104.011313,30.676534",中国农业银行(成都金沙支行),[],[],四川省,[],[],2,028-63930472;028-87338200,金融保险服务;银行;中国农业银行,160107
四川机场集团公司商务楼1层,双流区,[],[],3,成都市,[],B001C8RACE,[],"103.963399,30.568240",中国工商银行24小时自助银行(机场支行),B001C8O25W,[],四川省,[],[],2,[],金融保险服务;自动提款机;中国工商银行ATM,160302
柳城街道柳城大道西段218号,温江区,[],[],[],成都市,[],B001C80IXW,[],"103.830188,30.691516",上海浦东发展银行(成都温江支行),[],[],四川省,[],[],2,028-61700066;95528,金融保险服务;银行;上海浦东发展银行,160115
东光街道锦华路一段275号附20号,锦江区,[],[],[],成都市,[],B001C7YLBD,[],"104.099700,30.617113",中国邮政储蓄银行(东光小区营业所),[],[],四川省,[],[],2,028-84412657;95580,金融保险服务;银行;中国邮政储蓄银行,160139
东升镇三强东路一段9、11、13号,双流区,[],[],[],成都市,[],B001C7YOA8,[],"103.929003,30.568981",中国工商银行(三强东路支行),[],[],四川省,[],[],2,028-85810392,金融保险服务;银行;中国工商银行,160105
紫荆中街6,武侯区,[],[],[],成都市,[],B0FFF9VGVK,[],"104.054739,30.614626",兴业银行(成都紫竹社区支行),[],[],四川省,[],[],2,95561,金融保险服务;银行;兴业银行,160118
航都大街二段850,双流区,[],[],[],成都市,[],B0FFI8NFFQ,[],"103.933342,30.591108",中国工商银行24小时自助银行(航都大街二段),[],[],四川省,[],[],2,[],金融保险服务;自动提款机;中国工商银行ATM,160302
高升桥南街8号附32-35号,武侯区,[],[],[],成都市,[],B001C0AHGH,[],"104.038816,30.637194",中国银行(成都罗浮支行),[],[],四川省,[],[],2,028-85089487;95566,金融保险服务;银行;中国银行,160104
同辉南路104号附近,青羊区,[],[],202,成都市,[],B0FFGFTQO2,[],"103.963513,30.670763",中国银行(成都光华支行),B0FFFZBYDC,[],四川省,[],[],2,028-64791816;95566,金融保险服务;银行;中国银行,160104
乡农市街59号附15-17,金牛区,[],[],[],成都市,[],B001C7UDRI,[],"104.043271,30.684425",中国建设银行(成都金牛支行),[],[],四川省,[],[],2,028-87679957;028-87666192,金融保险服务;银行;中国建设银行,160106
小南街123号附8-9(冠城花园3期5幢1层7-9号),青羊区,[],[],[],成都市,[],B001C7WI3Y,[],"104.053012,30.654316",中国工商银行(小南街支行),[],[],四川省,[],[],2,028-86125503;028-86128323;95588,金融保险服务;银行;中国工商银行,160105
解放北路一段18号,金牛区,[],[],[],成都市,[],B001C7VRBH,[],"104.084801,30.685145",中国工商银行(外北支行),[],[],四川省,[],[],2,028-83331686;028-83336393;95588,金融保险服务;银行;中国工商银行,160105
华府大道一段836-838号,双流区,[],[],[],成都市,[],B0FFFYJ1AO,[],"104.052204,30.527103",中国建设银行(华府大道支行),[],[],四川省,[],[],2,028-85814750,金融保险服务;银行;中国建设银行,160106
提督街86-88号,青羊区,[],[],[],成都市,[],B0FFI767XZ,[],"104.073403,30.660019",中国建设银行(成都岷江支行),[],[],四川省,[],[],2,028-86767456;028-86766032,金融保险服务;银行;中国建设银行,160106
朝阳南路449-475号,彭州市,[],[],[],成都市,[],B001C09OTU,[],"103.951345,30.977474",成都银行(彭州支行),[],[],四川省,[],[],2,[],金融保险服务;银行;银行,160100
崇义桥街91-95号,新都区,[],[],[],成都市,[],B001C7U49E,[],"104.053045,30.762598",中国农业银行(大丰南街分理处),[],[],四川省,[],[],2,028-83911423,金融保险服务;银行;中国农业银行,160107
红牌楼二街61-63号,武侯区,[],[],[],成都市,[],B001C7YJEN,[],"104.022303,30.632544",成都农商银行(红牌楼分理处),[],[],四川省,[],[],2,028-61811273,金融保险服务;银行;农村商业银行,160121
上南大街4号,青羊区,[],[],[],成都市,[],B001C8MR07,[],"104.063150,30.651712",中国建设银行(成都第八支行),[],[],四川省,[],[],2,028-86138545;028-86138641;95533,金融保险服务;银行;中国建设银行,160106
马超西路28号,新都区,[],[],202,成都市,[],B001C8MEY6,[],"104.166613,30.812843",中国民生银行(新都支行),B0FFFGV3CT,[],四川省,[],[],2,028-61601017;95568,金融保险服务;银行;中国民生银行,160112
杨桥路190,双流区,[],[],[],成都市,[],B0FFF2DXE9,[],"103.969004,30.531256",中国工商银行(杨桥路分理处),[],[],四川省,[],[],2,028-85690537,金融保险服务;银行;中国工商银行,160105
红阳路35、37、39、41号,青白江区,[],[],[],成都市,[],B0FFFEFAJG,[],"104.248385,30.884337",成都银行(青白江支行),[],[],四川省,[],[],2,028-83680025;028-83680026,金融保险服务;银行;银行,160100
马超西路段338号金树家具一楼,新都区,[],[],[],成都市,[],B0FFGDR652,[],"104.166124,30.812990",兴业银行新都支行,[],[],四川省,[],[],2,028-69264098;95561,金融保险服务;银行;银行,160100
万兴路236号,新津区,[],[],[],成都市,[],B001C8MRRV,[],"103.814118,30.486097",成都农商银行(兴义分理处),[],[],四川省,[],[],2,028-82400955,金融保险服务;银行;农村商业银行,160121
青江中路288号大邦第一城商业楼,青白江区,[],[],[],成都市,[],B001C7YQOM,[],"104.251991,30.877608",中国银行(青白江支行),[],[],四川省,[],[],2,028-83660987,金融保险服务;银行;中国银行,160104
科华北路95号科华大厦1层,武侯区,[],[],202,成都市,[],B001C80RJ3,[],"104.076705,30.628851",成都银行(科华北路支行),B001C7VAN4,[],四川省,[],[],2,028-85212770;028-85210665,金融保险服务;银行;银行,160100
天仁路388号凯德天府F1层,武侯区,[],[],202,成都市,[],B0FFG7IW4U,[],"104.070563,30.602627",中国农业银行(成都凯德天府支行),B001C8P59N,[],四川省,[],[],2,028-84191151;028-84191154;95599,金融保险服务;银行;中国农业银行,160107
金履三路8号附42号中海锦城一期,武侯区,[],[],[],成都市,[],B0FFFE5S14,[],"103.986995,30.607689",兴业银行(中海锦城社区支行),[],[],四川省,[],[],2,028-69264105,金融保险服务;银行;兴业银行,160118
玉林中路4号,武侯区,[],[],[],成都市,[],B001C05FEL,[],"104.058075,30.627319",中国银行(成都玉林支行),[],[],四川省,[],[],2,028-85583157;95566,金融保险服务;银行;中国银行,160104
大石西路239号附16号,武侯区,[],[],[],成都市,[],B0FFFCLKMZ,[],"104.024634,30.651090",兴业银行(康河郦景社区支行),[],[],四川省,[],[],2,028-87431202;18782920759,金融保险服务;银行;兴业银行,160118
二环路北三段北站东二路,金牛区,[],[],202,成都市,[],B001C06VVG,[],"104.079753,30.693879",中国农业银行(成都北站东路支行),B001C03D32,[],四川省,[],[],2,028-83314891;028-83398410,金融保险服务;银行;中国农业银行,160107
长寿路4号之附2-附4号,武侯区,[],[],[],成都市,[],B001C05UUO,[],"104.075005,30.612171",中国工商银行(成都长寿路支行),[],[],四川省,[],[],2,028-85251179;95588,金融保险服务;银行;中国工商银行,160105
双水碾街道洪山北路99号,成华区,[],[],[],成都市,[],B0FFG2YREL,[],"104.094013,30.705576",中国建设银行(成都仙湖支行),[],[],四川省,[],[],2,028-69330883,金融保险服务;银行;中国建设银行,160106
八宝街88附7-8号,青羊区,[],[],[],成都市,[],B001C7U91Z,[],"104.060598,30.671074",中国光大银行(八宝街支行),[],[],四川省,[],[],2,028-86258919;028-86263381,金融保险服务;银行;中国光大银行,160113
经天路2号附1附9号,锦江区,[],[],[],成都市,[],B001C80OBS,[],"104.098817,30.602759",成都农商银行(锦江支行),[],[],四川省,[],[],2,028-85915193;028-85912300,金融保险服务;银行;农村商业银行,160121
菱安路337号,锦江区,[],[],[],成都市,[],B0FFFY1JY9,[],"104.117176,30.609020",中国建设银行(四川师范大学支行),[],[],四川省,[],[],2,028-84763908;95533,金融保险服务;银行;中国建设银行,160106
顺城街252号顺吉大厦1层建行,青羊区,[],[],202,成都市,[],B001C7UOAU,[],"104.070992,30.663914",中国建设银行(体育场路分理处),B001C7SZV4,[],四川省,[],[],2,028-86742556;95533,金融保险服务;银行;中国建设银行,160106
武科东四路11号附12号,武侯区,[],[],[],成都市,[],B001C80TAH,[],"103.988662,30.635170",成都农商银行(望锦分理处),[],[],四川省,[],[],2,028-61510675,金融保险服务;银行;农村商业银行,160121
南大街178号,郫都区,[],[],[],成都市,[],B001C0AGRT,[],"103.883715,30.807326",中国农业银行(成都西区支行),[],[],四川省,[],[],2,028-87929829,金融保险服务;银行;中国农业银行,160107
一环路南三段13号华西宾馆1层,武侯区,[],[],[],成都市,[],B001C0AHG4,[],"104.062905,30.633646",中国银行(成都华西支行),[],[],四川省,[],[],2,028-85593119;95566,金融保险服务;银行;中国银行,160104
云影路2号附8号,武侯区,[],[],[],成都市,[],B001C92GES,[],"104.018672,30.646317",中国建设银行(云影路支行),[],[],四川省,[],[],2,028-87050511,金融保险服务;银行;中国建设银行,160106
桂溪街道高新区天府三街新希望国际大厦B座,武侯区,[],[],202,成都市,[],B0FFHA22YX,[],"104.066972,30.546061",中国农业银行(新希望国际支行),B0FFF006BK,[],四川省,[],[],2,028-85125043;028-85156145,金融保险服务;银行;中国农业银行,160107
东壕沟南段61-67号,大邑县,[],[],[],成都市,[],B001C02EAF,[],"103.524586,30.585230",成都银行(大邑县支行),[],[],四川省,[],[],2,028-88293394;028-88380885,金融保险服务;银行;银行,160100
芙蓉西路390号,锦江区,[],[],[],成都市,[],B0FFIV11KI,[],"104.145778,30.606356",中国建设银行(绿地中心支行),[],[],四川省,[],[],2,028-61195337;95533,金融保险服务;银行;中国建设银行,160106
三星街道新北街8号,双流区,[],[],[],成都市,[],B0FFFEF4UE,[],"104.149894,30.309811",中国信合(华青路),[],[],四川省,[],[],2,028-85660014,金融保险服务;银行;农村商业银行,160121
电子路新城花园二幢1楼8号,新都区,[],[],[],成都市,[],B001C7ZYF0,[],"104.174134,30.810405",中国建设银行(新城花园支行),[],[],四川省,[],[],2,028-89398343,金融保险服务;银行;中国建设银行,160106
林荫街5号附6号华西大厦1层,武侯区,[],[],202,成都市,[],B001C80RR4,[],"104.068031,30.637212",成都农商银行(桂溪支行),B001C06TAT,[],四川省,[],[],2,028-85436166,金融保险服务;银行;农村商业银行,160121
九里堤南路78号附5-9号,金牛区,[],[],[],成都市,[],B001C0AGAV,[],"104.057635,30.692581",中国建设银行(九里堤南路支行),[],[],四川省,[],[],2,028-87642003;028-87676977;028-87642007,金融保险服务;银行;中国建设银行,160106
天府大道中段1268号天府软件园E区,武侯区,[],[],[],成都市,[],B001C8ULPK,[],"104.068611,30.539244",平安银行(成都天府软件园支行),[],[],四川省,[],[],2,028-61557901,金融保险服务;银行;平安银行,160117
天府大道天韵路186号高新国际广场E座1层,武侯区,[],[],[],成都市,[],B001C7YLBT,[],"104.065580,30.591674",中国银行(天府大道支行),[],[],四川省,[],[],2,028-85317165,金融保险服务;银行;中国银行,160104
和美东路29号(富丽东方斜对面),成华区,[],[],[],成都市,[],B0FFGZJA6X,[],"104.154233,30.629126",中国建设银行(成都东客站支行),[],[],四川省,[],[],2,028-69853488,金融保险服务;银行;中国建设银行,160106
碧云路1号,武侯区,[],[],[],成都市,[],B001C0AGPO,[],"104.030669,30.641635",中国农业银行(碧云天支行),[],[],四川省,[],[],2,028-85094230;028-85094240,金融保险服务;银行;银行,160100
德通桥路200-204号,温江区,[],[],[],成都市,[],B001C809WZ,[],"103.820852,30.695366",成都农商银行(温江天府分理处),[],[],四川省,[],[],2,028-82734362,金融保险服务;银行;农村商业银行,160121
水杉街蓝谷地1栋1层3-4号,锦江区,[],[],[],成都市,[],B0FFFCVN2D,[],"104.126742,30.603147",中国工商银行(水杉街支行),[],[],四川省,[],[],2,028-85925383;028-85925283,金融保险服务;银行;中国工商银行,160105
高新区天府二街198号华西证券总部综合办公楼附近,武侯区,[],[],202,成都市,[],B0FFIC0PXI,[],"104.063770,30.551855",中国建设银行自动取款机,B0FFKC599A,[],四川省,[],[],2,[],金融保险服务;自动提款机;自动提款机,160300
双楠路9号,武侯区,[],[],202,成都市,[],B001C7WQW6,[],"104.028183,30.645256",中国工商银行(双楠小区支行),B001C0AF82,[],四川省,[],[],2,028-85076925;95588,金融保险服务;银行;中国工商银行,160105
玉双路5-34号,成华区,[],[],[],成都市,[],B0FFFAAZ9F,[],"104.094552,30.655505",中国工商银行(玉双路支行),[],[],四川省,[],[],2,028-84325579,金融保险服务;银行;中国工商银行,160105
东大街176号,郫都区,[],[],[],成都市,[],B001C8OA3L,[],"103.889468,30.805920",交通银行ATM(东大街),[],[],四川省,[],[],2,[],金融保险服务;自动提款机;交通银行ATM,160305
天顺路72号,武侯区,[],[],[],成都市,[],B001C80TB7,[],"104.071180,30.590071",中国民生银行(成都高新支行),[],[],四川省,[],[],2,028-86026596;028-86028362,金融保险服务;银行;银行,160100
清江东路362号附3号,青羊区,[],[],[],成都市,[],B001C06AUE,[],"104.023211,30.670237",中国工商银行(峨影支行),[],[],四川省,[],[],2,028-87311221;028-95588;028-87314600,金融保险服务;银行;中国工商银行,160105
川大路二段301-303,双流区,[],[],[],成都市,[],B001C8MQXI,[],"104.001564,30.552636",中国银行(双流四川大学支行),[],[],四川省,[],[],2,028-85990533;95566,金融保险服务;银行;中国银行,160104
灵龙路238-240号,龙泉驿区,[],[],[],成都市,[],B001C7UUJR,[],"104.179654,30.652474",中国建设银行(十陵分理处),[],[],四川省,[],[],2,[],金融保险服务;银行;中国建设银行,160106
三河大道50-52号,新都区,[],[],[],成都市,[],B001C7VRYO,[],"104.133346,30.777857",中国邮政储蓄银行(三河支行),[],[],四川省,[],[],2,028-83909201,金融保险服务;银行;中国邮政储蓄银行,160139
提督街101号附3号,青羊区,[],[],3,成都市,[],B001C7VNXZ,[],"104.071961,30.660424",兴业银行ATM,B001C8OQUJ,[],四川省,[],[],2,[],金融保险服务;自动提款机;兴业银行ATM,160315
常乐二段12号附125-128号,双流区,[],[],[],成都市,[],B001C8O3V9,[],"103.990180,30.574118",中国工商银行(西南航空港支行),[],[],四川省,[],[],2,028-85881722;028-95588,金融保险服务;银行;中国工商银行,160105
武阳中路26号(新津荣达大厦旁),新津区,[],[],[],成都市,[],B001C081BT,[],"103.813033,30.411648",中国农业银行(新津区支行),[],[],四川省,[],[],2,028-82521431,金融保险服务;银行;中国农业银行,160107
太升北路64号附1号,青羊区,[],[],[],成都市,[],B0FFFVDL6F,[],"104.083159,30.672310",中国建设银行(成都曹家巷支行),[],[],四川省,[],[],2,028-83314177;028-83341608,金融保险服务;银行;中国建设银行,160106
二环路北三段21号之6号-7,金牛区,[],[],[],成都市,[],B001C08176,[],"104.087782,30.693355",中国农业银行(成都高笋塘支行),[],[],四川省,[],[],2,028-83323502;028-83363025,金融保险服务;银行;中国农业银行,160107
光华村街66号附11号,青羊区,[],[],202,成都市,[],B001C0AG95,[],"104.009500,30.664611",中国建设银行(成都水木光华支行)(装修中),B001C8UJG5,[],四川省,[],[],2,028-87397618;028-95533,金融保险服务;银行;中国建设银行,160106
航空路7号附3号,武侯区,[],[],[],成都市,[],B001C09OTK,[],"104.070786,30.616624",成都银行(锦官新城支行),[],[],四川省,[],[],2,028-85251620;028-85251727;4006896511,金融保险服务;银行;银行,160100
牛沙南路3号1层附14号,锦江区,[],[],202,成都市,[],B001C7WR07,[],"104.108154,30.621241",中国农业银行(成都静居寺支行),B001C7WF5V,[],四川省,[],[],2,028-84590472,金融保险服务;银行;中国农业银行,160107
浆洗街8号之附1-2号,武侯区,[],[],[],成都市,[],B001C7WHOD,[],"104.057763,30.642676",中信银行(成都浆洗街支行),[],[],四川省,[],[],2,028-85560027,金融保险服务;银行;中信银行,160111
二环路南一段11号,武侯区,[],[],3,成都市,[],B001C7XDT8,[],"104.079928,30.620978",中国农业银行(成都桂溪支行),B001C7VFCU,[],四川省,[],[],2,028-85213494,金融保险服务;银行;中国农业银行,160107
白河路四段23、25、27号,双流区,[],[],[],成都市,[],B0FFF00DZM,[],"103.909803,30.567941",中国银行(白河路支行),[],[],四川省,[],[],2,028-62580135;95566,金融保险服务;银行;中国银行,160104
大学路2号附1号,武侯区,[],[],202,成都市,[],B0FFF644GL,[],"104.072775,30.642866",中国工商银行(大学路分理处),B0FFGBJ0EH,[],四川省,[],[],2,028-85449484;028-85435803;95588,金融保险服务;银行;中国工商银行,160105
光华东二路与光华西二路交叉口西北50米,青羊区,[],[],[],成都市,[],B0FFGHFY0Y,[],"103.958264,30.674042",中信银行(成都成飞大道支行),[],[],四川省,[],[],2,028-62336291;95558,金融保险服务;银行;中信银行,160111
柳城大道西段,温江区,[],[],[],成都市,[],B001C8MZWN,[],"103.828654,30.690853",中国建设银行(成都温江银城花园支行),[],[],四川省,[],[],2,028-82743587;028-82743632,金融保险服务;银行;中国建设银行,160106
星汉路33号附5-7,金牛区,[],[],[],成都市,[],B001C7WD53,[],"104.049932,30.703187",中国农业银行(星汉路支行),[],[],四川省,[],[],2,028-87620881,金融保险服务;银行;中国农业银行,160107
长益路92号附9号,武侯区,[],[],[],成都市,[],B001C80QYB,[],"104.028580,30.626715",哈尔滨银行(成都武侯支行),[],[],四川省,[],[],2,028-62580060,金融保险服务;银行;银行,160100
洗面桥街30号附2号,武侯区,[],[],[],成都市,[],B001C03BBF,[],"104.056630,30.640810",中国光大银行(成都天府支行),[],[],四川省,[],[],2,028-85558070;028-85598650,金融保险服务;银行;中国光大银行,160113
双林路228号附15-19号,成华区,[],[],[],成都市,[],B001C92H0B,[],"104.102833,30.656193",中国建设银行(成都双林支行),[],[],四川省,[],[],2,028-83525570,金融保险服务;银行;中国建设银行,160106
金泽路155-161号2层,青羊区,[],[],[],成都市,[],B0FFFAATLY,[],"104.002537,30.685197",中国建设银行(西贵金沙支行),[],[],四川省,[],[],2,[],金融保险服务;银行;中国建设银行,160106
金沙路169号,金牛区,[],[],[],成都市,[],B0FFGFOPT4,[],"104.047053,30.690555",中国建设银行(金沙路支行),[],[],四川省,[],[],2,028-87676128;95533,金融保险服务;银行;中国建设银行,160106
龙舟路60号之附17-20号,锦江区,[],[],[],成都市,[],B001C7UPEY,[],"104.098761,30.627306",成都银行(龙舟路支行),[],[],四川省,[],[],2,028-84510127,金融保险服务;银行;银行,160100
瑞星路99号附26-28号,青羊区,[],[],[],成都市,[],B001C80CAZ,[],"103.995503,30.667154",中国工商银行(瑞星路支行),[],[],四川省,[],[],2,028-81716871;028-81716801,金融保险服务;银行;中国工商银行,160105
希望路115号附近,双流区,[],[],[],成都市,[],B001C7TLG2,[],"104.010098,30.578912",中国银行ATM(美好花园北),[],[],四川省,[],[],2,[],金融保险服务;自动提款机;中国银行ATM,160301
黄河中路二段159号,双流区,[],[],[],成都市,[],B001C01487,[],"103.999034,30.571819",成都农商银行(西港路支行),[],[],四川省,[],[],2,028-85881302;028-85881028,金融保险服务;银行;农村商业银行,160121
大源街48-50号,武侯区,[],[],[],成都市,[],B001C7UWKK,[],"104.033197,30.552426",成都农商银行(双和分理处),[],[],四川省,[],[],2,028-85343280,金融保险服务;银行;农村商业银行,160121
龙舟路59号附2号,锦江区,[],[],[],成都市,[],B001C06PPA,[],"104.098144,30.627011",中国农业银行(成都望江支行),[],[],四川省,[],[],2,028-84522897,金融保险服务;银行;中国农业银行,160107
解放路二段4号附1号,金牛区,[],[],[],成都市,[],B001C0AFZS,[],"104.079413,30.677260",中国工商银行(成都簸箕街支行),[],[],四川省,[],[],2,028-83222348;028-83228403,金融保险服务;银行;中国工商银行,160105
东升镇街道办事处龙桥社区,双流区,[],[],[],成都市,[],B001C8084A,[],"103.951343,30.593196",成都农商银行(龙腾分理处),[],[],四川省,[],[],2,028-85774188,金融保险服务;银行;农村商业银行,160121
盛和二路86-96号,武侯区,[],[],[],成都市,[],B0FFGYOQRV,[],"104.057442,30.603466",中国建设银行(南站分理处),[],[],四川省,[],[],2,028-85320691,金融保险服务;银行;中国建设银行,160106
东升街道藏卫路南二段118号,双流区,[],[],[],成都市,[],B0FFFABCLS,[],"103.918021,30.561159",中国建设银行(双流棠湖支行),[],[],四川省,[],[],2,028-61905245;028-85813288,金融保险服务;银行;中国建设银行,160106
府青路二段16号附1号,成华区,[],[],[],成都市,[],B001C05RR4,[],"104.099353,30.682557",中国工商银行(成都八里庄支行),[],[],四川省,[],[],2,028-83250585;95588,金融保险服务;银行;中国工商银行,160105
紫荆东路51号,武侯区,[],[],[],成都市,[],B001C8OLIT,[],"104.054549,30.613396",平安银行(成都高新支行),[],[],四川省,[],[],2,028-85185321,金融保险服务;银行;平安银行,160117
双庆路99号附9-14号,成华区,[],[],[],成都市,[],B001C8MONZ,[],"104.115416,30.652469",中国工商银行(成都万年场支行),[],[],四川省,[],[],2,028-84295019,金融保险服务;银行;中国工商银行,160105
新都大道8号校研发大楼附楼1层,新都区,[],[],[],成都市,[],B001C8MEOV,[],"104.179599,30.820904",中国工商银行(西南石油大学支行),[],[],四川省,[],[],2,028-83045791,金融保险服务;银行;中国工商银行,160105
大石西路36号附13-15室,青羊区,[],[],[],成都市,[],B0FFHTU36O,[],"104.033536,30.651019",中国建设银行(大石西路支行),[],[],四川省,[],[],2,028-87018066;95533,金融保险服务;银行;中国建设银行,160106
佳灵路56号附4号,武侯区,[],[],[],成都市,[],B001C80CGJ,[],"104.017009,30.620667",成都农商银行(太平园分理处),[],[],四川省,[],[],2,028-85010214,金融保险服务;银行;农村商业银行,160121
东大街芷泉段11号,锦江区,[],[],[],成都市,[],B001C7XYVJ,[],"104.087101,30.648645",中国建设银行(成都东门支行),[],[],四川省,[],[],2,028-84421491;028-84458482,金融保险服务;银行;中国建设银行,160106
白河路二段2号之附1-附2,双流区,[],[],[],成都市,[],B001C094FY,[],"103.918148,30.565082",交通银行(双流棠湖支行),[],[],四川省,[],[],2,028-62580203,金融保险服务;银行;交通银行,160108
成龙大道四川师范大学成龙校区东苑6幢,龙泉驿区,[],[],202,成都市,[],B0FFFLIIUT,[],"104.205716,30.562688",中国建设银行24小时自助银行(乐群路)(暂停营业),B0FFFLIIV4,[],四川省,[],[],2,[],金融保险服务;自动提款机;中国建设银行ATM,160303
太平街18附4号,新津区,[],[],[],成都市,[],B001C7VRRO,[],"103.784734,30.410589",成都农商银行(新平支行),[],[],四川省,[],[],2,028-82589944,金融保险服务;银行;农村商业银行,160121
一品天下大街1040-1058号,金牛区,[],[],[],成都市,[],B001C7YP32,[],"104.041170,30.702006",中国民生银行(成都金牛支行),[],[],四川省,[],[],2,028-61668766;028-61668566;028-61668865,金融保险服务;银行;中国民生银行,160112
科创路180、184、186号,锦江区,[],[],[],成都市,[],B001C8O1V1,[],"104.090565,30.603410",中国邮政储蓄银行(科创路营业所),[],[],四川省,[],[],2,028-85970110;95580,金融保险服务;银行;中国邮政储蓄银行,160139
川建路118号东南方向20米,金牛区,[],[],[],成都市,[],B001C7ZYSE,[],"104.054845,30.732709",中国建设银行ATM(川建路),[],[],四川省,[],[],2,[],金融保险服务;自动提款机;中国建设银行ATM,160303
体育场路2号附1-2,青羊区,[],[],202,成都市,[],B001C7WF0C,[],"104.070171,30.663190",成都银行(体育场路支行),B001C7WPIQ,[],四川省,[],[],2,028-86743391;028-86756971,金融保险服务;银行;银行,160100
兴乐北路151号,新都区,[],[],[],成都市,[],B0FFGFC7H7,[],"104.192117,30.810259",中国工商银行(城东支行),[],[],四川省,[],[],2,028-83972814,金融保险服务;银行;中国工商银行,160105
瑞联西路99-101,青羊区,[],[],[],成都市,[],B0FFFODIZE,[],"103.960300,30.685342",中国农业银行(青羊工业园区支行),[],[],四川省,[],[],2,028-61502910,金融保险服务;银行;中国农业银行,160107
洗面桥街30号附1号,武侯区,[],[],202,成都市,[],B001C02EC3,[],"104.056821,30.640927",成都银行(洗面桥支行),B0FFGB4XXP,[],四川省,[],[],2,028-85533063;028-85533053,金融保险服务;银行;银行,160100
建和路69-73,成华区,[],[],[],成都市,[],B001C80BZV,[],"104.112265,30.672399",中国建设银行(龙湖三千里支行),[],[],四川省,[],[],2,028-84296671,金融保险服务;银行;中国建设银行,160106
十陵中街120号,龙泉驿区,[],[],[],成都市,[],B001C7ZZG4,[],"104.178478,30.649329",成都农商银行(龙泉驿十陵支行),[],[],四川省,[],[],2,028-84600434,金融保险服务;银行;农村商业银行,160121
武侯祠横街1号附4-5号,武侯区,[],[],[],成都市,[],B001C7WQXO,[],"104.049824,30.644007",中国建设银行(成都南郊支行),[],[],四川省,[],[],2,028-85550250,金融保险服务;银行;中国建设银行,160106
小南街128号附4号,青羊区,[],[],[],成都市,[],B001C7VRHK,[],"104.052936,30.653248",中国民生银行(成都滨江支行),[],[],四川省,[],[],2,028-86137737;028-86121313;028-86121920,金融保险服务;银行;中国民生银行,160112
高新区益州大道中段1926号、1930号,武侯区,[],[],[],成都市,[],B0H6MAGI8R,[],"104.057098,30.534226",平安银行(成都益州大道支行),[],[],四川省,[],[],2,028-86967532,金融保险服务;银行;平安银行,160117
大石西路12号附6号,青羊区,[],[],[],成都市,[],B001C7WI0X,[],"104.037236,30.651122",中国工商银行(大石西路支行),[],[],四川省,[],[],2,95588,金融保险服务;银行;中国工商银行,160105
太升南路288号,青羊区,[],[],202,成都市,[],B001C8MIWC,[],"104.078781,30.667172",中国工商银行(太升南路分理处),B0FFGA4KLO,[],四川省,[],[],2,028-86629028;95588,金融保险服务;银行;中国工商银行,160105
郫都区西大街318-324号,郫都区,[],[],[],成都市,[],B001C7ZXGH,[],"103.882513,30.813553",中国建设银行(郫都望丛支行),[],[],四川省,[],[],2,028-61775207,金融保险服务;银行;中国建设银行,160106
芳草街28号,武侯区,[],[],[],成都市,[],B001C7VR9H,[],"104.051544,30.626586",中国工商银行(成都高新支行营业室),[],[],四川省,[],[],2,028-85176086,金融保险服务;银行;中国工商银行|金融保险服务;银行相关;银行相关,160105|160200
欣然一街11号,成华区,[],[],[],成都市,[],B001C8MYBC,[],"104.105359,30.684824",中国建设银行(府青路支行),[],[],四川省,[],[],2,028-61280150,金融保险服务;银行;中国建设银行,160106
科华南路3号附20号,武侯区,[],[],[],成都市,[],B001C7WGCT,[],"104.077796,30.609241",中国工商银行(科华南路支行),[],[],四川省,[],[],2,028-85221585,金融保险服务;银行;中国工商银行,160105
天久北巷114-116号,武侯区,[],[],[],成都市,[],B001C93K7G,[],"104.076116,30.593138",中国建设银行(天府长城支行),[],[],四川省,[],[],2,028-85356645;028-85180263,金融保险服务;银行;中国建设银行,160106
华府大道一段898号附近,双流区,[],[],[],成都市,[],B001C95DN4,[],"104.050353,30.526794",中国农业银行(成都华府支行),[],[],四川省,[],[],2,028-85642620,金融保险服务;银行;中国农业银行,160107
科华北路131号四川大学望江校区体育馆一楼,武侯区,[],[],[],成都市,[],B001C7WGMW,[],"104.083498,30.628476",中国建设银行(成都川大支行),[],[],四川省,[],[],2,028-85412137,金融保险服务;银行;中国建设银行,160106
上南大街4号1栋1层1号,青羊区,[],[],[],成都市,[],B001C92D5Y,[],"104.062899,30.651277",成都银行(金河支行),[],[],四川省,[],[],2,028-86135008;028-86155358,金融保险服务;银行;银行,160100
双荆路99-101号,成华区,[],[],[],成都市,[],B001C8P6RI,[],"104.095863,30.708494",中国工商银行,[],[],四川省,[],[],2,028-84350290;028-84350559,金融保险服务;银行;中国工商银行,160105
金阳路79号附14-15号,青羊区,[],[],[],成都市,[],B001C7UBXC,[],"104.005638,30.679176",中国建设银行(成都金阳支行),[],[],四川省,[],[],2,028-81713890;028-81713785,金融保险服务;银行;中国建设银行,160106
荣华北路299号,武侯区,[],[],[],成都市,[],B001C95DE0,[],"104.043839,30.552266",中国建设银行(大源支行),[],[],四川省,[],[],2,028-85342291,金融保险服务;银行;中国建设银行,160106
树蓓巷35-43,金牛区,[],[],[],成都市,[],B001C06O9Y,[],"104.090574,30.684992",中国建设银行(李家沱储蓄所),[],[],四川省,[],[],2,028-83391772;028-83396217;95533,金融保险服务;银行;中国建设银行,160106
蜀兴中街141,金牛区,[],[],[],成都市,[],B0FFFABHO6,[],"104.027542,30.687198",中国建设银行(蜀兴中街支行),[],[],四川省,[],[],2,028-87577195;028-87535319;95533,金融保险服务;银行;中国建设银行,160106
王贾路18号1栋103、104、105、106号,金牛区,[],[],[],成都市,[],B001C80IK1,[],"104.068811,30.718154",中国工商银行(成都王贾路支行),[],[],四川省,[],[],2,028-83556730;028-83556572,金融保险服务;银行;中国工商银行,160105
交大路186号附1号,金牛区,[],[],[],成都市,[],B001C7UD8V,[],"104.042630,30.703493",成都银行(交大路支行),[],[],四川省,[],[],2,028-87615355;028-86475921,金融保险服务;银行;银行,160100
农平路与来龙村交叉口东北100米,龙泉驿区,[],[],[],成都市,[],B001C8R7BO,[],"104.168784,30.662077",交通银行ATM(农平路),[],[],四川省,[],[],2,[],金融保险服务;自动提款机;交通银行ATM,160305
清江东路198号保得商务楼1层,青羊区,[],[],202,成都市,[],B001C06V2P,[],"104.029210,30.669169",中国民生银行(成都清江支行),B001C08F8C,[],四川省,[],[],2,028-87369023;028-87369031;028-87361667,金融保险服务;银行;中国民生银行,160112
蜀汉路530号附1-7号,金牛区,[],[],[],成都市,[],B001C80J6K,[],"104.011403,30.694714",中国工商银行(蜀汉路支行),[],[],四川省,[],[],2,028-87522612;028-87542668,金融保险服务;银行;中国工商银行,160105
五津北路5-9号,新津区,[],[],[],成都市,[],B001C7VRDZ,[],"103.812231,30.414966",中国建设银行(新津支行),[],[],四川省,[],[],2,028-82522011,金融保险服务;银行;中国建设银行,160106
蜀汉路289号附25-26号,金牛区,[],[],[],成都市,[],B001C7WBV4,[],"104.020522,30.689044",中国邮政储蓄银行(一品天下营业所)(装修中),[],[],四川省,[],[],2,95580,金融保险服务;银行;中国邮政储蓄银行,160139
肖家村二巷和肖二南巷的交叉口附近,金牛区,[],[],[],成都市,[],B0FFF3VJI2,[],"104.074666,30.688361",招商银行(金牛万达广场支行),[],[],四川省,[],[],2,028-83216500,金融保险服务;银行;招商银行,160109
光华北五路78-80号、光华西二路50-56号,青羊区,[],[],[],成都市,[],B0FFHO14FS,[],"103.956936,30.674415",中国建设银行(成都颐城支行),[],[],四川省,[],[],2,028-87502485,金融保险服务;银行;中国建设银行,160106
望平街2号附3号,成华区,[],[],3,成都市,[],B001C05QSX,[],"104.090205,30.653463",中国农业银行(成都望平支行),B001C0A07R,[],四川省,[],[],2,028-84443967;028-84431410,金融保险服务;银行;中国农业银行,160107
晋阳路215号之附9-12号,武侯区,[],[],[],成都市,[],B001C7YPH5,[],"103.999575,30.650012",中国工商银行(晋康街支行),[],[],四川省,[],[],2,028-87438053;95588,金融保险服务;银行;中国工商银行,160105
公兴镇黄龙大道二段333号,双流区,[],[],[],成都市,[],B001C8OKZX,[],"103.996167,30.492773",中国银行(双流公兴支行),[],[],四川省,[],[],2,028-85681736;95566,金融保险服务;银行;中国银行,160104
紫荆北路12号附1号,武侯区,[],[],[],成都市,[],B001C92E10,[],"104.053337,30.619620",中国建设银行(紫荆北路支行),[],[],四川省,[],[],2,028-85133570;028-85228840;95533,金融保险服务;银行;中国建设银行,160106
交大路203号附1-4号,金牛区,[],[],202,成都市,[],B001C0AFWL,[],"104.041359,30.706305",中国工商银行(交大路支行),B001C09KE9,[],四川省,[],[],2,028-87622372;028-87628525,金融保险服务;银行;中国工商银行,160105
东大街紫东路49号东方广场1层,锦江区,[],[],[],成都市,[],B001C9207P,[],"104.090166,30.647339",广发银行(东大街支行),[],[],四川省,[],[],2,028-83313390,金融保险服务;银行;广发银行,160120
高升桥东路22号附10号,武侯区,[],[],[],成都市,[],B001C06IOX,[],"104.040412,30.632697",中国建设银行(高升东路支行),[],[],四川省,[],[],2,028-85083781,金融保险服务;银行;中国建设银行,160106
琉璃路655号附1号,锦江区,[],[],[],成都市,[],B001C80N54,[],"104.094259,30.613830",中国建设银行(翡翠城储蓄所),[],[],四川省,[],[],2,[],金融保险服务;银行;中国建设银行,160106
二环路北一段133号,金牛区,[],[],[],成都市,[],B001C09OUQ,[],"104.042492,30.692823",成都银行(营门口支行),[],[],四川省,[],[],2,028-87608043,金融保险服务;银行;银行,160100
通盈街106、120号,锦江区,[],[],[],成都市,[],B0FFGFMEEH,[],"104.105152,30.630871",中国农业银行(成都通盈路支行),[],[],四川省,[],[],2,028-86781480,金融保险服务;银行;中国农业银行,160107
红牌楼长城西一路9号,武侯区,[],[],[],成都市,[],B001C92GQ2,[],"104.033283,30.630347",招商银行(成都红牌楼支行),[],[],四川省,[],[],2,028-85019738,金融保险服务;银行;招商银行,160109
和平路166-168号,龙泉驿区,[],[],[],成都市,[],B001C7SE7O,[],"104.177623,30.652619",交通银行(成都十陵支行),[],[],四川省,[],[],2,028-84600864,金融保险服务;银行;交通银行,160108
国学巷37号四川大学华西医院,武侯区,[],[],[],成都市,[],B0FFFABE5R,[],"104.060468,30.641649",中国工商银行(华西医院分理处),[],[],四川省,[],[],2,028-85422125;028-85422085,金融保险服务;银行;中国工商银行,160105
五丁路6号附1号,金牛区,[],[],[],成都市,[],B001C7YL6N,[],"104.065426,30.683102",中国工商银行(成都铁道支行),[],[],四川省,[],[],2,028-83171005,金融保险服务;银行;中国工商银行,160105
交大路227号,金牛区,[],[],[],成都市,[],B001C09PDW,[],"104.038997,30.709235",平安银行(成都金牛支行),[],[],四川省,[],[],2,028-87610865,金融保险服务;银行;平安银行,160117
一环路东三段60号附2-3号,成华区,[],[],[],成都市,[],B001C05T2R,[],"104.098490,30.654357",交通银行(成都成华支行),[],[],四川省,[],[],2,028-84330016;028-84364069,金融保险服务;银行;交通银行,160108
永安路299号锦江之春A座,锦江区,[],[],202,成都市,[],B0FFIOVBTG,[],"104.084695,30.586141",浙商银行(成都分行),B0FFF0099D,[],四川省,[],[],2,028-85511859;028-85512917,金融保险服务;银行;银行,160100
龙泉镇龙都南路111号,龙泉驿区,[],[],[],成都市,[],B001C7UWYW,[],"104.262279,30.566730",中国银行(龙泉驿支行),[],[],四川省,[],[],2,028-84853024;028-84858101;028-95566,金融保险服务;银行;中国银行,160104
沙湾路274-276号,金牛区,[],[],202,成都市,[],B001C7WMST,[],"104.049717,30.693552",成都农商银行(沙湾支行),B001C05060,[],四川省,[],[],2,028-87650463,金融保险服务;银行;农村商业银行,160121
锦城大道533号,武侯区,[],[],[],成都市,[],B0FFF00EHM,[],"104.062100,30.575171",交通银行(高新区支行),[],[],四川省,[],[],2,028-85185568;028-85185919,金融保险服务;银行;交通银行,160108
群星路92-94号,金牛区,[],[],[],成都市,[],B001C0AHHT,[],"104.051787,30.701997",中国银行(西南交大分理处),[],[],四川省,[],[],2,028-87634332;028-87634331,金融保险服务;银行;中国银行,160104
东大街芷泉段210号,锦江区,[],[],[],成都市,[],B001C8VJZJ,[],"104.088398,30.647371",交通银行(成都锦江支行),[],[],四川省,[],[],2,028-86785703;028-86785351,金融保险服务;银行;交通银行,160108
双楠路288号置信广场内(近人人乐),武侯区,[],[],[],成都市,[],B001C7VQL4,[],"104.027749,30.645423",招商银行(成都双楠支行),[],[],四川省,[],[],2,028-85078787;95555,金融保险服务;银行;招商银行,160109
大面惠王陵东路455号、457号、459号、461号,龙泉驿区,[],[],3,成都市,[],B001C7UUHW,[],"104.156009,30.615241",中国邮政储蓄银行24小时自助银行(洪河镇支行),B001C7UUHV,[],四川省,[],[],2,[],金融保险服务;自动提款机;中国邮政储蓄银行ATM,160336
天府二街266号富润国际广场1层,武侯区,[],[],202,成都市,[],B0FFFOD93T,[],"104.061278,30.551754",中信银行(天府支行),B001C8R92A,[],四川省,[],[],2,028-83167872,金融保险服务;银行;中信银行,160111
正北上街38号,双流区,[],[],[],成都市,[],B001C7YLB2,[],"104.056332,30.506370",中国工商银行(华阳支行),[],[],四川省,[],[],2,028-85642710;028-85642354,金融保险服务;银行;中国工商银行,160105
长安路3号附3-6号,温江区,[],[],[],成都市,[],B001C0A0TD,[],"103.847935,30.700931",成都农商银行(温江支行),[],[],四川省,[],[],2,028-82721563,金融保险服务;银行;农村商业银行,160121
华熙路1号3号,双流区,[],[],[],成都市,[],B001C0AGR3,[],"104.056301,30.510455",中国农业银行(华阳支行),[],[],四川省,[],[],2,028-85621636,金融保险服务;银行;中国农业银行,160107
龙泉街道汇丰路4号,龙泉驿区,[],[],[],成都市,[],B001C7UWZ7,[],"104.278968,30.559276",中国农业发展银行(龙泉驿区支行),[],[],四川省,[],[],2,028-84877506,金融保险服务;银行;银行,160100
建业路32-50号,成华区,[],[],[],成都市,[],B001C8NRG2,[],"104.113451,30.670820",招商银行(龙湖三千支行),[],[],四川省,[],[],2,028-84339878;95555,金融保险服务;银行;招商银行,160109
红照壁街27号百川大厦B座2层,锦江区,[],[],202,成都市,[],B001C0AECI,[],"104.064784,30.652257",招商银行(锦江支行),B0FFFZJGI5,[],四川省,[],[],2,028-86148789;028-86149307,金融保险服务;银行;招商银行,160109
金凤路8号附77-78号,青羊区,[],[],[],成都市,[],B001C7WQNV,[],"104.007654,30.677538",招商银行(成都金沙支行),[],[],四川省,[],[],2,[],金融保险服务;银行;招商银行,160109
晨辉路90号,锦江区,[],[],[],成都市,[],B001C7WMGC,[],"104.103084,30.611190",成都农商银行(东光支行),[],[],四川省,[],[],2,028-85923569,金融保险服务;银行;农村商业银行,160121
西玉龙街210号附1号,青羊区,[],[],202,成都市,[],B001C8OQQJ,[],"104.065817,30.667284",哈尔滨银行(成都青羊支行),B001C09ETW,[],四川省,[],[],2,028-65596928,金融保险服务;银行;银行,160100
人民北路一段17号附1-3号,金牛区,[],[],202,成都市,[],B001C7WQWL,[],"104.072573,30.680483",中国工商银行(人民北路支行),B001C06DAS,[],四川省,[],[],2,028-83225779;028-83226669;95588,金融保险服务;银行;中国工商银行,160105
瑞联路3号附5号,青羊区,[],[],[],成都市,[],B001C7UCNJ,[],"104.006562,30.665066",成都银行(优品道支行),[],[],四川省,[],[],2,028-81706149,金融保险服务;银行;银行,160100
少陵路19号附2号,武侯区,[],[],[],成都市,[],B001C0AGC4,[],"104.031913,30.647427",中国建设银行(成都少陵路支行),[],[],四川省,[],[],2,028-85057130;95533,金融保险服务;银行;中国建设银行,160106
紫竹北街80-84号,武侯区,[],[],[],成都市,[],B0HGKSGO5W,[],"104.055184,30.617373",中国银行(银都支行),[],[],四川省,[],[],2,028-85192652;95566,金融保险服务;银行;中国银行,160104
五津西路105号,新津区,[],[],[],成都市,[],B001C01036,[],"103.807525,30.415691",中国银行(新津支行),[],[],四川省,[],[],2,028-82523193;95566,金融保险服务;银行;中国银行,160104
晋阳路,武侯区,[],[],202,成都市,[],B0FFHR4X0P,[],"103.994547,30.648398",中国银行(成都晋阳支行),B0FFHHDOQZ,[],四川省,[],[],2,028-87436962;95566,金融保险服务;银行;中国银行,160104
提督街86-88号,青羊区,[],[],3,成都市,[],B001C7VRD7,[],"104.073477,30.659446",中国建设银行24小时自助银行(岷江支行),B001C7VRD6,[],四川省,[],[],2,[],金融保险服务;自动提款机;中国建设银行ATM,160303
成汉中路107,武侯区,[],[],[],成都市,[],B001C94P7F,[],"104.054757,30.594534",中国建设银行(南城都汇支行),[],[],四川省,[],[],2,028-84248631,金融保险服务;银行;中国建设银行,160106
蓉北商贸大道一段附近,金牛区,[],[],[],成都市,[],B0FFFVFE4R,[],"104.063412,30.709521",招商银行24小时自助银行(成都五福桥东街支行),[],[],四川省,[],[],2,[],金融保险服务;自动提款机;招商银行ATM,160306
东升镇棠湖北路82-92号,双流区,[],[],[],成都市,[],B001C094G8,[],"103.921182,30.574054",交通银行(双流西门支行),[],[],四川省,[],[],2,028-85824285;028-85815700,金融保险服务;银行;交通银行,160108
一环路西一段38号菊乐路口,武侯区,[],[],3,成都市,[],B001C7WNJ3,[],"104.040996,30.645919",成都银行(菊乐路支行),B001C7WL4S,[],四川省,[],[],2,028-85071457,金融保险服务;银行;银行,160100
外南街56-62号,新都区,[],[],[],成都市,[],B001C7V8F5,[],"104.162424,30.820236",交通银行(成都新都下南街支行),[],[],四川省,[],[],2,028-83961823;028-83961776,金融保险服务;银行;交通银行,160108
上街2-10,双流区,[],[],[],成都市,[],B001C0AGR6,[],"104.088741,30.559085",中国农业银行(中和第二分理处),[],[],四川省,[],[],2,028-85651853;028-85651672,金融保险服务;银行;中国农业银行,160107
西北桥北街157号府河市场,金牛区,[],[],[],成都市,[],B0FFFAC61H,[],"104.062773,30.688645",中国工商银行(西北桥支行),[],[],四川省,[],[],2,028-83170671,金融保险服务;银行;中国工商银行,160105
东升镇安福街15号,双流区,[],[],[],成都市,[],B0FFGM7CCR,[],"103.925203,30.574062",中国银行(双流安福街支行),[],[],四川省,[],[],2,028-85823844,金融保险服务;银行;中国银行,160104
新光路5号附14号,武侯区,[],[],[],成都市,[],B001C0AGD1,[],"104.057741,30.615335",中国建设银行(新光路储蓄所),[],[],四川省,[],[],2,028-85139345,金融保险服务;银行;中国建设银行,160106
蜀源路11-17号,青羊区,[],[],[],成都市,[],B001C7VR9K,[],"104.004056,30.677434",中国工商银行(金阳路支行),[],[],四川省,[],[],2,028-81713150;028-81713273,金融保险服务;银行;中国工商银行,160105
天府三街1007-1011,武侯区,[],[],[],成都市,[],B0FFF9UNSJ,[],"104.043923,30.546448",中国建设银行(荣华南路支行),[],[],四川省,[],[],2,028-85315436,金融保险服务;银行;中国建设银行,160106
华润置地二十四城二期9栋附227-231号,成华区,[],[],[],成都市,[],B001C8OL93,[],"104.119031,30.645087",中国银行(成都双成路支行),[],[],四川省,[],[],2,028-61307213;028-61307182,金融保险服务;银行;中国银行,160104
滨江东路158号之附7号-附8,锦江区,[],[],[],成都市,[],B001C80NDF,[],"104.080539,30.644835",中国工商银行(滨江东路支行),[],[],四川省,[],[],2,028-83164612;028-85369425,金融保险服务;银行;中国工商银行,160105
倪家桥路1号,武侯区,[],[],[],成都市,[],B001C06T1P,[],"104.066386,30.625173",中国工商银行(跳伞塔支行),[],[],四川省,[],[],2,028-85551806;028-85583941,金融保险服务;银行;中国工商银行,160105
红光街道红高路88号,郫都区,[],[],[],成都市,[],B0FFFGNITH,[],"103.941291,30.772665",中国建设银行(郫都红光支行),[],[],四川省,[],[],2,028-87813633;028-87813611,金融保险服务;银行;中国建设银行,160106
"太平园东三街2,4,6,8号",武侯区,[],[],[],成都市,[],B001C8O47S,[],"104.015389,30.631282",中国农业银行(成都双楠支行),[],[],四川省,[],[],2,028-85067621,金融保险服务;银行;中国农业银行,160107
华新下街172-184号,双流区,[],[],[],成都市,[],B001C064KS,[],"104.054748,30.514719",中国建设银行(华新支行),[],[],四川省,[],[],2,028-85620141,金融保险服务;银行;中国建设银行,160106
西安路63号,金牛区,[],[],[],成都市,[],B001C8O5Y7,[],"104.046509,30.664925",中国农业银行(西安路分理处),[],[],四川省,[],[],2,028-87586207;028-87739406,金融保险服务;银行;中国农业银行,160107
洗面桥街22号附5号,武侯区,[],[],202,成都市,[],B001C032B2,[],"104.055833,30.639527",华夏银行(武侯支行),B001C0162C,[],四川省,[],[],2,028-85538612,金融保险服务;银行;银行,160100
五福桥东路229号附30-32,金牛区,[],[],[],成都市,[],B0FFG65OIX,[],"104.065530,30.712148",中国建设银行(五福桥分理处),[],[],四川省,[],[],2,028-83136362;028-83136360,金融保险服务;银行;中国建设银行,160106
庆丰街34-36号,温江区,[],[],[],成都市,[],B001C05QS9,[],"103.832198,30.698531",中国农业银行(金乌街分理处),[],[],四川省,[],[],2,028-82724635,金融保险服务;银行;中国农业银行,160107
玉林南街与倪家桥路交叉路口往南约50米,武侯区,[],[],[],成都市,[],B0GU3LLG6T,[],"104.062485,30.624122",中信银行,[],[],四川省,[],[],2,[],金融保险服务;银行;中信银行,160111
航空路1号-2号国航世纪中心B座,武侯区,[],[],202,成都市,[],B001C7XDKJ,[],"104.067602,30.617612",上海银行(成都分行),B0FFF9VG36,[],四川省,[],[],2,028-86029000;028-86029100,金融保险服务;银行;上海银行,160114
安靖镇正义路998号,金牛区,[],[],[],成都市,[],B0FFGJ16T4,[],"104.037589,30.744436",中国工商银行(安靖分理处),[],[],四川省,[],[],2,028-87956696;028-64160495,金融保险服务;银行;中国工商银行,160105
望丛东路3号附1-4,郫都区,[],[],[],成都市,[],B001C8ODNY,[],"103.899493,30.801024",中国民生银行(郫都区支行),[],[],四川省,[],[],2,028-87981362;028-87981060,金融保险服务;银行;中国民生银行,160112
天仁路387号,武侯区,[],[],202,成都市,[],B0FFF33WVX,[],"104.068962,30.601982",中国工商银行(天仁路支行),B0FFHXMEWI,[],四川省,[],[],2,028-85352412,金融保险服务;银行;中国工商银行,160105
益州大道中段1256号(近天府三街),武侯区,[],[],[],成都市,[],B0HBOAKVGG,[],"104.056370,30.544785",中国工商银行,[],[],四川省,[],[],2,95588,金融保险服务;银行;中国工商银行,160105
人民北路火车北站广场公交路3号附2号,金牛区,[],[],[],成都市,[],B001C7YQ3N,[],"104.072046,30.695805",中国邮政储蓄银行(北站广场支行),[],[],四川省,[],[],2,028-83171173,金融保险服务;银行;中国邮政储蓄银行,160139
航空路1国航世纪中心A座,武侯区,[],[],202,成都市,[],B001C7XDKH,[],"104.067705,30.616888",华夏银行(成都人南支行),B0FFF9VG39,[],四川省,[],[],2,028-86029222;028-86029333;95577,金融保险服务;银行;华夏银行,160110
苏坡立交桥蜀鑫路167号1幢1层惠健身清波社区,青羊区,[],[],[],成都市,[],B0FFH9NI80,[],"103.988508,30.678190",中国建设银行(蜀鑫路储蓄所),[],[],四川省,[],[],2,[],金融保险服务;银行;中国建设银行,160106
蜀光路1号附10号,金牛区,[],[],[],成都市,[],B001C058VT,[],"104.016068,30.691929",中国建设银行(成都蜀光路支行),[],[],四川省,[],[],2,028-87529121;028-95533,金融保险服务;银行;中国建设银行,160106
水杉街566-570,锦江区,[],[],[],成都市,[],B0FFFGYPYS,[],"104.131565,30.605798",中国建设银行(成都海桐支行),[],[],四川省,[],[],2,95533,金融保险服务;银行;中国建设银行,160106
金凤路5号附14-18号,青羊区,[],[],[],成都市,[],B001C7WBY5,[],"104.006124,30.675846",中国银行(成都金凤路支行),[],[],四川省,[],[],2,028-81717615;028-81717614;95566,金融保险服务;银行;中国银行,160104
晨辉路6号一栋1楼3-5号,锦江区,[],[],[],成都市,[],B001C7WQVK,[],"104.100525,30.611182",中国工商银行(成都晨辉路支行),[],[],四川省,[],[],2,028-85922083;028-85922091;95588,金融保险服务;银行;中国工商银行,160105
黄金路244号-246号,金牛区,[],[],[],成都市,[],B001C8MV42,[],"103.991633,30.709122",中国邮政储蓄银行(黄金路支行),[],[],四川省,[],[],2,028-61666340;95580,金融保险服务;银行;中国邮政储蓄银行,160139
聚龙路1082号、1084号、1086号,武侯区,[],[],[],成都市,[],B0FFGU7XBI,[],"103.996336,30.623046",成都农商银行(簇锦支行),[],[],四川省,[],[],2,95392,金融保险服务;银行;农村商业银行,160121
建设路17号附1号,龙泉驿区,[],[],[],成都市,[],B001C8OCJ1,[],"104.273894,30.560647",中国建设银行(成都驿马桥支行),[],[],四川省,[],[],2,028-84853346,金融保险服务;银行;中国建设银行,160106
一环路西一段166号附1-4号,青羊区,[],[],[],成都市,[],B001C0AGOT,[],"104.040542,30.657853",中国民生银行(成都青羊支行),[],[],四川省,[],[],2,028-87735815;028-87735860;95568,金融保险服务;银行;中国民生银行,160112
滨江东路9号附12成都香格里拉中心商场1层,锦江区,[],[],202,成都市,[],B001C7WG6B,[],"104.086499,30.642448",汇丰银行(滨江东路支行),B001C7WG6D,[],四川省,[],[],2,028-86733444;028-84753000,金融保险服务;银行;汇丰银行,160126
古柏路53号附3号,金牛区,[],[],[],成都市,[],B001C7UBEN,[],"104.054081,30.732721",中国工商银行(建机厂支行),[],[],四川省,[],[],2,028-83131659;028-83132025;95588,金融保险服务;银行;中国工商银行,160105
高升桥东路17号附24号,武侯区,[],[],[],成都市,[],B001C7Y9T9,[],"104.041699,30.634007",中国工商银行(高升桥东路分理处),[],[],四川省,[],[],2,028-85182100,金融保险服务;银行;中国工商银行,160105
兆景路450号,武侯区,[],[],[],成都市,[],B0FFGFXPYK,[],"103.989937,30.622492",中国建设银行(保利花园支行),[],[],四川省,[],[],2,028-69280397,金融保险服务;银行;中国建设银行,160106
剑南大道中段998号世豪广场1层C104,武侯区,[],[],202,成都市,[],B0FFF9UOHI,[],"104.045621,30.550313",中国工商银行(剑南大道支行),B0FFF9UNIK,[],四川省,[],[],2,028-83166226,金融保险服务;银行;中国工商银行,160105
洗面桥东二街,武侯区,[],[],[],成都市,[],B0FFI11DTD,[],"104.055986,30.636353",中国建设银行(小天西街支行),[],[],四川省,[],[],2,028-86138967;028-86642956,金融保险服务;银行;中国建设银行,160106
西安路一段145号附1-3,双流区,[],[],[],成都市,[],B001C80IQB,[],"103.917432,30.575261",成都农商银行(永福分理处),[],[],四川省,[],[],2,028-85823796,金融保险服务;银行;农村商业银行,160121
建设北路一段99号,成华区,[],[],[],成都市,[],B001C7WDWD,[],"104.090828,30.670723",中国建设银行(成都成华支行),[],[],四川省,[],[],2,95533;028-83335331,金融保险服务;银行;中国建设银行,160106
二仙桥东三路1成都理工大学,成华区,[],[],[],成都市,[],B001C8NOJY,[],"104.138263,30.672898",中国农业银行ATM(成功大道)(暂停营业),[],[],四川省,[],[],2,[],金融保险服务;自动提款机;中国农业银行ATM,160304
一环路南1段24号四川大学望江校区,武侯区,[],[],[],成都市,[],B001C80SB7,[],"104.079697,30.627155",中国银行(成都川大南苑支行),[],[],四川省,[],[],2,028-85406113,金融保险服务;银行;中国银行,160104
府青路一段19号附2-5,成华区,[],[],[],成都市,[],B001C80GQD,[],"104.094614,30.675645",中国工商银行(成都石油路支行),[],[],四川省,[],[],2,028-83397274,金融保险服务;银行;中国工商银行,160105
顺江路33号,锦江区,[],[],[],成都市,[],B001C7WR4B,[],"104.090962,30.639242",中国邮政储蓄银行(顺江路营业所),[],[],四川省,[],[],2,028-84510507;95580,金融保险服务;银行;中国邮政储蓄银行,160139
桐梓林路4号附11-14号,武侯区,[],[],[],成都市,[],B001C80O8O,[],"104.060778,30.610900",中国农业银行(成都欧城分理处),[],[],四川省,[],[],2,028-85158252,金融保险服务;银行;中国农业银行,160107
1环路西3段125号抚琴小区,金牛区,[],[],[],成都市,[],B001C7WR48,[],"104.041899,30.677438",中国邮政储蓄银行(抚琴小区营业所),[],[],四川省,[],[],2,028-87778203;028-95580,金融保险服务;银行;中国邮政储蓄银行,160139
武侯祠大街83号,武侯区,[],[],[],成都市,[],B001C06IXG,[],"104.053424,30.646327",中国农业银行(成都锦南支行),[],[],四川省,[],[],2,028-85561908;028-85590430,金融保险服务;银行;中国农业银行,160107
龙城大道1号,龙泉驿区,[],[],[],成都市,[],B0FFF2UN70,[],"104.201798,30.574195",中国银行(成都龙泉驿龙城支行),[],[],四川省,[],[],2,028-88407453;95566,金融保险服务;银行;中国银行,160104
洗瓦堰路2-4号,锦江区,[],[],[],成都市,[],B001C80OW0,[],"104.092094,30.603265",成都农商银行(锦华分理处),[],[],四川省,[],[],2,028-85916580;028-85910122,金融保险服务;银行;农村商业银行,160121
瑞联路66号1栋1单元102、202号,青羊区,[],[],[],成都市,[],B001C7YPS5,[],"104.001292,30.665920",中国民生银行(成都光华支行),[],[],四川省,[],[],2,028-87088686;028-87088449,金融保险服务;银行;中国民生银行,160112
吴家坝北街44号附近,双流区,[],[],[],成都市,[],B0FFIN8W2P,[],"103.919368,30.579638",交通银行,[],[],四川省,[],[],2,[],金融保险服务;银行;交通银行,160108
天府二街139号中国水电大厦1层,武侯区,[],[],202,成都市,[],B0FFF05GQ4,[],"104.065512,30.550601",中国建设银行(南延线支行),B001C802XK,[],四川省,[],[],2,028-65518979,金融保险服务;银行;中国建设银行,160106
肖家村二巷23号,金牛区,[],[],[],成都市,[],B0FFG4DPWV,[],"104.074445,30.688393",中国农业银行(成都荷花池支行),[],[],四川省,[],[],2,028-83331780;95599,金融保险服务;银行;中国农业银行,160107
福锦路二段222-226号,武侯区,[],[],[],成都市,[],B001C8O7Z6,[],"103.997357,30.60765",成都农商银行(簇桥支行),[],[],四川省,[],[],2,028-85013851,金融保险服务;银行;农村商业银行,160121
武侯大道双楠段36号附8-10号,武侯区,[],[],[],成都市,[],B001C05RNR,[],"104.018616,30.638182",中国工商银行(成都武侯大道支行),[],[],四川省,[],[],2,028-85094008,金融保险服务;银行;中国工商银行,160105
中山路2号附3,双流区,[],[],[],成都市,[],B001C8N4B5,[],"103.967477,30.318527",成都农商银行(黄龙溪分理处),[],[],四川省,[],[],2,028-85696038;028-85696009,金融保险服务;银行;农村商业银行,160121
金福路357-375号,青羊区,[],[],[],成都市,[],B001C805L9,[],"103.985785,30.678993",中国工商银行(金福路支行),[],[],四川省,[],[],2,028-61863215;028-61863190,金融保险服务;银行;中国工商银行,160105
正东中街69号,双流区,[],[],[],成都市,[],B001C8OC3A,[],"104.060518,30.502570",中国建设银行(华阳支行),[],[],四川省,[],[],2,028-85642142;028-85644710,金融保险服务;银行;中国建设银行,160106
锦城大道1084号,武侯区,[],[],[],成都市,[],B0FFFZBTT7,[],"104.050838,30.575528",兴业银行(成都高新区支行),[],[],四川省,[],[],2,028-85321972;028-85322765,金融保险服务;银行;兴业银行,160118
二环路北一段111号西南交通大学行政办公楼底商,金牛区,[],[],[],成都市,[],B001C7WD4M,[],"104.053714,30.695392",中国工商银行(西南交通大学支行),[],[],四川省,[],[],2,028-87600316,金融保险服务;银行;中国工商银行,160105
棠湖东路二段5-7号,双流区,[],[],[],成都市,[],B001C09RZJ,[],"103.923317,30.571343",成都农商银行(东升分理处),[],[],四川省,[],[],2,028-85825405,金融保险服务;银行;农村商业银行,160121
广富路与成飞大道交叉口西北50米,青羊区,[],[],[],成都市,[],B0FFI89R95,[],"103.961370,30.680911",中国邮政储蓄银行24小时自助银行(黄田坝支行),[],[],四川省,[],[],2,[],金融保险服务;自动提款机;中国邮政储蓄银行ATM,160336
金凤路13号附6-8号,青羊区,[],[],[],成都市,[],B001C7YL3X,[],"104.008143,30.679150",恒丰银行(成都金沙支行营业部),[],[],四川省,[],[],2,028-81717865,金融保险服务;银行;银行,160100
龙泉街道平江北路2号,龙泉驿区,[],[],[],成都市,[],B001C06D9V,[],"104.261327,30.554880",中国工商银行(龙泉航天路支行),[],[],四川省,[],[],2,028-88420338,金融保险服务;银行;中国工商银行,160105
盛安街356号,武侯区,[],[],[],成都市,[],B0FFIB4LKU,[],"104.047761,30.558282",中国建设银行(峰度天下支行),[],[],四川省,[],[],2,028-85320241;95533,金融保险服务;银行;中国建设银行,160106
中和大道三段267-273,双流区,[],[],202,成都市,[],B0FFG74T8G,[],"104.094565,30.550531",中国建设银行(成都中和新城支行),B0FFFPGGYE,[],四川省,[],[],2,028-85616530;15882110682,金融保险服务;银行;中国建设银行,160106
驷马桥三路299号,成华区,[],[],[],成都市,[],B0GK4ZO9R6,[],"104.098869,30.691081",中国工商银行(高车支行),[],[],四川省,[],[],2,028-61283765;028-61284628,金融保险服务;银行;中国工商银行,160105
蜀汉路333号附2号,金牛区,[],[],[],成都市,[],B001C0AFVK,[],"104.016869,30.691040",中国工商银行(东电集团支行),[],[],四川省,[],[],2,028-87530813;028-87530286,金融保险服务;银行;中国工商银行,160105
天府二街99号新天府国际中心A座,武侯区,[],[],202,成都市,[],B001C7VGLB,[],"104.066705,30.550714",平安银行24小时自助银行(成都分行),B001C8P781,[],四川省,[],[],2,[],金融保险服务;自动提款机;平安银行ATM,160314
天龙大道1333号北斗七星城,金牛区,[],[],[],成都市,[],B0FFIVKVZ0,[],"104.099586,30.772001",中国农业银行(天回支行),[],[],四川省,[],[],2,028-83572560;028-83572611;95599,金融保险服务;银行;中国农业银行,160107
洪河中路705号,龙泉驿区,[],[],[],成都市,[],B0FFF00DGY,[],"104.167069,30.615017",中国工商银行(洪河大道支行),[],[],四川省,[],[],2,028-84635452;028-84635453;95588,金融保险服务;银行;中国工商银行,160105
藩库街9号,锦江区,[],[],[],成都市,[],B0FFKITR12,[],"104.082455,30.657909",中国工商银行(锦江支行),[],[],四川省,[],[],2,028-86740105;028-86751956;028-95588,金融保险服务;银行;中国工商银行,160105
天府新谷8号2-1F楼2单元,武侯区,[],[],[],成都市,[],B0FFFO5DB0,[],"104.054828,30.586083",中国光大银行(高新支行),[],[],四川省,[],[],2,028-61682880;95595,金融保险服务;银行;中国光大银行,160113
一品天下大街399号附14-16号,金牛区,[],[],202,成都市,[],B001C8MJUA,[],"104.028530,30.695615",成都农商银行(茶店子支行),B0FFGABTW3,[],四川省,[],[],2,028-87533374;028-86798532,金融保险服务;银行;农村商业银行,160121
天娇路74号附210附近,郫都区,[],[],[],成都市,[],B0FFFVD6KW,[],"103.920231,30.753101",中国建设银行24小时自助银行(天骄路),[],[],四川省,[],[],2,[],金融保险服务;自动提款机;中国建设银行ATM,160303
科华南路9号,武侯区,[],[],[],成都市,[],B0FFIXLW8O,[],"104.078009,30.607883",招商银行(成都火车南站东路支行),[],[],四川省,[],[],2,028-85238811,金融保险服务;银行;招商银行,160109
天府四街2806号临江苑9栋1楼临街商铺,武侯区,[],[],[],成都市,[],B0FFKVZJOU,[],"104.031376,30.542462",中国银行(成都大源支行),[],[],四川省,[],[],2,028-60633188;95566,金融保险服务;银行;中国银行,160104
金福北路17-23号,青羊区,[],[],[],成都市,[],B001C805L5,[],"103.984973,30.680262",中国农业银行(成都金福支行),[],[],四川省,[],[],2,[],金融保险服务;银行;中国农业银行,160107
玉泉街与驿都大道中路交汇处北150米,龙泉驿区,[],[],[],成都市,[],B0FFGG4F6D,[],"104.229283,30.570311",交通银行ATM(步行街),[],[],四川省,[],[],2,[],金融保险服务;自动提款机;交通银行ATM,160305
武侯区高新区盛安街135号1楼,武侯区,[],[],[],成都市,[],B0H65ZLMUI,[],"104.052954,30.557802",平安银行(成都汇锦广场社区支行),[],[],四川省,[],[],2,028-81290647,金融保险服务;银行;平安银行,160117
海昌南路66号,双流区,[],[],[],成都市,[],B001C95ERJ,[],"104.073197,30.490824",中国银行(海昌支行),[],[],四川省,[],[],2,028-62580464;028-60611240,金融保险服务;银行;中国银行,160104
双福二路41号,成华区,[],[],[],成都市,[],B0FFL52ZDG,[],"104.119165,30.644541",招商银行(成都华润二十四城支行),[],[],四川省,[],[],2,028-84113970,金融保险服务;银行;招商银行,160109
博海路83号(海伦国际广场旁),新都区,[],[],[],成都市,[],B0FFI5HKP8,[],"104.158256,30.813303",中国银行(新都博海路支行),[],[],四川省,[],[],2,028-83968350;95566,金融保险服务;银行;中国银行,160104
长城路二段399号,双流区,[],[],[],成都市,[],B0FFFFPU8V,[],"103.990790,30.548171",中国农业银行(双流文星支行),[],[],四川省,[],[],2,028-85860603,金融保险服务;银行;中国农业银行,160107
倪家桥路6号,武侯区,[],[],[],成都市,[],B001C06T3K,[],"104.061882,30.624728",中国建设银行(成都倪家桥支行),[],[],四川省,[],[],2,028-85582628;95533,金融保险服务;银行;中国建设银行,160106
天晖路360号晶科1号1楼,武侯区,[],[],[],成都市,[],B0FFF90CNB,[],"104.063450,30.589079",中国建设银行(天府新城储蓄所),[],[],四川省,[],[],2,028-65294504,金融保险服务;银行;中国建设银行,160106
大弯镇怡湖西路89号,青白江区,[],[],[],成都市,[],B0FFGEW8QL,[],"104.252338,30.881242",中国农业银行(青白江支行营业部),[],[],四川省,[],[],2,028-83303582;028-83302248,金融保险服务;银行;中国农业银行,160107
锦江工业园三色路209号,锦江区,[],[],[],成都市,[],B001C7XMZP,[],"104.085358,30.590656",成都银行(锦江工业园支行),[],[],四川省,[],[],2,028-85925119,金融保险服务;银行;银行,160100
桃蹊路70号(交警五分局对面),成华区,[],[],[],成都市,[],B001C7WDKX,[],"104.107431,30.681085",中国邮政储蓄银行(桃蹊路支行),[],[],四川省,[],[],2,028-83289445,金融保险服务;银行;中国邮政储蓄银行,160139
宏济新路266-274号,锦江区,[],[],[],成都市,[],B001C7WQZ0,[],"104.095756,30.639239",中国民生银行(宏济新路社区支行),[],[],四川省,[],[],2,028-84536672;95568,金融保险服务;银行;中国民生银行,160112
高新区盛邦街19号,武侯区,[],[],[],成都市,[],B0FFFYM3BI,[],"104.055878,30.555640",中国建设银行(华府西苑支行),[],[],四川省,[],[],2,028-83167160;028-83167553,金融保险服务;银行;中国建设银行,160106
天府大道18号高新国际广场C座联通大厦1层,武侯区,[],[],[],成都市,[],B001C8O8PM,[],"104.066431,30.592539",中国建设银行(成都科技支行),[],[],四川省,[],[],2,028-82834996,金融保险服务;银行;中国建设银行,160106
"锦东路555号附11,12号",锦江区,[],[],[],成都市,[],B001C7VRB4,[],"104.105817,30.640318",中国工商银行(成都牛市口支行),[],[],四川省,[],[],2,[],金融保险服务;银行;中国工商银行,160105
建设路1号附14-17,成华区,[],[],[],成都市,[],B001C7YOVC,[],"104.108559,30.670296",中国银行(成都金域蓝湾支行),[],[],四川省,[],[],2,028-84702015;028-84702012;95566,金融保险服务;银行;中国银行,160104
天府三街,武侯区,[],[],[],成都市,[],B0FFKHDVJC,[],"104.061105,30.546483",招商银行(腾讯大厦社区支行),[],[],四川省,[],[],2,[],金融保险服务;银行;招商银行,160109
蜀西路46附近,金牛区,[],[],[],成都市,[],B0FFFE94Q9,[],"103.990187,30.715200",中国建设银行(成都蜀西路支行),[],[],四川省,[],[],2,028-61340823,金融保险服务;银行;中国建设银行,160106
毗河东路25号附近,新都区,[],[],[],成都市,[],B0FFJE0Z9B,[],"104.150439,30.790201",中国建设银行,[],[],四川省,[],[],2,[],金融保险服务;银行;中国建设银行,160106
贝森南路99号,青羊区,[],[],[],成都市,[],B001C7UCO5,[],"104.003608,30.669467",中国工商银行(成都贝森南路支行),[],[],四川省,[],[],2,028-81702682;028-81702262;95588,金融保险服务;银行;中国工商银行,160105
郫筒镇望丛西路295号(桃园柳岸),郫都区,[],[],[],成都市,[],B001C7ZWWY,[],"103.879557,30.815748",中国农业银行(郫都区桃园分理处),[],[],四川省,[],[],2,028-87928656,金融保险服务;银行;中国农业银行,160107
人民南路四段28号成达综合楼1层,武侯区,[],[],202,成都市,[],B001C05UXW,[],"104.066485,30.622532",中国银行(成都玉洁支行),B0FFFO42R2,[],四川省,[],[],2,028-85520167,金融保险服务;银行;中国银行,160104
红星路一段15号,锦江区,[],[],[],成都市,[],B001C7WQVQ,[],"104.088309,30.667379",中国工商银行(红星中路支行),[],[],四川省,[],[],2,028-86912596;028-86911367;95588,金融保险服务;银行;中国工商银行,160105
双九路233号,双流区,[],[],[],成都市,[],B001C959GF,[],"103.914869,30.609122",中国邮政储蓄银行ATM(双九路),[],[],四川省,[],[],2,[],金融保险服务;自动提款机;中国邮政储蓄银行ATM,160336
交大路与长兰路交叉口,金牛区,[],[],202,成都市,[],B0FFI9627Y,[],"104.038955,30.709332",中国平安平安银行(成都金牛支行公司部),B001C7XRBM,[],四川省,[],[],2,028-87610865,金融保险服务;银行;平安银行,160117
二环路西一段2号(近天邑国际酒店),武侯区,[],[],[],成都市,[],B001C92ECE,[],"104.031130,30.636923",成都农商银行(永丰支行),[],[],四川省,[],[],2,028-87070225,金融保险服务;银行;农村商业银行,160121
锦绣路38,武侯区,[],[],[],成都市,[],B001C7VRE6,[],"104.075024,30.624883",中国建设银行(成都棕北支行),[],[],四川省,[],[],2,028-85210149,金融保险服务;银行;中国建设银行,160106
同善桥南街9号附5号,青羊区,[],[],[],成都市,[],B001C7UBKW,[],"104.022675,30.681168",中国工商银行(成都同善桥南街支行),[],[],四川省,[],[],2,028-87373887;95588,金融保险服务;银行;中国工商银行,160105
文光路9号,青羊区,[],[],[],成都市,[],B001C807VJ,[],"103.964322,30.688895",中国工商银行(成飞大道支行),[],[],四川省,[],[],2,028-87071101;028-87079593;028-87409984,金融保险服务;银行;中国工商银行,160105
沙湾路75号附6号,金牛区,[],[],[],成都市,[],B001C7WQZM,[],"104.050457,30.693589",中国农业银行(金牛支行),[],[],四川省,[],[],2,028-87659841;028-87655657,金融保险服务;银行;中国农业银行,160107
龙华南路147号,武侯区,[],[],[],成都市,[],B001C7WQO1,[],"104.013382,30.644140",招商银行(成都鹭岛支行),[],[],四川省,[],[],2,028-87060769;028-87060750;028-87060760,金融保险服务;银行;银行,160100
花都大道793-795号,新都区,[],[],[],成都市,[],B001C8MG9C,[],"104.057185,30.760779",中国邮政储蓄银行(大丰镇支行),[],[],四川省,[],[],2,028-83911418;95580,金融保险服务;银行;中国邮政储蓄银行,160139
金阳路69-75号,青羊区,[],[],[],成都市,[],B001C7V8EX,[],"104.008049,30.677874",交通银行(成都金沙支行),[],[],四川省,[],[],2,028-87342016;028-87342015,金融保险服务;银行;交通银行,160108
成汉南路138号(天府新谷、仁和春天国际花园、誉峰、市一医院),武侯区,[],[],[],成都市,[],B0FFFEY2Y3,[],"104.054169,30.585723",中国农业银行(天府大道支行),[],[],四川省,[],[],2,028-69760778,金融保险服务;银行;中国农业银行,160107
世纪城路936号,武侯区,[],[],202,成都市,[],B001C8OB6S,[],"104.073908,30.555015",兴业银行(成都分行营业部),B0FFFODS0A,[],四川省,[],[],2,028-61818808;028-61818321,金融保险服务;银行;兴业银行,160118
建设路三段建业北路237号,成华区,[],[],[],成都市,[],B001C8OQT9,[],"104.110978,30.675586",交通银行(成都厂北路支行),[],[],四川省,[],[],2,028-84386139;028-84317406,金融保险服务;银行;交通银行,160108
东大街27号,温江区,[],[],[],成都市,[],B001C06GVD,[],"103.837604,30.698739",中国工商银行(温江支行营业室),[],[],四川省,[],[],2,028-82722758;028-82722849,金融保险服务;银行;中国工商银行,160105
人民中路二段35号,青羊区,[],[],3,成都市,[],B001C0AHJ0,[],"104.065849,30.669162",中国银行(四川省分行),B001C04FCE,[],四川省,[],[],2,028-86403083,金融保险服务;银行;中国银行,160104
交大路219号附4-6号,金牛区,[],[],[],成都市,[],B001C022D7,[],"104.040292,30.707629",交通银行(交大路支行),[],[],四川省,[],[],2,028-87629638;028-87624856,金融保险服务;银行;交通银行,160108
东升镇丛桂街71号,双流区,[],[],[],成都市,[],B001C7VR9W,[],"103.925345,30.573879",中国工商银行(双流支行),[],[],四川省,[],[],2,028-85822703;95588,金融保险服务;银行;中国工商银行,160105
大面树德大街38号,龙泉驿区,[],[],3,成都市,[],B001C8OM2J,[],"104.195869,30.584426",中国邮政储蓄银行24小时自助银行(大面镇支行),B001C7UUIU,[],四川省,[],[],2,[],金融保险服务;自动提款机;中国邮政储蓄银行ATM,160336
清江东路11号,青羊区,[],[],[],成都市,[],B001C0AECM,[],"104.036298,30.667540",招商银行(清江支行),[],[],四川省,[],[],2,028-87371136;028-87370496;95555,金融保险服务;银行;招商银行,160109
紫竹北街94号,武侯区,[],[],[],成都市,[],B001C7WHEB,[],"104.057149,30.616344",招商银行(高新支行),[],[],四川省,[],[],2,028-85197557;028-85190022,金融保险服务;银行;招商银行,160109
棠湖西路一段13吉丰百货1层,双流区,[],[],[],成都市,[],B001C7YO3I,[],"103.919170,30.572444",成都农商银行(双流支行),[],[],四川省,[],[],2,028-85812212;028-85812213,金融保险服务;银行;农村商业银行,160121
东升镇棠湖东路一段15号,双流区,[],[],[],成都市,[],B001C013B6,[],"103.921909,30.571724",中国银行(双流分行),[],[],四川省,[],[],2,028-85823856;028-85824281;95566,金融保险服务;银行;中国银行,160104
人民南路三段1号中汇广场对面,武侯区,[],[],[],成都市,[],B001C8MPDX,[],"104.066591,30.645889",招商银行(成都分行),[],[],四川省,[],[],2,028-61816135,金融保险服务;银行;招商银行,160109
银河路120号,龙泉驿区,[],[],[],成都市,[],B001C8OO5Q,[],"104.179708,30.567359",中国银行ATM,[],[],四川省,[],[],2,[],金融保险服务;自动提款机;中国银行ATM,160301
天府三街97号(近新希望),武侯区,[],[],[],成都市,[],B001C95DT3,[],"104.065370,30.546543",上海浦东发展银行(天府支行),[],[],四川省,[],[],2,028-65292152,金融保险服务;银行;上海浦东发展银行,160115
高店路西段67号,郫都区,[],[],202,成都市,[],B0FFF009C3,[],"103.938963,30.774678",中国农业银行(红光分理处),B001C951AK,[],四川省,[],[],2,028-87987288;95599,金融保险服务;银行;中国农业银行,160107
金府路833号鸿盛商务大厦1号楼,金牛区,[],[],[],成都市,[],B001C8P67C,[],"104.044408,30.717748",华夏银行(金府支行),[],[],四川省,[],[],2,028-61990577;028-61990706,金融保险服务;银行;华夏银行,160110
广场路北一段118号,金牛区,[],[],[],成都市,[],B001C8R8FH,[],"103.950382,30.780785",中国工商银行(红光支行),[],[],四川省,[],[],2,[],金融保险服务;银行;中国工商银行,160105
一环路南三段68-70号,武侯区,[],[],[],成都市,[],B001C7WQZC,[],"104.053745,30.633450",中国农业银行(成都芳草街支行),[],[],四川省,[],[],2,028-85192811;028-85193414,金融保险服务;银行;中国农业银行,160107
天府大道北段966号天府国际金融中心6号楼,武侯区,[],[],202,成都市,[],B001C8NW9O,[],"104.066928,30.579850",中国民生银行,B0FFF9VK84,[],四川省,[],[],2,028-85102587;028-85102591;95568,金融保险服务;银行;中国民生银行,160112
菜蔬街二段6-8号,双流区,[],[],[],成都市,[],B001C7UWIA,[],"104.054627,30.518130",招商银行(成都华阳支行),[],[],四川省,[],[],2,028-85623139;028-95555;028-81506662,金融保险服务;银行;招商银行,160109
西安北路83号,金牛区,[],[],[],成都市,[],B001C7UFJD,[],"104.048079,30.671175",招商银行(西安北路支行),[],[],四川省,[],[],2,028-87748791;028-87719476,金融保险服务;银行;招商银行,160109
方元路60、62号,新都区,[],[],[],成都市,[],B001C8MG6Z,[],"104.063754,30.761296",成都农商银行(新都大丰支行),[],[],四川省,[],[],2,028-83911401,金融保险服务;银行;农村商业银行,160121
顺城大街316号附6号,青羊区,[],[],[],成都市,[],B0FFG4H50I,[],"104.071018,30.669503",中国农业银行(青羊支行),[],[],四川省,[],[],2,028-68738032,金融保险服务;银行;中国农业银行,160107
驿都西路4111号四川财经职业学院,龙泉驿区,[],[],[],成都市,[],B0FFFF5LO7,[],"104.212198,30.580138",中国邮政储蓄银行ATM(四川财经职业学院卫生服务站西南),[],[],四川省,[],[],2,[],金融保险服务;自动提款机;中国邮政储蓄银行ATM,160336
马超东路289号金融服务中心1楼,新都区,[],[],[],成都市,[],B0FFFGUNJJ,[],"104.180825,30.808724",成都农商银行(新都支行),[],[],四川省,[],[],2,028-83013228,金融保险服务;银行;农村商业银行,160121
金科南路1号,金牛区,[],[],[],成都市,[],B001C807VL,[],"103.994116,30.712781",中国工商银行(西部园区支行),[],[],四川省,[],[],2,028-87509756;028-95588,金融保险服务;银行;中国工商银行,160105
红星路二段118号,锦江区,[],[],3,成都市,[],B001C7TK6T,[],"104.084162,30.661738",中国建设银行(成都第三支行),B001C096AV,[],四川省,[],[],2,028-86746565;028-86623917,金融保险服务;银行;中国建设银行,160106
花源镇利民街47号,新津区,[],[],[],成都市,[],B001C8MSYE,[],"103.882951,30.485569",成都农商银行(花源支行),[],[],四川省,[],[],2,028-82481636,金融保险服务;银行;农村商业银行,160121
武成大街2号附3-5,锦江区,[],[],[],成都市,[],B001C0AHW8,[],"104.090820,30.658139",中信银行(成都武成支行),[],[],四川省,[],[],2,028-86787599;028-86789398,金融保险服务;银行;中信银行,160111
锦城大道831-837号,武侯区,[],[],[],成都市,[],B001C8O8YS,[],"104.056534,30.575104",中国工商银行(民丰大道支行),[],[],四川省,[],[],2,028-85975733;028-85977231,金融保险服务;银行;中国工商银行,160105
东升街道办花园社区金河路1887号,双流区,[],[],[],成都市,[],B0FFF3K7LC,[],"103.908354,30.575132",平安银行(成都双流支行),[],[],四川省,[],[],2,028-85713912,金融保险服务;银行;平安银行,160117
二环路南一段16号,武侯区,[],[],[],成都市,[],B001C7WPD7,[],"104.080509,30.619754",成都农商银行(武侯支行),[],[],四川省,[],[],2,028-85230711;028-85357169,金融保险服务;银行;农村商业银行,160121
马超西路299号1栋1楼1-3号,新都区,[],[],[],成都市,[],B0FFFGUPNV,[],"104.165907,30.812475",平安银行(成都新都支行),[],[],四川省,[],[],2,028-83979295,金融保险服务;银行;平安银行,160117
高新区天府大道北段20号高新国际广场B座1层,武侯区,[],[],[],成都市,[],B001C8P6XZ,[],"104.066731,30.591616",中国农业银行(高新技术产业开发区支行),[],[],四川省,[],[],2,028-85319286,金融保险服务;银行;中国农业银行,160107
郫筒街道东大街65号,郫都区,[],[],[],成都市,[],B001C0AFZP,[],"103.887946,30.808161",中国工商银行(成都郫都支行),[],[],四川省,[],[],2,028-87865170;028-87862156,金融保险服务;银行;中国工商银行,160105
新雅街8-10,武侯区,[],[],[],成都市,[],B001C7SQCY,[],"104.027104,30.606364",成都农商银行(城南分理处),[],[],四川省,[],[],2,028-85112376,金融保险服务;银行;农村商业银行,160121
珠江东街153-155,郫都区,[],[],[],成都市,[],B001C0AGAA,[],"103.962172,30.760081",中国建设银行(犀浦支行),[],[],四川省,[],[],2,028-87841903,金融保险服务;银行;中国建设银行,160106
东环路五巷8号,新都区,[],[],[],成都市,[],B001C0AGPB,[],"104.167407,30.829069",中国农业发展银行(新都区支行),[],[],四川省,[],[],2,028-83013142,金融保险服务;银行;银行,160100
成华大道新鸿路237号,成华区,[],[],[],成都市,[],B001C7UNGC,[],"104.107057,30.661951",中国建设银行(新鸿支行),[],[],四川省,[],[],2,028-82945784,金融保险服务;银行;中国建设银行,160106
抚琴西路89号,金牛区,[],[],[],成都市,[],B001C7YPKD,[],"104.037227,30.678181",兴业银行(成都金牛支行),[],[],四川省,[],[],2,028-82862058;028-82862045;95561,金融保险服务;银行;兴业银行,160118
暑袜北一街25号附1号,锦江区,[],[],[],成都市,[],B001C7WHVO,[],"104.076915,30.660909",中国邮政储蓄银行(四川省分行直属支行),[],[],四川省,[],[],2,028-86617310,金融保险服务;银行;中国邮政储蓄银行,160139
万科魅力之城和锦路208号,成华区,[],[],[],成都市,[],B0FFHNL65Z,[],"104.155094,30.627015",中国农业银行(成都迎晖支行),[],[],四川省,[],[],2,028-84333517;028-63931375,金融保险服务;银行;中国农业银行,160107
西源大道2006号电子科技大学清水河校区校内商业街1层,郫都区,[],[],[],成都市,[],B001C8MG3P,[],"103.929716,30.756509",中国建设银行(成都清水河支行),[],[],四川省,[],[],2,028-61830127;95533,金融保险服务;银行;中国建设银行,160106
[],武侯区,[],[],202,成都市,[],B001C80JFV,[],"104.064453,30.574678",中信银行(成都分行营业部),B001C8TY33,[],四川省,[],[],2,028-65338885,金融保险服务;银行;中信银行,160111
泰山南街西区地标126-130号,郫都区,[],[],[],成都市,[],B001C094F8,[],"103.959601,30.758748",交通银行(成都西区支行),[],[],四川省,[],[],2,028-87958187,金融保险服务;银行;交通银行,160108
双林中横路6号附1-4号,成华区,[],[],[],成都市,[],B001C0AHHJ,[],"104.109149,30.650462",中国银行(双林路支行),[],[],四川省,[],[],2,028-84318005;95566,金融保险服务;银行;银行,160100
瑞联路39号附1号,青羊区,[],[],[],成都市,[],B001C7WB9I,[],"104.002017,30.665336",中国光大银行(成都光华支行),[],[],四川省,[],[],2,028-87088006;028-87088016,金融保险服务;银行;中国光大银行,160113
光华村街66号附24-26号,青羊区,[],[],[],成都市,[],B001C7VQL3,[],"104.008427,30.664360",招商银行(成都青羊支行),[],[],四川省,[],[],2,028-87339519;95555,金融保险服务;银行;招商银行,160109
华阳镇正东上街87-99号,双流区,[],[],[],成都市,[],B001C8MPAR,[],"104.057507,30.504383",中国银行(华阳支行),[],[],四川省,[],[],2,028-85647899;028-95566,金融保险服务;银行;中国银行,160104
航天北路航天宾馆附楼1层,龙泉驿区,[],[],[],成都市,[],B001C7YQ1Q,[],"104.259101,30.556634",中国银行(航天城支行),[],[],四川省,[],[],2,028-88420128;95566,金融保险服务;银行;中国银行,160104
正西街95,双流区,[],[],[],成都市,[],B001C8OBOX,[],"104.053517,30.506281",成都农商银行(华阳正西街分理处),[],[],四川省,[],[],2,028-83080154;028-85642733,金融保险服务;银行;农村商业银行,160121
双福二路39号20栋一层一号,成华区,[],[],[],成都市,[],B0FFGCESSC,[],"104.118089,30.645114",兴业银行(成华支行),[],[],四川省,[],[],2,028-81133441;95561,金融保险服务;银行;兴业银行,160118
营门口街道营门口路251号民光商厦,金牛区,[],[],202,成都市,[],B0FFGYQVHU,[],"104.041137,30.686941",华夏银行(成都金牛支行),B001C7WMPD,[],四川省,[],[],2,028-87799176,金融保险服务;银行;华夏银行,160110
永安路299号锦江之春B座1层,锦江区,[],[],202,成都市,[],B0FFH5X0AL,[],"104.084970,30.586377",华夏银行(成都分行),B0FFGAK3GU,[],四川省,[],[],2,028-86029222,金融保险服务;银行;华夏银行,160110
二环路南二段15号,武侯区,[],[],[],成都市,[],B001C05VSU,[],"104.072521,30.620756",中国人民银行(成都分行),[],[],四川省,[],[],2,028-85214789,金融保险服务;银行;中国人民银行,160101
合信路西南公寓2号院501,郫都区,[],[],[],成都市,[],B001C8R7G0,[],"103.913776,30.753373",中国银行(成都电子路支行),[],[],四川省,[],[],2,028-86102739;95566,金融保险服务;银行;中国银行,160104
建设北路三段185号附4-6号,成华区,[],[],[],成都市,[],B001C05K40,[],"104.116938,30.678255",中国农业银行(成都圣灯支行),[],[],四川省,[],[],2,028-83265076,金融保险服务;银行;中国农业银行,160107
肖家村二巷51号、89号附1号-附3号,金牛区,[],[],[],成都市,[],B001C92GUB,[],"104.075174,30.688332",兴业银行(成都人北支行),[],[],四川省,[],[],2,028-61668791;028-61666842,金融保险服务;银行;兴业银行,160118
东大街城守东大街段6号附1号,锦江区,[],[],202,成都市,[],B001C7SE74,[],"104.076103,30.653256",交通银行(成都东大街支行),B001C05065,[],四川省,[],[],2,028-86711883;028-86711884,金融保险服务;银行;交通银行,160108
沙湾东二路1号智业世纪加州A座,金牛区,[],[],202,成都市,[],B001C80J9B,[],"104.051411,30.689668",中信银行(成都金牛支行),B001C8W9WT,[],四川省,[],[],2,028-87670385;028-87670571;95558,金融保险服务;银行;中信银行,160111
龙潭寺下街,成华区,[],[],[],成都市,[],B001C8OEJ1,[],"104.174075,30.704985",成都农商银行(同仁路分理处),[],[],四川省,[],[],2,028-84204486,金融保险服务;银行;农村商业银行,160121
车城西四路125号,龙泉驿区,[],[],[],成都市,[],B0FFFLJW3V,[],"104.175811,30.566584",中国建设银行(车城支行),[],[],四川省,[],[],2,028-88425602,金融保险服务;银行;中国建设银行,160106
城守东大街走马街59号蓝光大厦1层,锦江区,[],[],202,成都市,[],B001C7UPWP,[],"104.075988,30.653264",中国建设银行(成都春熙支行),B001C05065,[],四川省,[],[],2,028-95533,金融保险服务;银行;中国建设银行,160106
泰安街10-16号,成华区,[],[],[],成都市,[],B001C80IXF,[],"104.093634,30.681506",成都农商银行(府青路分理处),[],[],四川省,[],[],2,028-83256035;028-83258436,金融保险服务;银行;农村商业银行,160121
沙湾东二路89号,金牛区,[],[],[],成都市,[],B0FFHWN74J,[],"104.051250,30.690002",兴业银行(沙湾支行),[],[],四川省,[],[],2,028-82862081,金融保险服务;银行;兴业银行,160118
均隆街2号,锦江区,[],[],[],成都市,[],B001C8OPHC,[],"104.087612,30.648479",平安银行(成都锦江支行),[],[],四川省,[],[],2,028-84421572,金融保险服务;银行;平安银行,160117
科华北路64号附1号,武侯区,[],[],[],成都市,[],B001C80RRS,[],"104.076587,30.622290",招商银行(成都科华路支行),[],[],四川省,[],[],2,028-85238485;028-85242462,金融保险服务;银行;招商银行,160109
东升路95号蜀源大厦1层,锦江区,[],[],202,成都市,[],B0FFFOG7OS,[],"104.077147,30.650431",中信银行(成都红星路支行),B001C0506F,[],四川省,[],[],2,028-85458376,金融保险服务;银行;中信银行,160111
云龙路111号附3号,成华区,[],[],[],成都市,[],B001C80FI6,[],"104.107429,30.700886",成都农商银行(云龙分理处),[],[],四川省,[],[],2,028-83517297,金融保险服务;银行;农村商业银行,160121
锦绣路1号保利中心A座1层,武侯区,[],[],202,成都市,[],B001C9290U,[],"104.074133,30.624775",平安银行(成都棕南支行),B001C9290O,[],四川省,[],[],2,028-85276790,金融保险服务;银行;平安银行,160117
光华大道三段1818号珠江国际花园,温江区,[],[],[],成都市,[],B001C8R6CD,[],"103.857478,30.687554",中国建设银行(温江光华支行),[],[],四川省,[],[],2,028-82740330;028-82746357,金融保险服务;银行;中国建设银行,160106
西街6号,新都区,[],[],[],成都市,[],B001C7TLJO,[],"104.160075,30.826749",中国邮政储蓄银行(西街营业所),[],[],四川省,[],[],2,028-83991599;028-95580,金融保险服务;银行;中国邮政储蓄银行,160139
东坡路437-443号,青羊区,[],[],[],成都市,[],B001C7WEIT,[],"103.993408,30.661061",中国建设银行(东坡路支行),[],[],四川省,[],[],2,028-81720057,金融保险服务;银行;中国建设银行,160106
簇锦北路55-57号,武侯区,[],[],[],成都市,[],B001C7VRD8,[],"103.991824,30.604695",中国建设银行(成都簇桥支行),[],[],四川省,[],[],2,028-85012839;028-95533,金融保险服务;银行;中国建设银行,160106
大丰花都大道789号10幢西侧1层,新都区,[],[],[],成都市,[],B001C7YJ0M,[],"104.060100,30.760409",中国银行(大丰支行),[],[],四川省,[],[],2,028-61621221;95566,金融保险服务;银行;中国银行,160104
梨花街5号附2号,锦江区,[],[],[],成都市,[],B001C7XD81,[],"104.069484,30.654483",成都银行(盐市口支行),[],[],四川省,[],[],2,028-86719475;028-86673506,金融保险服务;银行;银行,160100
蜀汉路216号附1-3号,金牛区,[],[],[],成都市,[],B001C80QU9,[],"104.023994,30.685937",交通银行(成都蜀汉路支行),[],[],四川省,[],[],2,028-87527987;028-87548010,金融保险服务;银行;交通银行,160108
天府大道天韵路186号高新国际广场E座1层,武侯区,[],[],[],成都市,[],B001C80IUA,[],"104.065590,30.591639",交通银行(高新南区支行),[],[],四川省,[],[],2,028-85316887,金融保险服务;银行;银行,160100
芳草街道紫杉路2号,武侯区,[],[],[],成都市,[],B001C8MSC3,[],"104.050693,30.614335",成都农商银行(紫荆南路分理处),[],[],四川省,[],[],2,028-85184812,金融保险服务;银行;农村商业银行,160121
益州大道177号中海国际中心A座,武侯区,[],[],202,成都市,[],B001C8R7Z8,[],"104.059321,30.581656",中国银行(益州支行),B0FFF9VK7R,[],四川省,[],[],2,028-85239036;028-85233975;95566,金融保险服务;银行;中国银行,160104
一环路南一段24号四川大学行政楼,武侯区,[],[],[],成都市,[],B001C7Y9ML,[],"104.079199,30.632655",中国工商银行(四川大学支行),[],[],四川省,[],[],2,028-85400673;028-85400285,金融保险服务;银行;中国工商银行,160105
北泉路409号附2号,龙泉驿区,[],[],[],成都市,[],B001C8NPFQ,[],"104.248887,30.568336",中国工商银行(驿泉路支行),[],[],四川省,[],[],2,028-84872873;028-84872516,金融保险服务;银行;中国工商银行,160105
龙腾西路一号,武侯区,[],[],[],成都市,[],B0FFIJ4B8V,[],"104.012635,30.651846",平安银行(成都双楠支行),[],[],四川省,[],[],2,028-69992219,金融保险服务;银行;平安银行,160117
光华村街44号附1号,青羊区,[],[],[],成都市,[],B001C08U24,[],"104.013920,30.663194",中国邮政储蓄银行(光华村支行),[],[],四川省,[],[],2,028-87086167;95580,金融保险服务;银行;中国邮政储蓄银行,160139
东明街155-161号,双流区,[],[],[],成都市,[],B001C80IXR,[],"103.927515,30.575556",成都农商银行(东明街分理处),[],[],四川省,[],[],2,028-85823931,金融保险服务;银行;农村商业银行,160121
天顺路116号,武侯区,[],[],[],成都市,[],B001C8MR1G,[],"104.071211,30.591155",招商银行(成都天顺路支行),[],[],四川省,[],[],2,028-85358599,金融保险服务;银行;招商银行,160109
东风路北一巷11号SOLO我的天地商住楼1层,成华区,[],[],[],成都市,[],B001C0AGOO,[],"104.093294,30.651561",中国民生银行(成都东风支行),[],[],四川省,[],[],2,028-84466931;95568,金融保险服务;银行;中国民生银行,160112
顺城大街229号附1号,青羊区,[],[],[],成都市,[],B0FFHM36BM,[],"104.070446,30.662685",上海浦东发展银行(顺城支行),[],[],四川省,[],[],2,028-86627337;028-86627967;95528,金融保险服务;银行;上海浦东发展银行,160115
涌泉街道政通东路69号,温江区,[],[],202,成都市,[],B0FFG93WKL,[],"103.867079,30.679718",中国银行(政通东路支行),B001C8O7PM,[],四川省,[],[],2,028-82723613;95566,金融保险服务;银行;中国银行,160104
马超东路557号附1-3,新都区,[],[],[],成都市,[],B001C8R6R3,[],"104.187649,30.807117",中国农业银行(马超东路支行),[],[],四川省,[],[],2,028-83972074,金融保险服务;银行;中国农业银行,160107
香榭美邻1期A13-A14号,双流区,[],[],[],成都市,[],B001C80849,[],"103.915263,30.593235",成都农商银行(新城分理处),[],[],四川省,[],[],2,028-85735306,金融保险服务;银行;农村商业银行,160121
青龙街25号,青羊区,[],[],[],成都市,[],B001C7WQVV,[],"104.065123,30.669936",中国工商银行(成都青龙支行),[],[],四川省,[],[],2,028-86639040;028-95588;028-86631347,金融保险服务;银行;中国工商银行,160105
人民南路一段122-124号中铁名人大厦1、11层,青羊区,[],[],202,成都市,[],B001C7Y8BH,[],"104.065559,30.654474",哈尔滨银行(天府支行),B0FFG4LAZL,[],四川省,[],[],2,028-65333211;028-67690321,金融保险服务;银行;银行,160100
崇义桥南街152号,新都区,[],[],[],成都市,[],B001C0AGRW,[],"104.053959,30.759603",中国农业银行(新都大丰支行),[],[],四川省,[],[],2,028-63932034,金融保险服务;银行;中国农业银行,160107
滨江东路136号国际商务大厦B座1层,锦江区,[],[],202,成都市,[],B001C068UG,[],"104.082820,30.643729",中国农业银行(锦江支行),B001C8UA65,[],四川省,[],[],2,028-86651117;028-86659489,金融保险服务;银行;中国农业银行,160107
