address,adname,biz_ext,biz_type,childtype,cityname,distance,id,importance,location,name,parent,photos,pname,poiweight,shopid,shopinfo,tel,type,typecode
古镇街与灌温路交叉口南50米,温江区,[],[],[],成都市,[],B0FFF00DC4,[],"103.780571,30.774828",成都农商银行24小时自助银行(镇子分理处),[],[],四川省,[],[],2,[],金融保险服务;自动提款机;农村商业银行ATM,160318
太极大道221号,温江区,[],[],[],成都市,[],B0FFF005RR,[],"103.804987,30.641305",成都农商银行24小时自助银行(太极分理处),[],[],四川省,[],[],2,[],金融保险服务;自动提款机;农村商业银行ATM,160318
长龙街11号,双流区,[],[],[],成都市,[],B001C8VEZJ,[],"104.201245,30.431406",成都农商银行24小时自助银行(太平分理处),[],[],四川省,[],[],2,[],金融保险服务;自动提款机;农村商业银行ATM,160318
大源北二街5号,武侯区,[],[],3,成都市,[],B001C8ULQ4,[],"104.035051,30.555464",成都农商银行24小时自助银行(大源分理处),B001C8ULQM,[],四川省,[],[],2,[],金融保险服务;自动提款机;农村商业银行ATM,160318
大永路与郫花路交叉口东北100米,郫都区,[],[],[],成都市,[],B0FFKMTNY8,[],"103.757333,30.857126",成都农商银行24小时自助银行(郫都花园分理处),[],[],四川省,[],[],2,[],金融保险服务;自动提款机;农村商业银行ATM,160318
天府大道1-5,郫都区,[],[],3,成都市,[],B001C8R6ZC,[],"103.972951,30.758133",成都农商银行24小时自助银行(西区支行),B001C8ORGN,[],四川省,[],[],2,[],金融保险服务;自动提款机;农村商业银行ATM,160318
荆竹中路266号,成华区,[],[],[],成都市,[],B001C8OTB0,[],"104.105875,30.713657",成都农商银行24小时自助银行(白莲分理处),[],[],四川省,[],[],2,[],金融保险服务;自动提款机;农村商业银行ATM,160318
东大街下东大街段42-46,锦江区,[],[],3,成都市,[],B001C8OOKQ,[],"104.080689,30.651011",成都农商银行24小时自助银行(东大街支行),B001C8OPI4,[],四川省,[],[],2,[],金融保险服务;自动提款机;农村商业银行ATM,160318
青正街123号,都江堰市,[],[],3,成都市,[],B001C8OEFO,[],"103.593174,30.898945",成都农商银行24小时自助银行(青城分理处),B001C8OF5A,[],四川省,[],[],2,[],金融保险服务;自动提款机;农村商业银行ATM,160318
武侯大道铁佛段122号,武侯区,[],[],3,成都市,[],B001C8O9OU,[],"103.987872,30.612435",成都农商银行24小时自助银行(铁佛分理处),B001C8O98B,[],四川省,[],[],2,[],金融保险服务;自动提款机;农村商业银行ATM,160318
培风路80号17栋1-2-3,青羊区,[],[],202,成都市,[],B001C8O99C,[],"103.978395,30.664163",成都农商银行24小时自助银行(培风分理处),B0FFFPCQTU,[],四川省,[],[],2,[],金融保险服务;自动提款机;农村商业银行ATM,160318
九金街84附近,武侯区,[],[],3,成都市,[],B001C8O866,[],"103.971026,30.648171",成都农商银行24小时自助银行(永康分理处),B001C8O92N,[],四川省,[],[],2,[],金融保险服务;自动提款机;农村商业银行ATM,160318
凤凰街95-97,温江区,[],[],3,成都市,[],B001C8O2G4,[],"103.870480,30.670040",成都农商银行24小时自助银行(涌泉分理处),B001C7YLJH,[],四川省,[],[],2,[],金融保险服务;自动提款机;农村商业银行ATM,160318
二仙桥北二路4号附2号-4,成华区,[],[],3,成都市,[],B001C8NSD6,[],"104.130642,30.682494",成都农商银行24小时自助银行(三根香分理处),B001C8NOK0,[],四川省,[],[],2,[],金融保险服务;自动提款机;农村商业银行ATM,160318
交通路三段60号,双流区,[],[],3,成都市,[],B001C8N3MZ,[],"103.875377,30.582973",成都农商银行24小时自助银行(彭镇分理处),B001C8MLOZ,[],四川省,[],[],2,[],金融保险服务;自动提款机;农村商业银行ATM,160318
竹园大道39-41,新都区,[],[],3,成都市,[],B001C8MY0V,[],"104.066028,30.819611",成都农商银行24小时自助银行(斑竹园支行),B001C7SQDK,[],四川省,[],[],2,[],金融保险服务;自动提款机;农村商业银行ATM,160318
飞雪路59号,新津区,[],[],3,成都市,[],B001C8MSMC,[],"103.845993,30.370520",成都农商银行24小时自助银行(双河分理处),B001C8N3UY,[],四川省,[],[],2,[],金融保险服务;自动提款机;农村商业银行ATM,160318
黄甲大道一段185,双流区,[],[],3,成都市,[],B001C8MRA9,[],"103.966433,30.534785",成都农商银行24小时自助银行(双华分理处),B001C09S5Q,[],四川省,[],[],2,[],金融保险服务;自动提款机;农村商业银行ATM,160318
新园大道24号附101-102,武侯区,[],[],3,成都市,[],B001C8MR3K,[],"104.035712,30.585173",成都农商银行24小时自助银行(新南支行),B001C7VRRN,[],四川省,[],[],2,[],金融保险服务;自动提款机;农村商业银行ATM,160318
白衣上街附近,双流区,[],[],3,成都市,[],B001C8MMNN,[],"103.914763,30.606111",成都农商银行24小时自助银行(蛟龙分理处),B001C8N5PK,[],四川省,[],[],2,[],金融保险服务;自动提款机;农村商业银行ATM,160318
同兴街188号,新都区,[],[],3,成都市,[],B001C8MIGH,[],"104.211026,30.737230",成都农商银行24小时自助银行(木兰分理处),B001C060Q2,[],四川省,[],[],2,[],金融保险服务;自动提款机;农村商业银行ATM,160318
草金路651号,武侯区,[],[],3,成都市,[],B001C8MH5B,[],"103.957473,30.637781",成都农商银行24小时自助银行(陆坝分理处),B001C8O8DU,[],四川省,[],[],2,[],金融保险服务;自动提款机;农村商业银行ATM,160318
东升镇街道办事处龙桥社区,双流区,[],[],3,成都市,[],B001C8MGFT,[],"103.951431,30.593177",成都农商银行24小时自助银行(龙腾分理处),B001C8084A,[],四川省,[],[],2,[],金融保险服务;自动提款机;农村商业银行ATM,160318
犀安路999号西南交通大学犀浦校区,郫都区,[],[],3,成都市,[],B001C8MEJX,[],"103.977440,30.767761",成都农商银行24小时自助银行(交大分理处),B001C8MEJW,[],四川省,[],[],2,[],金融保险服务;自动提款机;农村商业银行ATM,160318
北大街398-406,郫都区,[],[],3,成都市,[],B001C80T60,[],"103.893184,30.813491",成都农商银行24小时自助银行(红星分理处),B001C0AJZK,[],四川省,[],[],2,[],金融保险服务;自动提款机;农村商业银行ATM,160318
永盛路与红牌楼二街交叉口西50米,武侯区,[],[],[],成都市,[],B0FFFAC4AA,[],"104.022342,30.632569",成都农商银行24小时自助银行(红牌楼分理处),[],[],四川省,[],[],2,[],金融保险服务;自动提款机;农村商业银行ATM,160318
正东中街127-131,双流区,[],[],3,成都市,[],B001C8OBFJ,[],"104.061844,30.502046",成都农商银行24小时自助银行(华阳南阳分理处),B001C8OBWF,[],四川省,[],[],2,[],金融保险服务;自动提款机;农村商业银行ATM,160318
泰安街12-16号,成华区,[],[],3,成都市,[],B001C80IPW,[],"104.093634,30.681506",成都农商银行24小时自助银行(府青路分理处),B001C80IXF,[],四川省,[],[],2,[],金融保险服务;自动提款机;农村商业银行ATM,160318
桃蹊路76-78号,成华区,[],[],3,成都市,[],B001C80FWO,[],"104.108478,30.681569",成都农商银行24小时自助银行(桃蹊分理处),B001C80IQ7,[],四川省,[],[],2,[],金融保险服务;自动提款机;农村商业银行ATM,160318
广都大道176-178号,双流区,[],[],3,成都市,[],B001C808PV,[],"103.924931,30.560395",成都农商银行24小时自助银行(广都分理处),B001C80IY7,[],四川省,[],[],2,[],金融保险服务;自动提款机;农村商业银行ATM,160318
东环路76-82号,新都区,[],[],3,成都市,[],B001C7ZYA8,[],"104.166348,30.828446",成都农商银行24小时自助银行(桂湖分理处),B001C7VRQ4,[],四川省,[],[],2,[],金融保险服务;自动提款机;农村商业银行ATM,160318
都江堰大道134号附1号,都江堰市,[],[],3,成都市,[],B001C7ZWOK,[],"103.639264,30.989255",成都农商银行24小时自助银行(幸福分理处),B001C7ZWOJ,[],四川省,[],[],2,[],金融保险服务;自动提款机;农村商业银行ATM,160318
双荆路308号,成华区,[],[],202,成都市,[],B001C7WDXZ,[],"104.082237,30.711048",成都农商银行24小时自助银行(百盛大厦支行),B001C8NRB3,[],四川省,[],[],2,[],金融保险服务;自动提款机;农村商业银行ATM,160318
清渔街30号附6-9号,新都区,[],[],3,成都市,[],B001C7U1Q3,[],"104.036264,30.936603",成都农商银行24小时自助银行(清流分理处),B001C7U1Q2,[],四川省,[],[],2,[],金融保险服务;自动提款机;农村商业银行ATM,160318
东街276-282号,新都区,[],[],3,成都市,[],B001C0A513,[],"104.161726,30.826975",成都农商银行24小时自助银行(香城分理处),B001C01FA8,[],四川省,[],[],2,[],金融保险服务;自动提款机;农村商业银行ATM,160318
石木路与荷塘路交叉口北200米,新都区,[],[],[],成都市,[],B0FFGBIMZE,[],"104.201008,30.736148",成都农商银行24小时自助银行(石木路分理处),[],[],四川省,[],[],2,[],金融保险服务;自动提款机;农村商业银行ATM,160318
三元正街与人和巷交叉口北50米,郫都区,[],[],[],成都市,[],B0FFH95GJ2,[],"103.795842,30.823268",成都农商银行24小时自助银行(友爱支行)(装修中),[],[],四川省,[],[],2,[],金融保险服务;自动提款机;农村商业银行ATM,160318
龙虎大道2015号龙虎商业广场,新都区,[],[],[],成都市,[],B0FFGL2OSJ,[],"104.226622,30.837092",成都农商银行24小时自助银行(龙虎分理处),[],[],四川省,[],[],2,[],金融保险服务;自动提款机;农村商业银行ATM,160318
新都镇马超东路518号,新都区,[],[],3,成都市,[],B001C8NZLK,[],"104.191159,30.807160",成都农商银行24小时自助银行(汉嘉分理处),B001C8O3QT,[],四川省,[],[],2,[],金融保险服务;自动提款机;农村商业银行ATM,160318
晋新路,大邑县,[],[],[],成都市,[],B0HBTY39IP,[],"103.460335,30.557295",成都农商银行24小时自助银行,[],[],四川省,[],[],2,[],金融保险服务;自动提款机;农村商业银行ATM,160318
龙平路163号附近,龙泉驿区,[],[],[],成都市,[],B0GU1LY9UV,[],"104.264641,30.563379",成都农商银行24小时自助银行,[],[],四川省,[],[],2,[],金融保险服务;自动提款机;农村商业银行ATM,160318
合欢树街309-313号,锦江区,[],[],[],成都市,[],B0FFGDDCTI,[],"104.135817,30.606944",成都农商银行24小时自助银行(航天立交分理处),[],[],四川省,[],[],2,[],金融保险服务;自动提款机;农村商业银行ATM,160318
[],崇州市,[],[],[],成都市,[],B0G2XCMAV7,[],"103.779369,30.588381",成都农商银行24小时自助银行,[],[],四川省,[],[],2,[],金融保险服务;自动提款机;农村商业银行ATM,160318
[],郫都区,[],[],[],成都市,[],B0G2H7OUFV,[],"103.794073,30.939083",成都农商银行24小时自助银行,[],[],四川省,[],[],2,[],金融保险服务;自动提款机;农村商业银行ATM,160318
[],金牛区,[],[],[],成都市,[],B0G2CA88KD,[],"104.097310,30.762691",成都农商银行24小时自助银行,[],[],四川省,[],[],2,[],金融保险服务;自动提款机;农村商业银行ATM,160318
岷江路70附近,都江堰市,[],[],[],成都市,[],B0G257VXXF,[],"103.645554,30.983785",成都农商银行24小时自助银行,[],[],四川省,[],[],2,[],金融保险服务;自动提款机;农村商业银行ATM,160318
迎祥街,都江堰市,[],[],[],成都市,[],B0G24BDMO0,[],"103.689331,30.897077",成都农商银行24小时自助银行,[],[],四川省,[],[],2,[],金融保险服务;自动提款机;农村商业银行ATM,160318
[],邛崃市,[],[],[],成都市,[],B0G0K9VIU5,[],"103.324880,30.307748",成都农商银行24小时自助银行,[],[],四川省,[],[],2,[],金融保险服务;自动提款机;农村商业银行ATM,160318
梧桐街,崇州市,[],[],[],成都市,[],B0FFM894FC,[],"103.688984,30.578690",成都农商银行24小时自助银行,[],[],四川省,[],[],2,[],金融保险服务;自动提款机;农村商业银行ATM,160318
中环路金府路段与长青横街交叉路口往西约150米,金牛区,[],[],[],成都市,[],B0FFLDTHWH,[],"104.038006,30.714094",成都农商银行24小时自助银行,[],[],四川省,[],[],2,[],金融保险服务;自动提款机;农村商业银行ATM,160318
