address,adname,biz_ext,biz_type,childtype,cityname,distance,id,importance,location,name,parent,photos,pname,poiweight,shopid,shopinfo,tel,type,typecode
华阳镇华阳大道一段82号,双流区,[],[],[],成都市,[],B001C8OBTF,[],"104.044322,30.511259",成都农商银行(华兴街分理处),[],[],四川省,[],[],2,028-85621446,金融保险服务;银行;农村商业银行,160121
星辉西路6号,金牛区,[],[],[],成都市,[],B001C7UAN5,[],"104.076721,30.677802",成都农商银行(城隍庙分理处),[],[],四川省,[],[],2,028-83229034,金融保险服务;银行;农村商业银行,160121
泰北街220-224号,新都区,[],[],[],成都市,[],B0FFF6RDSE,[],"104.232055,30.786826",成都农商银行(新都太兴支行),[],[],四川省,[],[],2,028-83986996;028-83986125,金融保险服务;银行;农村商业银行,160121
双怀路130号,崇州市,[],[],[],成都市,[],B001C8PLXN,[],"103.731277,30.580516",成都农商银行(崇州大划支行),[],[],四川省,[],[],2,028-82247561,金融保险服务;银行;农村商业银行,160121
银木街81号,锦江区,[],[],[],成都市,[],B0G304HSU8,[],"104.148730,30.591951",成都农商银行(高店子分理处),[],[],四川省,[],[],2,[],金融保险服务;银行;农村商业银行,160121
鼓浪屿路205,彭州市,[],[],[],成都市,[],B0FFJ7QUV5,[],"103.830421,31.161862",成都农商银行(彭州通济支行),[],[],四川省,[],[],2,028-83845266,金融保险服务;银行;农村商业银行,160121
华金大道二段521-525号附1,青白江区,[],[],[],成都市,[],B001C0675O,[],"104.251971,30.884276",成都农商银行(青白江支行),[],[],四川省,[],[],2,028-83691533;028-83661253,金融保险服务;银行;农村商业银行,160121
华金大道三段159号农科大厦1层,青白江区,[],[],202,成都市,[],B001C8O3HN,[],"104.281322,30.879179",成都农商银行(大同支行),B0FFFWWH9U,[],四川省,[],[],2,028-83625536,金融保险服务;银行;农村商业银行,160121
正北下街154-178号,双流区,[],[],[],成都市,[],B001C8OBDY,[],"104.066328,30.516393",成都农商银行(天府新区支行),[],[],四川省,[],[],2,028-81508032,金融保险服务;银行;农村商业银行,160121
辰居路338号,崇州市,[],[],[],成都市,[],B001C05WY7,[],"103.676360,30.639825",成都农商银行(崇州支行辰居路分理处),[],[],四川省,[],[],2,028-82216256,金融保险服务;银行;农村商业银行,160121
临邛镇凤凰大道616号鼎盛时代广场6楼,邛崃市,[],[],[],成都市,[],B0FFIOY1A6,[],"103.463760,30.400304",成都农商银行(邛崃支行),[],[],四川省,[],[],2,[],金融保险服务;银行;农村商业银行,160121
林荫街5号附6号华西大厦1层,武侯区,[],[],202,成都市,[],B001C80RR4,[],"104.068031,30.637212",成都农商银行(桂溪支行),B001C06TAT,[],四川省,[],[],2,028-85436166,金融保险服务;银行;农村商业银行,160121
永安镇太平街24号,双流区,[],[],[],成都市,[],B001C063CP,[],"103.986519,30.408117",成都农商银行(永安支行),[],[],四川省,[],[],2,028-85681176;028-85682096,金融保险服务;银行;农村商业银行,160121
北大街148-156号,彭州市,[],[],[],成都市,[],B001C0252C,[],"103.942409,30.987257",成都农商银行(天彭支行),[],[],四川省,[],[],2,028-83873164,金融保险服务;银行;农村商业银行,160121
万安路西段195-207,双流区,[],[],[],成都市,[],B0FFFACFJ9,[],"104.106075,30.486843",成都农商银行(万安支行),[],[],四川省,[],[],2,028-85748074,金融保险服务;银行;农村商业银行,160121
火神庙路65号附34-37,成华区,[],[],[],成都市,[],B0FFF006Y3,[],"104.171259,30.706229",成都农商银行(龙潭支行),[],[],四川省,[],[],2,028-84204226,金融保险服务;银行;农村商业银行,160121
五津东路243、249,新津区,[],[],[],成都市,[],B001C8O4RO,[],"103.814656,30.414779",成都农商银行(新津支行),[],[],四川省,[],[],2,028-82523487,金融保险服务;银行;农村商业银行,160121
羊安镇九龙大道111号,邛崃市,[],[],[],成都市,[],B001C8MTW7,[],"103.702183,30.396667",成都农商银行(羊安支行),[],[],四川省,[],[],2,028-88751077,金融保险服务;银行;农村商业银行,160121
双荆路308号,成华区,[],[],[],成都市,[],B001C7WDXY,[],"104.082137,30.711122",成都农商银行(园艺支行),[],[],四川省,[],[],2,028-83145887,金融保险服务;银行;农村商业银行,160121
驭虹路31附1-2,蒲江县,[],[],[],成都市,[],B001C7V5O1,[],"103.512428,30.196935",成都农商银行(鹤山支行),[],[],四川省,[],[],2,028-88534871,金融保险服务;银行;农村商业银行,160121
聚兴路61(交通委员会行政执法总队九大队西北),都江堰市,[],[],[],成都市,[],B001C060MU,[],"103.682181,30.945682",成都农商银行(聚源支行),[],[],四川省,[],[],2,028-87261405,金融保险服务;银行;农村商业银行,160121
永康西路227-231号,崇州市,[],[],[],成都市,[],B001C02F1B,[],"103.672405,30.621713",成都农商银行(永康路分理处),[],[],四川省,[],[],2,028-82279612,金融保险服务;银行;农村商业银行,160121
鹤兴路367-371号,崇州市,[],[],[],成都市,[],B0FFG9ZZOH,[],"103.748619,30.660847",成都农商银行(羊马分理处),[],[],四川省,[],[],2,028-82252149,金融保险服务;银行;农村商业银行,160121
安民街76-80,郫都区,[],[],[],成都市,[],B001C8S8BI,[],"103.896069,30.798184",成都农商银行(望丛分理处),[],[],四川省,[],[],2,[],金融保险服务;银行;农村商业银行,160121
青城路77号,都江堰市,[],[],[],成都市,[],B001C8OJRP,[],"103.631289,30.983301",成都农商银行(灌口分理处),[],[],四川省,[],[],2,028-87200960,金融保险服务;银行;农村商业银行|金融保险服务;银行相关;银行相关,160121|160200
白果街道莲花街124号,金堂县,[],[],[],成都市,[],B001C8OFGN,[],"104.543278,30.666983",成都农商银行(白果分理处),[],[],四川省,[],[],2,028-84025657,金融保险服务;银行;农村商业银行,160121
府青路76-78号,崇州市,[],[],[],成都市,[],B001C7YK92,[],"103.628545,30.578549",成都农商银行(隆兴分理处),[],[],四川省,[],[],2,028-82221109,金融保险服务;银行;农村商业银行,160121
太平横街91-95号,大邑县,[],[],[],成都市,[],B001C8UB3N,[],"103.425983,30.533572",成都农商银行(大邑新场支行),[],[],四川省,[],[],2,028-88353119,金融保险服务;银行;农村商业银行,160121
安仁镇金井社区五组,大邑县,[],[],[],成都市,[],B001C8MRNN,[],"103.605526,30.515017",成都农商银行(大邑安仁支行),[],[],四川省,[],[],2,028-88315333,金融保险服务;银行;农村商业银行,160121
昭觉寺横路20号附1-2,成华区,[],[],[],成都市,[],B001C80DK7,[],"104.102093,30.702897",成都农商银行(青龙支行营业部),[],[],四川省,[],[],2,028-83506677;028-83516818,金融保险服务;银行;农村商业银行,160121
煎茶街道柳溪路一段13号,双流区,[],[],[],成都市,[],B001C7YKBV,[],"104.052104,30.374470",成都农商银行(煎茶分理处),[],[],四川省,[],[],2,028-85699011,金融保险服务;银行;农村商业银行,160121
新兴街道正街和四维街的交叉口附近,双流区,[],[],[],成都市,[],B001C8OFT3,[],"104.148353,30.527862",成都农商银行(新兴支行),[],[],四川省,[],[],2,028-85600063,金融保险服务;银行;农村商业银行,160121
西河街道白鹤东路66号,龙泉驿区,[],[],[],成都市,[],B001C8MNAK,[],"104.228810,30.655550",成都农商银行(龙泉驿西河支行),[],[],四川省,[],[],2,028-84891111;028-84821266,金融保险服务;银行;农村商业银行,160121
红光街道成灌路西段2-8号,郫都区,[],[],[],成都市,[],B001C0AJZK,[],"103.893174,30.813436",成都农商银行(西区红光支行),[],[],四川省,[],[],2,028-87985348;028-87866861,金融保险服务;银行;农村商业银行,160121
柏合街道龙工南路888号附3号,龙泉驿区,[],[],[],成都市,[],B001C8NVS5,[],"104.254553,30.544559",成都农商银行(龙泉支行),[],[],四川省,[],[],2,028-88432938,金融保险服务;银行;农村商业银行,160121
火井镇康庄路134号,邛崃市,[],[],[],成都市,[],B001C0132D,[],"103.237849,30.381814",成都农商银行(火井支行),[],[],四川省,[],[],2,028-88731301;028-88731297,金融保险服务;银行;农村商业银行,160121
华新路536号,温江区,[],[],[],成都市,[],B0FFKHK3NA,[],"103.883977,30.680090",成都农商银行(文化路分理处),[],[],四川省,[],[],2,028-82650344,金融保险服务;银行;农村商业银行,160121
方元路60、62号,新都区,[],[],[],成都市,[],B001C8MG6Z,[],"104.063754,30.761296",成都农商银行(新都大丰支行),[],[],四川省,[],[],2,028-83911401,金融保险服务;银行;农村商业银行,160121
簇锦南路3号,武侯区,[],[],[],成都市,[],B001C80IQA,[],"103.996383,30.599591",成都农商银行(兴达分理处),[],[],四川省,[],[],2,028-85010443,金融保险服务;银行;农村商业银行,160121
上阳街454号-458号,都江堰市,[],[],[],成都市,[],B001C80I0T,[],"103.664932,31.023040",成都农商银行(蒲阳开发区支行),[],[],四川省,[],[],2,028-87234659,金融保险服务;银行;农村商业银行,160121
繁清路95-105号,新都区,[],[],[],成都市,[],B001C7TAFQ,[],"104.012274,30.873962",成都农商银行(新都新繁支行),[],[],四川省,[],[],2,028-83080154;028-83080405,金融保险服务;银行;农村商业银行,160121
协和大道东50米,彭州市,[],[],[],成都市,[],B0FFFAD7ZK,[],"103.945677,30.945255",成都农商银行(彭州南部新城分理处),[],[],四川省,[],[],2,028-83707324,金融保险服务;银行;农村商业银行,160121
重庆路高桥B2,都江堰市,[],[],[],成都市,[],B001C8NT2B,[],"103.657965,31.003916",成都农商银行(都江堰上游分理处),[],[],四川省,[],[],2,028-87201383,金融保险服务;银行;农村商业银行,160121
斑竹园街道柏水村5社成都海宁皮革城内北京路63号,新都区,[],[],[],成都市,[],B001C7U4FS,[],"104.093851,30.818121",成都农商银行(新都柏水分理处),[],[],四川省,[],[],2,028-83028312,金融保险服务;银行;农村商业银行,160121
玉沿街35附1,都江堰市,[],[],[],成都市,[],B001C7YJQ4,[],"103.708265,30.790525",成都农商银行(都江堰沿江分理处),[],[],四川省,[],[],2,028-87216172,金融保险服务;银行;农村商业银行,160121
天府街中段351-359号,温江区,[],[],[],成都市,[],B0FFKRTEY2,[],"103.796609,30.687604",成都农商银行(台商分理处),[],[],四川省,[],[],2,028-82630621,金融保险服务;银行;农村商业银行,160121
玉扬路312号怡和新城F2区,龙泉驿区,[],[],[],成都市,[],B0FFIMETDH,[],"104.261455,30.573969",成都农商银行(怡和新城分理处),[],[],四川省,[],[],2,028-84890226,金融保险服务;银行;农村商业银行,160121
沙湾路188,金牛区,[],[],[],成都市,[],B0FFFSECQZ,[],"104.051051,30.687840",成都农商银行(沙湾分理处),[],[],四川省,[],[],2,028-87640572,金融保险服务;银行;农村商业银行,160121
餍硕路5,彭州市,[],[],[],成都市,[],B0FFFACLN4,[],"104.118991,30.940997",成都农商银行(彭州三邑分理处),[],[],四川省,[],[],2,028-83773178,金融保险服务;银行;农村商业银行,160121
银河路1号6栋附130、131、132,龙泉驿区,[],[],[],成都市,[],B001C8ORGS,[],"104.180020,30.569210",成都农商银行(龙泉驿大面支行),[],[],四川省,[],[],2,028-84640118,金融保险服务;银行;农村商业银行,160121
