address,adname,biz_ext,biz_type,childtype,cityname,distance,id,importance,location,name,parent,photos,pname,poiweight,shopid,shopinfo,tel,type,typecode
金丰路6号量力钢铁国际交易大厦C座,金牛区,[],[],202,成都市,[],B001C90MZ8,[],"104.048747,30.727489",成都银行(量力支行),B001C8YATL,[],四川省,[],[],2,028-83130827;028-83130817,金融保险服务;银行;银行,160100
抚琴西路200号,金牛区,[],[],[],成都市,[],B001C8O5L2,[],"104.035007,30.678938",成都银行(抚琴支行),[],[],四川省,[],[],2,028-87712162;028-87788211,金融保险服务;银行;银行,160100
鞋都南路139号鞋都酒店1层01号(近川藏路成双段),武侯区,[],[],[],成都市,[],B001C8MI47,[],"103.984449,30.599213",成都银行(金花支行),[],[],四川省,[],[],2,028-61673105;028-61673091,金融保险服务;银行;银行,160100
犀浦街道国宁西路56号,郫都区,[],[],[],成都市,[],B001C80NZD,[],"103.972047,30.758684",成都银行(犀浦支行),[],[],四川省,[],[],2,028-87851281;028-87851510,金融保险服务;银行;银行,160100
清江西路74华府金沙商业裙房1号楼1层,青羊区,[],[],202,成都市,[],B001C80FBS,[],"104.002547,30.675198",成都银行(金沙支行),B001C8UJQ1,[],四川省,[],[],2,028-61962312;028-87353830,金融保险服务;银行;银行,160100
马超西路金荷大厦1单元1层,新都区,[],[],202,成都市,[],B001C7ZY2F,[],"104.165752,30.812548",成都银行(新都支行),B001C7XQSY,[],四川省,[],[],2,028-83969970,金融保险服务;银行;银行,160100
大石西路235号,武侯区,[],[],[],成都市,[],B001C02EBE,[],"104.026433,30.650701",成都银行(双楠支行),[],[],四川省,[],[],2,028-87047310,金融保险服务;银行;银行,160100
人民中路三段2号附1-3,青羊区,[],[],[],成都市,[],B001C02EB3,[],"104.067794,30.672937",成都银行(华兴支行),[],[],四川省,[],[],2,028-86267691;028-86243459;4006896511,金融保险服务;银行;银行,160100
学海路563-565号,温江区,[],[],[],成都市,[],B0FFKFWPLH,[],"103.815369,30.677109",成都银行(海科名城社区支行),[],[],四川省,[],[],2,028-86256012,金融保险服务;银行;银行,160100
盛大国际(全季酒店附近),金牛区,[],[],202,成都市,[],B0FFG3XWWT,[],"103.989898,30.715295",成都银行(西延线支行),B001C8R83D,[],四川省,[],[],2,028-81432829;028-81432381,金融保险服务;银行;银行,160100
金光路七一国际广场1层,新都区,[],[],[],成都市,[],B0GRC5BQUH,[],"104.174018,30.821316",成都银行(金光路支行),[],[],四川省,[],[],2,028-61477955,金融保险服务;银行;银行,160100
兴隆镇湖畔路西段天府菁蓉中心C区,双流区,[],[],202,成都市,[],B0FFLCZELN,[],"104.075834,30.394589",成都银行(天府新区分行),B0FFHZ7TK3,[],四川省,[],[],2,[],金融保险服务;银行;银行,160100
丽都路684号,武侯区,[],[],[],成都市,[],B0FFIW7ZZP,[],"104.029724,30.620238",成都银行(丽都路支行),[],[],四川省,[],[],2,028-85074788;4006896511,金融保险服务;银行;银行,160100
椿树街742号、744号、746号、748号,锦江区,[],[],[],成都市,[],B0GU49W990,[],"104.154264,30.601255",成都银行(椿树街支行),[],[],四川省,[],[],2,028-86055881;028-86055880,金融保险服务;银行;银行,160100
战旗东路2号,青羊区,[],[],[],成都市,[],B001C02EC9,[],"104.021405,30.674198",成都银行(战旗支行),[],[],四川省,[],[],2,028-87334475;028-87322122,金融保险服务;银行;银行,160100
锦绣路1号保利中心1栋11-19号,武侯区,[],[],202,成都市,[],B001C8RHIT,[],"104.072045,30.624722",成都银行(锦城文创支行),B0FFGB4F3L,[],四川省,[],[],2,028-85210891;028-85240501,金融保险服务;银行;银行,160100
高升桥东路15号附2-4号,武侯区,[],[],[],成都市,[],B001C7WH9D,[],"104.042372,30.635031",成都银行(高升桥支行),[],[],四川省,[],[],2,028-85193701;4006896511,金融保险服务;银行;银行,160100
三友路210号1层营业房,金牛区,[],[],[],成都市,[],B001C80IRP,[],"104.091872,30.684533",成都银行(李家沱支行),[],[],四川省,[],[],2,028-83355268,金融保险服务;银行;银行,160100
天顺路4-8,武侯区,[],[],[],成都市,[],B001C80884,[],"104.071174,30.589373",成都银行(高新支行),[],[],四川省,[],[],2,028-85359403,金融保险服务;银行;银行,160100
天彭镇朝阳中路460号(一品蓉和旁),彭州市,[],[],[],成都市,[],B001C8NT92,[],"103.951065,30.992287",成都银行(牡丹新城支行),[],[],四川省,[],[],2,028-86231672;028-86231157,金融保险服务;银行;银行,160100
天佑路与天龙南三路交叉口西南50米,金牛区,[],[],[],成都市,[],B0FFK2UQWB,[],"104.097372,30.767895",成都银行(天回镇支行),[],[],四川省,[],[],2,[],金融保险服务;银行;银行,160100
红阳路35、37、39、41号,青白江区,[],[],[],成都市,[],B0FFFEFAJG,[],"104.248385,30.884337",成都银行(青白江支行),[],[],四川省,[],[],2,028-83680025;028-83680026,金融保险服务;银行;银行,160100
龙舟路60号之附17-20号,锦江区,[],[],[],成都市,[],B001C7UPEY,[],"104.098761,30.627306",成都银行(龙舟路支行),[],[],四川省,[],[],2,028-84510127,金融保险服务;银行;银行,160100
瑞联路3号附5号,青羊区,[],[],[],成都市,[],B001C7UCNJ,[],"104.006562,30.665066",成都银行(优品道支行),[],[],四川省,[],[],2,028-81706149,金融保险服务;银行;银行,160100
金阳路81-83号,青羊区,[],[],[],成都市,[],B001C7UBXF,[],"104.005119,30.679386",成都银行(金阳路支行),[],[],四川省,[],[],2,028-81711050,金融保险服务;银行;银行,160100
东壕沟南段61-67号,大邑县,[],[],[],成都市,[],B001C02EAF,[],"103.524586,30.585230",成都银行(大邑县支行),[],[],四川省,[],[],2,028-88293394;028-88380885,金融保险服务;银行;银行,160100
江汉路230号,青羊区,[],[],[],成都市,[],B001C01F68,[],"104.062017,30.675195",成都银行(青羊支行),[],[],四川省,[],[],2,028-86273237,金融保险服务;银行;银行,160100
书院西街1号亚太大厦,锦江区,[],[],202,成都市,[],B001C02EB6,[],"104.084549,30.657326",成都银行(锦江支行),B001C0507D,[],四川省,[],[],2,028-86655102;028-86754556;4006896511,金融保险服务;银行;银行,160100
玉双路2号1楼,成华区,[],[],[],成都市,[],B001C8MPHD,[],"104.098002,30.653832",成都银行(成华支行营业室),[],[],四川省,[],[],2,028-84336011,金融保险服务;银行;银行,160100
芳草东街76号附1-2,武侯区,[],[],[],成都市,[],B001C008B0,[],"104.054516,30.624885",成都银行(芳草支行),[],[],四川省,[],[],2,028-85171763;028-85160724,金融保险服务;银行;银行,160100
宏济新路62-64号,锦江区,[],[],[],成都市,[],B0FFHCT8MW,[],"104.093073,30.640904",成都银行(朝阳支行),[],[],四川省,[],[],2,028-84512805,金融保险服务;银行;银行,160100
天府四街66号,武侯区,[],[],[],成都市,[],B0FFIWAUC6,[],"104.066766,30.542734",成都银行(自贸区支行),[],[],四川省,[],[],2,028-62038385;028-62038382,金融保险服务;银行;银行,160100
武科东四路11号附1-3号,武侯区,[],[],[],成都市,[],B001C80TA1,[],"103.989411,30.635520",成都银行(武侯新城支行),[],[],四川省,[],[],2,028-85373230;4006896511,金融保险服务;银行;银行,160100
下莲池街3号附2-3号,锦江区,[],[],[],成都市,[],B001C02EBF,[],"104.078186,30.646988",成都银行(王家坝支行),[],[],四川省,[],[],2,028-86730956,金融保险服务;银行;银行,160100
荣华北路229号,武侯区,[],[],[],成都市,[],B0GDJM43BX,[],"104.044276,30.555420",成都银行(大源支行),[],[],四川省,[],[],2,[],金融保险服务;银行;银行,160100
锦江工业园三色路209号,锦江区,[],[],[],成都市,[],B001C7XMZP,[],"104.085358,30.590656",成都银行(锦江工业园支行),[],[],四川省,[],[],2,028-85925119,金融保险服务;银行;银行,160100
普兴镇新普路汇津物流园东北门附近,新津区,[],[],[],成都市,[],B0FFF00CCV,[],"103.901939,30.399616",成都银行(普兴支行),[],[],四川省,[],[],2,028-82491157,金融保险服务;银行;银行,160100
新光路1号,武侯区,[],[],[],成都市,[],B001C80RJ1,[],"104.057658,30.617527",成都银行(银都支行),[],[],四川省,[],[],2,028-85972571;028-85972572,金融保险服务;银行;银行,160100
凤祥大道766号,青白江区,[],[],[],成都市,[],B0GDL7KTTW,[],"104.268476,30.893127",成都银行(青白江凤祥大道支行)(暂停营业),[],[],四川省,[],[],2,[],金融保险服务;银行;银行,160100
建设路83号,都江堰市,[],[],[],成都市,[],B001C7VG97,[],"103.623903,30.996997",成都银行(都江堰支行),[],[],四川省,[],[],2,028-87144170;4006896511,金融保险服务;银行;银行,160100
佳宏北路74号,锦江区,[],[],[],成都市,[],B001C8OLRN,[],"104.129309,30.617804",成都银行(沙河堡支行),[],[],四川省,[],[],2,028-84781890,金融保险服务;银行;银行,160100
永盛南街2号,武侯区,[],[],[],成都市,[],B001C8VNB1,[],"104.025215,30.638345",成都银行(红牌楼支行),[],[],四川省,[],[],2,028-85082096;028-85062975,金融保险服务;银行;银行,160100
沙湾路268号附8号,金牛区,[],[],[],成都市,[],B0FFLPEB8M,[],"104.050265,30.690704",成都银行(金牛支行),[],[],四川省,[],[],2,028-87645780;028-87644256,金融保险服务;银行;银行,160100
黄苑街188-190号,金牛区,[],[],[],成都市,[],B0G2AA68IO,[],"104.010599,30.688180",成都银行(黄苑街支行),[],[],四川省,[],[],2,028-62103003,金融保险服务;银行;银行,160100
花圃路1,金牛区,[],[],202,成都市,[],B0FFKFXHCV,[],"104.080194,30.679420",成都银行(解放路支行),B0FFGYZVJZ,[],四川省,[],[],2,028-83334689,金融保险服务;银行;银行,160100
西安中路52-56号,金牛区,[],[],202,成都市,[],B0FFFH18SZ,[],"104.048438,30.667385",成都银行(城西支行),B001C06XYR,[],四川省,[],[],2,028-87746427,金融保险服务;银行;银行,160100
阳光街18号,金牛区,[],[],[],成都市,[],B001C90SN5,[],"103.980888,30.721613",成都银行(西区支行),[],[],四川省,[],[],2,028-87791306;028-87791203,金融保险服务;银行;银行,160100
机场南四路19号,双流区,[],[],[],成都市,[],B0FFF38L5G,[],"103.966054,30.568285",成都银行(机场支行),[],[],四川省,[],[],2,028-85703976;028-85206809,金融保险服务;银行;银行,160100
二仙桥东路48号,成华区,[],[],[],成都市,[],B0FFMDQK5R,[],"104.131671,30.674735",成都银行(二仙桥东路支行),[],[],四川省,[],[],2,028-83110438,金融保险服务;银行;银行,160100
天仙桥北路5号1层1号(东方广场附近),锦江区,[],[],[],成都市,[],B0FFF9VHZ3,[],"104.086267,30.651832",成都银行(天仙桥支行),[],[],四川省,[],[],2,028-86679963,金融保险服务;银行;银行,160100
