address,adname,biz_ext,biz_type,childtype,cityname,distance,id,importance,location,name,parent,photos,pname,poiweight,shopid,shopinfo,tel,type,typecode
肖家村二巷67-81号,金牛区,[],[],[],成都市,[],B0FFF2EIHC,[],"104.075805,30.688316",中信银行(成都人民北路支行),[],[],四川省,[],[],2,028-62563378;028-62563363,金融保险服务;银行;中信银行,160111
大石西路259号(清水河大桥旁),武侯区,[],[],[],成都市,[],B001C7WFQI,[],"104.023700,30.651300",中信银行(成都双楠支行),[],[],四川省,[],[],2,028-87018275;028-85958772,金融保险服务;银行;中信银行,160111
沙湾东二路1号智业世纪加州A座,金牛区,[],[],202,成都市,[],B001C80J9B,[],"104.051411,30.689668",中信银行(成都金牛支行),B001C8W9WT,[],四川省,[],[],2,028-87670385;028-87670571;95558,金融保险服务;银行;中信银行,160111
福锦路一段598-600号,武侯区,[],[],[],成都市,[],B0FFFYKF3Q,[],"103.988001,30.619035",中信银行(万兴路支行),[],[],四川省,[],[],2,95558,金融保险服务;银行;中信银行,160111
光华大道瑞联路52号天合凯旋城,青羊区,[],[],[],成都市,[],B001C7WR6T,[],"104.002851,30.665925",中信银行(成都光华支行),[],[],四川省,[],[],2,028-85251981;028-85259336,金融保险服务;银行;银行,160100
领事馆路7号附2号-附5号,武侯区,[],[],202,成都市,[],B001C8VJO5,[],"104.069729,30.624776",中信银行(成都领事馆路支行),B0FFGDWML8,[],四川省,[],[],2,028-69085886;028-69085899;95558,金融保险服务;银行;中信银行,160111
迎宾大道299号,金牛区,[],[],[],成都市,[],B001C93JF9,[],"104.008334,30.709673",中信银行(成都迎宾大道支行),[],[],四川省,[],[],2,028-87509753,金融保险服务;银行;中信银行,160111
二环路东二段8号附5-12号,成华区,[],[],[],成都市,[],B001C8MGC9,[],"104.110661,30.668737",中信银行(成都建设路支行),[],[],四川省,[],[],2,028-61303611;028-61303137,金融保险服务;银行;中信银行,160111
天府二街266号富润国际广场1层,武侯区,[],[],202,成都市,[],B0FFFOD93T,[],"104.061278,30.551754",中信银行(天府支行),B001C8R92A,[],四川省,[],[],2,028-83167872,金融保险服务;银行;中信银行,160111
人民南路四段47号附2号,武侯区,[],[],[],成都市,[],B001C7VS4K,[],"104.067680,30.614830",中信银行(成都锦绣支行),[],[],四川省,[],[],2,028-85357876;028-85258805,金融保险服务;银行;中信银行,160111
[],武侯区,[],[],202,成都市,[],B001C80JFV,[],"104.064453,30.574678",中信银行(成都分行营业部),B001C8TY33,[],四川省,[],[],2,028-65338885,金融保险服务;银行;中信银行,160111
世纪城路208号假日酒店成都世纪城西楼1层,武侯区,[],[],[],成都市,[],B001C8086B,[],"104.074058,30.557518",中信银行(世纪城支行),[],[],四川省,[],[],2,028-85330615;028-85330616,金融保险服务;银行;中信银行,160111
火车南站街道长华路72号(安德鲁森旁),武侯区,[],[],[],成都市,[],B0FFGIFAJ6,[],"104.083635,30.611979",中信银行(长华路社区银行),[],[],四川省,[],[],2,028-69857532;95558,金融保险服务;银行;中信银行,160111
龙都南路113号,龙泉驿区,[],[],[],成都市,[],B001C8NQ2W,[],"104.262176,30.567213",中信银行(经济技术开发区支行),[],[],四川省,[],[],2,028-88490526;028-84825668,金融保险服务;银行;中信银行,160111
双成三路与双福二路交叉口东南100米,成华区,[],[],[],成都市,[],B0FFGCET75,[],"104.119009,30.644000",中信银行(成华支行),[],[],四川省,[],[],2,028-62127027,金融保险服务;银行;中信银行,160111
马超东路559号附14,新都区,[],[],[],成都市,[],B001C8O1WV,[],"104.188938,30.806781",中信银行(成都新都支行),[],[],四川省,[],[],2,028-67366810;028-67366812;95558,金融保险服务;银行;中信银行,160111
天顺路特拉克斯国际广场B座1层(近高新孵化园),武侯区,[],[],[],成都市,[],B001C8MZP6,[],"104.070591,30.591828",中信银行(成都高新支行),[],[],四川省,[],[],2,028-61550886;028-61550868;95558,金融保险服务;银行;中信银行,160111
望丛中路736号,郫都区,[],[],[],成都市,[],B0FFI94JDR,[],"103.889448,30.799458",中信银行(成都郫都支行),[],[],四川省,[],[],2,028-68494020,金融保险服务;银行;中信银行,160111
紫荆北路3号附1号,武侯区,[],[],[],成都市,[],B001C7WHFW,[],"104.053165,30.618927",中信银行(成都紫荆支行),[],[],四川省,[],[],2,028-85175095;028-85178173,金融保险服务;银行;中信银行,160111
二环路东二段8号附5-12号,成华区,[],[],3,成都市,[],B001C8OME6,[],"104.110654,30.668752",中信银行24小时自助银行(建设路支行),B001C8MGC9,[],四川省,[],[],2,[],金融保险服务;自动提款机;中信银行ATM,160308
东城根上街95成都证券大厦1层,青羊区,[],[],[],成都市,[],B001C06CMT,[],"104.060364,30.662308",中信银行(成都东城根街支行),[],[],四川省,[],[],2,028-86253888;028-86269498,金融保险服务;银行;银行,160100
武成大街2号附3-5,锦江区,[],[],[],成都市,[],B001C0AHW8,[],"104.090820,30.658139",中信银行(成都武成支行),[],[],四川省,[],[],2,028-86787599;028-86789398,金融保险服务;银行;中信银行,160111
人民南路四段12号,武侯区,[],[],[],成都市,[],B0G0HZGRO8,[],"104.066214,30.628036",中信银行(成都人民南路支行),[],[],四川省,[],[],2,028-85450406;028-85455161,金融保险服务;银行;中信银行,160111
青华路59号附1-5号,青羊区,[],[],3,成都市,[],B001C7YPOD,[],"104.022518,30.661943",中信银行24小时自助银行(草堂支行),B001C7YLBV,[],四川省,[],[],2,[],金融保险服务;自动提款机;中信银行ATM,160308
顺城大街106-108号,锦江区,[],[],[],成都市,[],B001C7UO8V,[],"104.071318,30.660022",中信银行(银河王朝支行),[],[],四川省,[],[],2,028-86628106;028-86612518;95558,金融保险服务;银行;中信银行,160111
中环路武阳大道二段158号,武侯区,[],[],[],成都市,[],B0FFG8KWJQ,[],"104.016093,30.630535",中信银行(武阳大道支行),[],[],四川省,[],[],2,028-80585017;028-80585015,金融保险服务;银行;中信银行,160111
金阳路176号,青羊区,[],[],[],成都市,[],B0FFF5TBGL,[],"104.003634,30.680698",中信银行(成都金沙支行),[],[],四川省,[],[],2,028-62655386;028-62655396,金融保险服务;银行;中信银行,160111
菁蓉北二街215号附近,双流区,[],[],[],成都市,[],B0HG6CE7W5,[],"104.079575,30.403616",中信银行(成都自贸区支行),[],[],四川省,[],[],2,[],金融保险服务;银行;中信银行,160111
绿茵街11号2栋,金牛区,[],[],202,成都市,[],B001C8VXJ8,[],"103.977645,30.724110",中信银行(成都西区支行),B0FFLF71S4,[],四川省,[],[],2,028-69923690;028-69923680,金融保险服务;银行;中信银行,160111
华润路36号附25号,锦江区,[],[],[],成都市,[],B0FFFABLTI,[],"104.092059,30.610864",中信银行24小时自助银行(翡翠城五期南),[],[],四川省,[],[],2,[],金融保险服务;自动提款机;中信银行ATM,160308
青华路59号附1-5号,青羊区,[],[],[],成都市,[],B001C7YLBV,[],"104.022432,30.662003",中信银行(成都草堂支行),[],[],四川省,[],[],2,028-87321573;028-87321057;028-87322297,金融保险服务;银行;中信银行,160111
光华东二路与光华西二路交叉口西北50米,青羊区,[],[],[],成都市,[],B0FFGHFY0Y,[],"103.958264,30.674042",中信银行(成都成飞大道支行),[],[],四川省,[],[],2,028-62336291;95558,金融保险服务;银行;中信银行,160111
蜀汉路522号附2号,金牛区,[],[],[],成都市,[],B001C7WR6V,[],"104.014118,30.692364",中信银行(成都蜀汉支行),[],[],四川省,[],[],2,028-87537074;028-87520776;95558,金融保险服务;银行;中信银行,160111
高升桥东路1号,武侯区,[],[],202,成都市,[],B001C7VS4L,[],"104.044329,30.637905",中信银行(成都高升路支行),B001C04B3A,[],四川省,[],[],2,028-85196696;028-85151217,金融保险服务;银行;中信银行,160111
万象南路211号,武侯区,[],[],[],成都市,[],B0H60UJYWL,[],"104.049995,30.580202",中信银行(成都万象支行),[],[],四川省,[],[],2,[],金融保险服务;银行;中信银行,160111
玉林南街与倪家桥路交叉路口往南约50米,武侯区,[],[],[],成都市,[],B0GU3LLG6T,[],"104.062485,30.624122",中信银行,[],[],四川省,[],[],2,[],金融保险服务;银行;中信银行,160111
东升镇迎春路三段158号富豪时代1幢,双流区,[],[],202,成都市,[],B001C808DN,[],"103.918920,30.579636",中信银行(双流支行),B0FFGB3UNI,[],四川省,[],[],2,028-85734206,金融保险服务;银行;中信银行,160111
凤溪大道北段501-511号,温江区,[],[],[],成都市,[],B001C7U5JI,[],"103.829149,30.698146",中信银行(成都温江支行),[],[],四川省,[],[],2,028-82711259;028-61460061;95558,金融保险服务;银行;中信银行,160111
浆洗街8号之附1-2号,武侯区,[],[],3,成都市,[],B001C7WHOC,[],"104.057690,30.642551",中信银行24小时自助银行(浆洗街支行),B001C7WHOD,[],四川省,[],[],2,[],金融保险服务;自动提款机;中信银行ATM,160308
商场路与迎龙路交叉路口南侧(蛟龙工业港双流园区),双流区,[],[],[],成都市,[],B0G23B9NB7,[],"103.913158,30.603276",中信银行24小时自助银行(蛟龙政务中心西),[],[],四川省,[],[],2,[],金融保险服务;自动提款机;中信银行ATM,160308
浆洗街8号之附1-2号,武侯区,[],[],[],成都市,[],B001C7WHOD,[],"104.057763,30.642676",中信银行(成都浆洗街支行),[],[],四川省,[],[],2,028-85560027,金融保险服务;银行;中信银行,160111
火车南站街道长华路72号,武侯区,[],[],[],成都市,[],B0FFM8LW8F,[],"104.083554,30.611904",中信银行ATM,[],[],四川省,[],[],2,[],金融保险服务;自动提款机;中信银行ATM,160308
柳台大道东段555西南财经大学柳林校区,温江区,[],[],[],成都市,[],B0FFF36YUJ,[],"103.823762,30.681886",中信银行24小时自助银行(金强・大学城南),[],[],四川省,[],[],2,[],金融保险服务;自动提款机;中信银行ATM,160308
领事馆路7号附2号-附5号,武侯区,[],[],3,成都市,[],B001C92AWG,[],"104.070038,30.624811",中信银行24小时自助银行(领事馆路支行),B001C8VJO5,[],四川省,[],[],2,[],金融保险服务;自动提款机;中信银行ATM,160308
人民南路四段47号附2号,武侯区,[],[],[],成都市,[],B0FFF9VGBQ,[],"104.067559,30.614874",中信银行24小时自助银行(成都锦绣支行),[],[],四川省,[],[],2,[],金融保险服务;自动提款机;中信银行ATM,160308
东升路95号蜀源大厦1层,锦江区,[],[],202,成都市,[],B0FFFOG7OS,[],"104.077147,30.650431",中信银行(成都红星路支行),B001C0506F,[],四川省,[],[],2,028-85458376,金融保险服务;银行;中信银行,160111
一环路南四段15号附65号,武侯区,[],[],3,成都市,[],B001C05PFH,[],"104.044248,30.637885",中信银行24小时自助银行(成都高升桥支行),B001C7VS4L,[],四川省,[],[],2,[],金融保险服务;自动提款机;中信银行ATM,160308
佳灵路3号1栋1层、3层,武侯区,[],[],[],成都市,[],B001C80RLM,[],"104.029878,30.634421",中信银行(成都武侯支行),[],[],四川省,[],[],2,028-61817171;028-85050320,金融保险服务;银行;中信银行,160111
贝森南路39-45号,青羊区,[],[],[],成都市,[],B0HAXMME2I,[],"104.002814,30.665874",中信银行24小时自助银行服务(光华支行),[],[],四川省,[],[],2,[],金融保险服务;自动提款机;中信银行ATM,160308
电视塔路三段32号,双流区,[],[],[],成都市,[],B0HA2APXOZ,[],"103.912999,30.566515",中信银行(ATM),[],[],四川省,[],[],2,[],金融保险服务;自动提款机;中信银行ATM,160308
