address,adname,biz_ext,biz_type,childtype,cityname,distance,id,importance,location,name,parent,photos,pname,poiweight,shopid,shopinfo,tel,type,typecode
湖滨路268号,新都区,[],[],[],成都市,[],B001C92AE7,[],"104.159072,30.817700",中国工商银行24小时自助银行(湖滨路),[],[],四川省,[],[],2,[],金融保险服务;自动提款机;中国工商银行ATM,160302
黄田坝高坎村三组310号,青羊区,[],[],[],成都市,[],B0FFGSRK37,[],"103.950105,30.707951",中国工商银行自助银行(成都草市川大华西卫校),[],[],四川省,[],[],2,[],金融保险服务;自动提款机;中国工商银行ATM,160302
二环路北一段85号附20-26号,金牛区,[],[],3,成都市,[],B001C80FA3,[],"104.044644,30.694021",中国工商银行24小时自助银行(成都二环路北一段支行),B001C80FA2,[],四川省,[],[],2,[],金融保险服务;自动提款机;中国工商银行ATM,160302
广场路北一段114-122,金牛区,[],[],3,成都市,[],B001C8R8FK,[],"103.950620,30.780970",中国工商银行24小时自助银行,B001C8R8FH,[],四川省,[],[],2,[],金融保险服务;自动提款机;中国工商银行ATM,160302
犀浦街道兴业街南段118号,郫都区,[],[],3,成都市,[],B001C0AFV8,[],"103.971172,30.749403",中国工商银行24小时自助银行(创业路支行),B001C0AFV7,[],四川省,[],[],2,[],金融保险服务;自动提款机;中国工商银行ATM,160302
中和大道中段99号卡斯摩广场19栋1楼,双流区,[],[],[],成都市,[],B0FFFEAYTL,[],"104.085877,30.548464",中国工商银行24小时自助银行(成都高新中和大道二段自助银行),[],[],四川省,[],[],2,[],金融保险服务;自动提款机;中国工商银行ATM,160302
橡树林路90号,锦江区,[],[],[],成都市,[],B001C8P7N3,[],"104.093104,30.623857",中国工商银行24小时自助银行(橡树林路),[],[],四川省,[],[],2,[],金融保险服务;自动提款机;中国工商银行ATM,160302
西南市街113号,彭州市,[],[],[],成都市,[],B0FFFGLQOR,[],"103.939113,30.982044",中国工商银行24小时自助银行(西南市街),[],[],四川省,[],[],2,[],金融保险服务;自动提款机;中国工商银行ATM,160302
滨江路一段29号现代商住小区31-32号,金堂县,[],[],3,成都市,[],B001C80KKM,[],"104.428819,30.849178",中国工商银行24小时自助银行(滨江路支行),B001C0AFU8,[],四川省,[],[],2,[],金融保险服务;自动提款机;中国工商银行ATM,160302
鹭岛路15-19号,武侯区,[],[],3,成都市,[],B001C7XYTT,[],"104.012620,30.644930",中国工商银行24小时自助银行(鹭岛支行),B001C7VRB9,[],四川省,[],[],2,[],金融保险服务;自动提款机;中国工商银行ATM,160302
广场路,简阳市,[],[],[],成都市,[],B0340012GP,[],"104.541958,30.384473",中国工商银行24小时自助银行(阳晨分理处),[],[],四川省,[],[],2,[],金融保险服务;自动提款机;中国工商银行ATM,160302
罗家碾街31号1幢,青羊区,[],[],[],成都市,[],B0FFGCBKIO,[],"104.029308,30.674691",中国工商银行24小时自助银行(大庆路),[],[],四川省,[],[],2,[],金融保险服务;自动提款机;中国工商银行ATM,160302
建设北路三段289号附13-附19号,成华区,[],[],3,成都市,[],B001C7WQWH,[],"104.124163,30.680250",中国工商银行24小时自助银行(成都二仙桥支行),B0FFF3Z3FY,[],四川省,[],[],2,[],金融保险服务;自动提款机;中国工商银行ATM,160302
建设北路二段4号电子科技大学沙河校区内,成华区,[],[],[],成都市,[],B0FFG34VFA,[],"104.099779,30.677408",中国工商银行ATM(学生公寓13栋西南),[],[],四川省,[],[],2,[],金融保险服务;自动提款机;中国工商银行ATM,160302
五津西路133号,新津区,[],[],[],成都市,[],B001C8R8AX,[],"103.806237,30.415249",中国工商银行24小时自助银行(惠安路),[],[],四川省,[],[],2,[],金融保险服务;自动提款机;中国工商银行ATM,160302
槐树街51号附6-8号,青羊区,[],[],3,成都市,[],B001C7YQ9V,[],"104.052261,30.670173",中国工商银行24小时自助银行(春熙支行),B001C7YQ9U,[],四川省,[],[],2,[],金融保险服务;自动提款机;中国工商银行ATM,160302
科园南路93临附近,武侯区,[],[],[],成都市,[],B0FFFPU0VX,[],"104.030479,30.616029",中国工商银行ATM(科园南路),[],[],四川省,[],[],2,[],金融保险服务;自动提款机;中国工商银行ATM,160302
金福路140号附近,青羊区,[],[],[],成都市,[],B0FFFDXCTB,[],"103.974601,30.688980",中国工商银行24小时自助银行(清河分理处),[],[],四川省,[],[],2,[],金融保险服务;自动提款机;中国工商银行ATM,160302
南三环路五段188号美洲花园101栋1层8号,武侯区,[],[],[],成都市,[],B001C94OZN,[],"104.038032,30.600823",中国工商银行24小时自助银行(美洲北路),[],[],四川省,[],[],2,[],金融保险服务;自动提款机;中国工商银行ATM,160302
清江东路362号附3号,青羊区,[],[],3,成都市,[],B001C0AFVW,[],"104.023217,30.670255",中国工商银行24小时自助银行(峨影支行),B001C06AUE,[],四川省,[],[],2,[],金融保险服务;自动提款机;中国工商银行ATM,160302
简城镇北街90号,简阳市,[],[],3,成都市,[],B03400MO3F,[],"104.547709,30.394002",中国工商银行24小时自助银行(简阳支行营业室),B034000XUU,[],四川省,[],[],2,[],金融保险服务;自动提款机;中国工商银行ATM,160302
实业街9号附1号,青羊区,[],[],3,成都市,[],B001C7Y7N1,[],"104.055307,30.665265",中国工商银行24小时自助银行(成都实业街支行),B001C0AFXU,[],四川省,[],[],2,[],金融保险服务;自动提款机;中国工商银行ATM,160302
指挥街38-40号,锦江区,[],[],3,成都市,[],B001C0AFZF,[],"104.067373,30.649971",中国工商银行24小时自助银行(指挥街支行),B001C060P6,[],四川省,[],[],2,[],金融保险服务;自动提款机;中国工商银行ATM,160302
天仁路381-385号,武侯区,[],[],[],成都市,[],B0FFF33WVW,[],"104.069075,30.601947",中国工商银行24小时自助银行(天仁路支行),[],[],四川省,[],[],2,[],金融保险服务;自动提款机;中国工商银行ATM,160302
一环路南一段57号附1号,武侯区,[],[],202,成都市,[],B0FFH7WVG8,[],"104.077400,30.634481",中国工商银行24小时自助银行(东大支行营业室),B001C7V8MK,[],四川省,[],[],2,[],金融保险服务;自动提款机;中国工商银行ATM,160302
简城镇政府街148-156号,简阳市,[],[],3,成都市,[],B03400MNZ9,[],"104.548535,30.390256",中国工商银行24小时自助银行(简阳政府街分理处),B0340000FC,[],四川省,[],[],2,[],金融保险服务;自动提款机;中国工商银行ATM,160302
金府路799号金府国际一期1栋1单元5号,金牛区,[],[],202,成都市,[],B001C8NP2P,[],"104.043435,30.717515",中国工商银行24小时自助银行(金府路支行),B0FFG7Q2HG,[],四川省,[],[],2,[],金融保险服务;自动提款机;中国工商银行ATM,160302
锦东路555号附11号,锦江区,[],[],3,成都市,[],B001C7VRB5,[],"104.105818,30.640324",中国工商银行24小时自助银行(牛市口分理处),B001C7VRB4,[],四川省,[],[],2,[],金融保险服务;自动提款机;中国工商银行ATM,160302
建材路527号,龙泉驿区,[],[],[],成都市,[],B0FFGHOO37,[],"104.275398,30.576314",中国工商银行24小时自助银行(建材路499号院西北),[],[],四川省,[],[],2,[],金融保险服务;自动提款机;中国工商银行ATM,160302
通盈街753-755号,锦江区,[],[],[],成都市,[],B001C8P6J2,[],"104.111078,30.628441",中国工商银行24小时自助银行(通盈街),[],[],四川省,[],[],2,[],金融保险服务;自动提款机;中国工商银行ATM,160302
物流大道88号招商楼1层,新都区,[],[],3,成都市,[],B001C80KP2,[],"104.132316,30.795129",中国工商银行24小时自助银行(物流大道支行),B001C80KZI,[],四川省,[],[],2,[],金融保险服务;自动提款机;中国工商银行ATM,160302
东坡路423-431号,青羊区,[],[],3,成都市,[],B001C7WEIV,[],"103.993810,30.661057",中国工商银行24小时自助银行(东坡大道支行),B001C7WEIU,[],四川省,[],[],2,[],金融保险服务;自动提款机;中国工商银行ATM,160302
解放路二段4号附1,金牛区,[],[],3,成都市,[],B001C7UAMI,[],"104.079385,30.677223",中国工商银行24小时自助银行(簸箕街支行),B001C0AFZS,[],四川省,[],[],2,[],金融保险服务;自动提款机;中国工商银行ATM,160302
金福路367-375号,青羊区,[],[],3,成都市,[],B001C805LA,[],"103.986089,30.678627",中国工商银行24小时自助银行(金福路支行),B001C805L9,[],四川省,[],[],2,[],金融保险服务;自动提款机;中国工商银行ATM,160302
广福桥北街6号附16-附20,武侯区,[],[],[],成都市,[],B0FFH8MPML,[],"104.034836,30.641409",中国工商银行24小时自助银行(广福桥北街支行),[],[],四川省,[],[],2,[],金融保险服务;自动提款机;中国工商银行ATM,160302
桐梓林北路10号附1号,武侯区,[],[],3,成都市,[],B0FFFFK2OD,[],"104.062457,30.616406",中国工商银行24小时自助银行(桐梓林北街支行),B001C7URQ7,[],四川省,[],[],2,[],金融保险服务;自动提款机;中国工商银行ATM,160302
外北街7号,都江堰市,[],[],[],成都市,[],B001C8OMRL,[],"103.622362,31.001810",中国工商银行24小时自助银行(外北街),[],[],四川省,[],[],2,[],金融保险服务;自动提款机;中国工商银行ATM,160302
东升三强东路一段9-13号,双流区,[],[],3,成都市,[],B001C80J69,[],"103.928988,30.568993",中国工商银行24小时自助银行(三强东路支行),B001C7YOA8,[],四川省,[],[],2,[],金融保险服务;自动提款机;中国工商银行ATM,160302
永兴路37-39号(永辉超市旁),温江区,[],[],[],成都市,[],B0FFF2RE0Z,[],"103.854277,30.686514",中国工商银行24小时自助银行(永兴路),[],[],四川省,[],[],2,[],金融保险服务;自动提款机;中国工商银行ATM,160302
琴台路10-16号,青羊区,[],[],3,成都市,[],B001C0AFUW,[],"104.045015,30.658058",中国工商银行24小时自助银行(青羊宫支行),B001C06FQO,[],四川省,[],[],2,[],金融保险服务;自动提款机;中国工商银行ATM,160302
蜀汉路333号附2号,金牛区,[],[],3,成都市,[],B001C0AFVL,[],"104.016986,30.690953",中国工商银行ATM(东电集团分理处),B001C0AFVK,[],四川省,[],[],2,[],金融保险服务;自动提款机;中国工商银行ATM,160302
提督街50号,锦江区,[],[],3,成都市,[],B001C7WHV6,[],"104.074731,30.659734",中国工商银行24小时自助银行(成都提督街支行),B001C7WHV5,[],四川省,[],[],2,[],金融保险服务;自动提款机;中国工商银行ATM,160302
双桥路与双桥路南二街交叉口北50米,成华区,[],[],[],成都市,[],B0FFGC45GV,[],"104.109509,30.648927",中国工商银行24小时自助银行(双桥路),[],[],四川省,[],[],2,[],金融保险服务;自动提款机;中国工商银行ATM,160302
科华中路9号王府井百货1F层,武侯区,[],[],201,成都市,[],B0FFF3GC68,[],"104.076552,30.618759",中国工商银行ATM(王府井百货),B001C80PPV,[],四川省,[],[],2,[],金融保险服务;自动提款机;中国工商银行ATM,160302
净居寺南街56号之附1-附2号,锦江区,[],[],3,成都市,[],B001C8PLBB,[],"104.103568,30.622269",中国工商银行24小时自助银行(净居寺南街支行),B001C8PLTO,[],四川省,[],[],2,[],金融保险服务;自动提款机;中国工商银行ATM,160302
双庆路99号附9-14号,成华区,[],[],3,成都市,[],B001C8MONY,[],"104.115487,30.652564",中国工商银行24小时自助银行(万年场支行),B001C8MONZ,[],四川省,[],[],2,[],金融保险服务;自动提款机;中国工商银行ATM,160302
瑞星路99号附26-28号,青羊区,[],[],3,成都市,[],B001C80CB0,[],"103.995406,30.667211",中国工商银行24小时自助银行(瑞星路支行),B001C80CAZ,[],四川省,[],[],2,[],金融保险服务;自动提款机;中国工商银行ATM,160302
科华北路58号附3号,武侯区,[],[],3,成都市,[],B001C7VRA9,[],"104.076243,30.625084",中国工商银行24小时自助银行(成都棕北支行),B001C7VRA8,[],四川省,[],[],2,[],金融保险服务;自动提款机;中国工商银行ATM,160302
望丛西路299号附近,郫都区,[],[],[],成都市,[],B0FFG7GV7L,[],"103.881065,30.814822",中国工商银行24小时自助银行(西江苑东南),[],[],四川省,[],[],2,[],金融保险服务;自动提款机;中国工商银行ATM,160302
中柏路169号附6-附8,双流区,[],[],[],成都市,[],B0FFFODOZL,[],"104.094178,30.555600",中国工商银行24小时自助银行(高新支行),[],[],四川省,[],[],2,[],金融保险服务;自动提款机;中国工商银行ATM,160302
