address,adname,biz_ext,biz_type,childtype,cityname,distance,id,importance,location,name,parent,photos,pname,poiweight,shopid,shopinfo,tel,type,typecode
龙泉街道公园路一段146号文明街,龙泉驿区,[],[],[],成都市,[],B001C8N2T5,[],"104.278212,30.562832",中国邮政储蓄银行(文明街营业所),[],[],四川省,[],[],2,028-84884409;95580,金融保险服务;银行;中国邮政储蓄银行,160139
南通路104号,双流区,[],[],[],成都市,[],B0FFG7IYND,[],"103.987067,30.408320",中国邮政储蓄银行(双流区永安支行),[],[],四川省,[],[],2,028-85681184;95580,金融保险服务;银行;中国邮政储蓄银行,160139
金马街道太极大道296-298,温江区,[],[],[],成都市,[],B001C957LF,[],"103.803532,30.641134",中国邮政储蓄银行(金马街道营业所),[],[],四川省,[],[],2,028-82781286;95580,金融保险服务;银行;中国邮政储蓄银行,160139
高新区永丰路30号,武侯区,[],[],[],成都市,[],B001C7WH7Q,[],"104.047390,30.627593",中国邮政储蓄银行(高新区邮局营业部),[],[],四川省,[],[],2,028-66053980,金融保险服务;银行;中国邮政储蓄银行,160139
南北大道122-128,都江堰市,[],[],[],成都市,[],B0FFFQ210E,[],"103.596164,30.876685",中国邮政储蓄银行(青城镇支行),[],[],四川省,[],[],2,028-87256037,金融保险服务;银行;中国邮政储蓄银行,160139
紫竹南一街1号紫荆美熙广场,武侯区,[],[],202,成都市,[],B001C0AJ20,[],"104.054173,30.613199",中国邮政储蓄银行(紫荆东路营业所),B0FFGXCHXO,[],四川省,[],[],2,028-85194255;028-69919277;95580,金融保险服务;银行;中国邮政储蓄银行,160139
北大街107-109号,彭州市,[],[],[],成都市,[],B001C8078V,[],"103.942131,30.986380",中国邮政储蓄银行(北大街支行),[],[],四川省,[],[],2,028-83871667;95580,金融保险服务;银行;中国邮政储蓄银行,160139
核桃堰路39-41号,武侯区,[],[],[],成都市,[],B001C90QZC,[],"104.026488,30.626447",中国邮政储蓄银行(核桃堰路营业所),[],[],四川省,[],[],2,028-85537212;95580,金融保险服务;银行;中国邮政储蓄银行,160139
牡丹东路6号,彭州市,[],[],[],成都市,[],B001C8OPQ4,[],"103.959876,30.988478",中国邮政储蓄银行(盛世天彭支行),[],[],四川省,[],[],2,028-83873420,金融保险服务;银行;中国邮政储蓄银行,160139
光华村街44号附1号,青羊区,[],[],[],成都市,[],B001C08U24,[],"104.013920,30.663194",中国邮政储蓄银行(光华村支行),[],[],四川省,[],[],2,028-87086167;95580,金融保险服务;银行;中国邮政储蓄银行,160139
西河街道药王庙街2、4、6、8、10、12号,龙泉驿区,[],[],[],成都市,[],B001C8N3BL,[],"104.235516,30.651456",中国邮政储蓄银行(西河街道营业所),[],[],四川省,[],[],2,028-84890679;95580,金融保险服务;银行;中国邮政储蓄银行,160139
成双大道99号附近,武侯区,[],[],[],成都市,[],B0FFFFQ97M,[],"104.009472,30.611790",中国邮政储蓄银行(成都市聚龙路营业所),[],[],四川省,[],[],2,028-85041941;95580,金融保险服务;银行;中国邮政储蓄银行,160139
龙舟路59号,锦江区,[],[],[],成都市,[],B001C7YBX7,[],"104.097924,30.627119",中国邮政储蓄银行(龙舟南路支局),[],[],四川省,[],[],2,028-84555587;95580,金融保险服务;银行;中国邮政储蓄银行,160139
晋吉北路66号附28号,武侯区,[],[],[],成都市,[],B001C8YZUS,[],"104.004027,30.640145",中国邮政储蓄银行(晋吉北路营业所),[],[],四川省,[],[],2,028-87444078,金融保险服务;银行;中国邮政储蓄银行,160139
花园街180号,新津区,[],[],[],成都市,[],B001C8MSPH,[],"103.878085,30.497044",中国邮政储蓄银行(花源镇营业所),[],[],四川省,[],[],2,[],金融保险服务;银行;中国邮政储蓄银行,160139
解放街76号,都江堰市,[],[],[],成都市,[],B001C8YT3L,[],"103.646915,30.843448",中国邮政储蓄银行(石羊镇支行),[],[],四川省,[],[],2,028-87280126;95580,金融保险服务;银行;中国邮政储蓄银行,160139
昭觉寺横路99号附13号,成华区,[],[],[],成都市,[],B0FFFE1N4D,[],"104.105581,30.701674",中国邮政储蓄银行(青龙场营业所),[],[],四川省,[],[],2,028-84790560;95580,金融保险服务;银行;中国邮政储蓄银行,160139
太平街道长龙街123号,双流区,[],[],[],成都市,[],B001C8UB5J,[],"104.199240,30.429644",中国邮政储蓄银行(太平镇支行),[],[],四川省,[],[],2,028-85661400,金融保险服务;银行;中国邮政储蓄银行,160139
西街6号,新都区,[],[],[],成都市,[],B001C7TLJO,[],"104.160075,30.826749",中国邮政储蓄银行(西街营业所),[],[],四川省,[],[],2,028-83991599;028-95580,金融保险服务;银行;中国邮政储蓄银行,160139
九江镇双九路二段188号,双流区,[],[],[],成都市,[],B0FFG6ACFM,[],"103.912335,30.619851",中国邮政储蓄银行(九江镇营业所),[],[],四川省,[],[],2,028-85754404;95580,金融保险服务;银行;中国邮政储蓄银行,160139
成宏路2号附1-2,成华区,[],[],[],成都市,[],B001C8R7CV,[],"104.167531,30.692820",中国邮政储蓄银行(龙潭寺营业所),[],[],四川省,[],[],2,028-84202434;95580,金融保险服务;银行;中国邮政储蓄银行,160139
协和上街100-104,双流区,[],[],[],成都市,[],B001C8MOF6,[],"104.046493,30.508189",中国邮政储蓄银行(华阳锦江路营业所),[],[],四川省,[],[],2,028-85765187;95580,金融保险服务;银行;中国邮政储蓄银行,160139
西航港锦华路三段80-84号,双流区,[],[],[],成都市,[],B0FFHGC8I7,[],"103.984937,30.576684",中国邮政储蓄银行(常乐营业所),[],[],四川省,[],[],2,95580,金融保险服务;银行;中国邮政储蓄银行,160139
将军西街4号,新都区,[],[],[],成都市,[],B001C8N6M7,[],"104.231504,30.786540",中国邮政储蓄银行(泰兴营业所),[],[],四川省,[],[],2,028-83986001,金融保险服务;银行;中国邮政储蓄银行,160139
天新路45-55号,金牛区,[],[],[],成都市,[],B001C7XZ4C,[],"104.117777,30.761775",中国邮政储蓄银行(天回镇营业所),[],[],四川省,[],[],2,028-83571109;95580,金融保险服务;银行;中国邮政储蓄银行,160139
机投镇草金南路24号,武侯区,[],[],[],成都市,[],B001C8O9KR,[],"103.979701,30.647595",中国邮政储蓄银行(机投镇支行),[],[],四川省,[],[],2,028-87485805;95580,金融保险服务;银行;中国邮政储蓄银行,160139
龙泉街道旭东街36-38号,龙泉驿区,[],[],[],成都市,[],B001C0ABOU,[],"104.262047,30.563092",中国邮政储蓄银行(旭东街营业所),[],[],四川省,[],[],2,028-84884209;95580,金融保险服务;银行;中国邮政储蓄银行,160139
清明街15号,崇州市,[],[],[],成都市,[],B001C8N40W,[],"103.559764,30.814213",中国邮政储蓄银行(街子营业所),[],[],四川省,[],[],2,028-82294115;95580,金融保险服务;银行;中国邮政储蓄银行,160139
龙泉镇北泉路708号,龙泉驿区,[],[],[],成都市,[],B001C8NOU2,[],"104.247055,30.569375",中国邮政储蓄银行(北泉路营业所),[],[],四川省,[],[],2,028-84884411;028-86761921;95580,金融保险服务;银行;中国邮政储蓄银行,160139
幸福大道192号国家电网对门,都江堰市,[],[],[],成都市,[],B0FFIMZHNQ,[],"103.643063,30.988612",中国邮政储蓄银行(江都庭院营业所),[],[],四川省,[],[],2,028-87136395;028-87269959,金融保险服务;银行;中国邮政储蓄银行,160139
永丰路6号之附1-附5,武侯区,[],[],[],成都市,[],B001C7WR4N,[],"104.051016,30.632997",中国邮政储蓄银行(衣冠庙支行),[],[],四川省,[],[],2,028-85194252;028-85194201;95580,金融保险服务;银行;中国邮政储蓄银行,160139
董家湾北街3号,武侯区,[],[],[],成都市,[],B001C8MQPP,[],"104.030007,30.631752",中国邮政储蓄银行(董家湾支行),[],[],四川省,[],[],2,028-85080265;028-66053950,金融保险服务;银行;中国邮政储蓄银行,160139
锦绣路174附20-22号,龙泉驿区,[],[],[],成都市,[],B001C8N0XH,[],"104.305989,30.601627",中国邮政储蓄银行(同安镇支行),[],[],四川省,[],[],2,028-84830129;95580,金融保险服务;银行;中国邮政储蓄银行,160139
树德大街38号,龙泉驿区,[],[],[],成都市,[],B001C7UUIU,[],"104.195934,30.584402",中国邮政储蓄银行(大面支行),[],[],四川省,[],[],2,028-84635865;95580,金融保险服务;银行;中国邮政储蓄银行,160139
水碾河路25号4幢1楼2号,成华区,[],[],[],成都市,[],B001C7WR4J,[],"104.104603,30.646407",中国邮政储蓄银行(水碾河路支行),[],[],四川省,[],[],2,028-84471066;95580,金融保险服务;银行;中国邮政储蓄银行,160139
北新街1-7号,锦江区,[],[],[],成都市,[],B0FFIXERQ8,[],"104.076474,30.657572",中国邮政储蓄银行(北新街支行),[],[],四川省,[],[],2,028-60160509,金融保险服务;银行;中国邮政储蓄银行,160139
惠王陵东路457号,龙泉驿区,[],[],[],成都市,[],B001C7UUHV,[],"104.155929,30.615246",中国邮政储蓄银行(洪河镇支行),[],[],四川省,[],[],2,028-88436233,金融保险服务;银行;中国邮政储蓄银行,160139
城西巷与海林西巷交叉口西150米,新津区,[],[],[],成都市,[],B0FFGIT3H4,[],"103.803435,30.413693",中国邮政储蓄银行(武阳西路分理处),[],[],四川省,[],[],2,028-82556783;95580,金融保险服务;银行;中国邮政储蓄银行,160139
国学巷37号四川大学华西医院,武侯区,[],[],[],成都市,[],B0FFFABF5C,[],"104.060425,30.641523",中国邮政储蓄银行(华西医大支行),[],[],四川省,[],[],2,028-85422889;028-85422134;95580,金融保险服务;银行;中国邮政储蓄银行,160139
航空路19号附2号,武侯区,[],[],[],成都市,[],B0FFIOVYJA,[],"104.078898,30.616685",中国邮政储蓄银行(航空路营业所),[],[],四川省,[],[],2,028-85222740;95580,金融保险服务;银行;中国邮政储蓄银行,160139
玉堂街道,都江堰市,[],[],[],成都市,[],B0FFJEFXFZ,[],"103.611749,30.964343",中国邮政储蓄银行(玉堂营业所),[],[],四川省,[],[],2,028-87181761;95580,金融保险服务;银行;中国邮政储蓄银行,160139
发展路38-40,都江堰市,[],[],[],成都市,[],B0FFFFMBOK,[],"103.657779,31.001508",中国邮政储蓄银行(高桥邮政所),[],[],四川省,[],[],2,028-87269959;95580,金融保险服务;银行;中国邮政储蓄银行,160139
府河苑三路,金牛区,[],[],[],成都市,[],B001C8P6P9,[],"104.025103,30.728744",中国邮政储蓄银行(府河星城支行),[],[],四川省,[],[],2,028-87604599;95580,金融保险服务;银行;中国邮政储蓄银行,160139
教师街邮电路90号,双流区,[],[],[],成都市,[],B001C7YJS0,[],"103.874460,30.584209",中国邮政储蓄银行(彭镇营业所),[],[],四川省,[],[],2,028-85850114;95580,金融保险服务;银行;中国邮政储蓄银行,160139
安靖街道金河路166-168号1层,郫都区,[],[],[],成都市,[],B0FFGBGT4I,[],"104.017596,30.765709",中国邮政储蓄银行(安靖营业所),[],[],四川省,[],[],2,028-86632683;95580,金融保险服务;银行;中国邮政储蓄银行,160139
文南路28-40,邛崃市,[],[],[],成都市,[],B001C7UXP4,[],"103.473958,30.408482",中国邮政储蓄银行(文南路支行),[],[],四川省,[],[],2,028-88742160;95580,金融保险服务;银行;中国邮政储蓄银行,160139
天乡路一段377-387号,温江区,[],[],[],成都市,[],B0FFHPF84U,[],"103.870466,30.703850",中国邮政储蓄银行(公平营业所),[],[],四川省,[],[],2,028-82650420,金融保险服务;银行;中国邮政储蓄银行,160139
柏合街道新街47-49-51号,龙泉驿区,[],[],[],成都市,[],B001C8OPIT,[],"104.205529,30.503898",中国邮政储蓄银行(柏合街道营业所),[],[],四川省,[],[],2,028-84818295;95580,金融保险服务;银行;中国邮政储蓄银行,160139
花桥街道中学路4号,新津区,[],[],[],成都市,[],B001C8089U,[],"103.854667,30.444223",中国邮政储蓄银行(花桥邮政支局),[],[],四川省,[],[],2,028-82460008;95580,金融保险服务;银行;中国邮政储蓄银行,160139
东光街道锦华路一段275号附20号,锦江区,[],[],[],成都市,[],B001C7YLBD,[],"104.099700,30.617113",中国邮政储蓄银行(东光小区营业所),[],[],四川省,[],[],2,028-84412657;95580,金融保险服务;银行;中国邮政储蓄银行,160139
