address,adname,biz_ext,biz_type,childtype,cityname,distance,id,importance,location,name,parent,photos,pname,poiweight,shopid,shopinfo,tel,type,typecode
蒲阳路321-331号,都江堰市,[],[],[],成都市,[],B0FFFAB0F9,[],"103.630088,31.002086",中国邮政储蓄银行24小时自助银行(蒲阳路营业所),[],[],四川省,[],[],2,[],金融保险服务;自动提款机;中国邮政储蓄银行ATM,160336
公园路一段146号,龙泉驿区,[],[],[],成都市,[],B0FFFABZFU,[],"104.278107,30.562792",中国邮政储蓄银行24小时自助银行(文明街营业所),[],[],四川省,[],[],2,[],金融保险服务;自动提款机;中国邮政储蓄银行ATM,160336
双九路233号,双流区,[],[],[],成都市,[],B001C959GF,[],"103.914869,30.609122",中国邮政储蓄银行ATM(双九路),[],[],四川省,[],[],2,[],金融保险服务;自动提款机;中国邮政储蓄银行ATM,160336
大面惠王陵东路455号、457号、459号、461号,龙泉驿区,[],[],3,成都市,[],B001C7UUHW,[],"104.156009,30.615241",中国邮政储蓄银行24小时自助银行(洪河镇支行),B001C7UUHV,[],四川省,[],[],2,[],金融保险服务;自动提款机;中国邮政储蓄银行ATM,160336
北大街107-109号,彭州市,[],[],3,成都市,[],B0FFGIPVRD,[],"103.942032,30.986420",中国邮政储蓄银行24小时自助银行(北大街支行),B001C8078V,[],四川省,[],[],2,[],金融保险服务;自动提款机;中国邮政储蓄银行ATM,160336
正源路100号,新津区,[],[],[],成都市,[],B001C8VEZ8,[],"103.884097,30.484937",中国邮政储蓄银行24小时自助银行(开元营业所),[],[],四川省,[],[],2,[],金融保险服务;自动提款机;中国邮政储蓄银行ATM,160336
兴贤街99号,邛崃市,[],[],[],成都市,[],B001C8VJUS,[],"103.463298,30.406968",中国邮政储蓄银行24小时自助银行(邛崃市支行),[],[],四川省,[],[],2,[],金融保险服务;自动提款机;中国邮政储蓄银行ATM,160336
解放路一段192号,金牛区,[],[],[],成都市,[],B0FFGYNCG7,[],"104.089590,30.692674",中国邮政储蓄银行24小时自助银行(解放路支行),[],[],四川省,[],[],2,[],金融保险服务;自动提款机;中国邮政储蓄银行ATM,160336
成白路98号,双流区,[],[],3,成都市,[],B001C8MQAT,[],"104.020254,30.564413",中国邮政储蓄银行24小时自助银行(成白路支行),B001C80VH2,[],四川省,[],[],2,[],金融保险服务;自动提款机;中国邮政储蓄银行ATM,160336
黄河南路2段43,双流区,[],[],[],成都市,[],B0FFFODBHX,[],"104.010753,30.551111",中国邮政储蓄银行24小时自助银行(白家营业所),[],[],四川省,[],[],2,[],金融保险服务;自动提款机;中国邮政储蓄银行ATM,160336
董家湾北街3号附16-18号,武侯区,[],[],3,成都市,[],B001C80RNI,[],"104.030024,30.631785",中国邮政储蓄银行24小时自助银行(董家湾支行),B001C8MQPP,[],四川省,[],[],2,[],金融保险服务;自动提款机;中国邮政储蓄银行ATM,160336
机投镇草金南路24号,武侯区,[],[],3,成都市,[],B001C8O8TX,[],"103.979684,30.647466",中国邮政储蓄银行24小时自助银行(机投镇支行),B001C8O9KR,[],四川省,[],[],2,[],金融保险服务;自动提款机;中国邮政储蓄银行ATM,160336
榕声路135号,锦江区,[],[],[],成都市,[],B001C90RMX,[],"104.096545,30.588985",中国邮政储蓄银行24小时自助银行(榕声路营业所),[],[],四川省,[],[],2,[],金融保险服务;自动提款机;中国邮政储蓄银行ATM,160336
营新街南段90号附近,大邑县,[],[],[],成都市,[],B0FFJM85WQ,[],"103.476458,30.516845",中国邮政储蓄银行24小时自助银行(王泗镇营业所),[],[],四川省,[],[],2,[],金融保险服务;自动提款机;中国邮政储蓄银行ATM,160336
长庆街东段90西北60米,彭州市,[],[],[],成都市,[],B0FFK12IWU,[],"103.811070,30.965392",中国邮政储蓄银行24小时自助银行,[],[],四川省,[],[],2,[],金融保险服务;自动提款机;中国邮政储蓄银行ATM,160336
寿安镇团结桥通柳中街22-26号,温江区,[],[],[],成都市,[],B0FFHWPZU3,[],"103.749984,30.776909",中国邮政储蓄银行ATM(通平营业所),[],[],四川省,[],[],2,[],金融保险服务;自动提款机;中国邮政储蓄银行ATM,160336
两河路西段537-539号,温江区,[],[],3,成都市,[],B001C92BWL,[],"103.833015,30.684429",中国邮政储蓄银行24小时自助银行(杨柳东路支行),B001C92BWK,[],四川省,[],[],2,[],金融保险服务;自动提款机;中国邮政储蓄银行ATM,160336
北三路518号东坡生活广场,青羊区,[],[],3,成都市,[],B001C80EEZ,[],"103.989577,30.665358",中国邮政储蓄银行24小时自助银行,B001C80EF0,[],四川省,[],[],2,[],金融保险服务;自动提款机;中国邮政储蓄银行ATM,160336
花圃路2号附1号,金牛区,[],[],3,成都市,[],B001C7UAMG,[],"104.080102,30.678916",中国邮政储蓄银行24小时自助银行(簸箕街支行),B001C8N4K9,[],四川省,[],[],2,[],金融保险服务;自动提款机;中国邮政储蓄银行ATM,160336
郫都区和乐巷119-121,郫都区,[],[],3,成都市,[],B001C91XMO,[],"103.887388,30.803695",中国邮政储蓄银行24小时自助银行(和乐巷营业所),B001C91XMN,[],四川省,[],[],2,[],金融保险服务;自动提款机;中国邮政储蓄银行ATM,160336
赵镇五横道金沙街,金堂县,[],[],3,成都市,[],B001C7ZWPD,[],"104.406794,30.862268",中国邮政储蓄银行24小时自助银行(金沙街营业所),B001C7ZWPC,[],四川省,[],[],2,[],金融保险服务;自动提款机;中国邮政储蓄银行ATM,160336
国学巷37号四川大学华西医院,武侯区,[],[],[],成都市,[],B0FFFABF5B,[],"104.060404,30.641540",中国邮政储蓄银行24小时自助银行(华西医大支行),[],[],四川省,[],[],2,[],金融保险服务;自动提款机;中国邮政储蓄银行ATM,160336
兴达路962号,温江区,[],[],[],成都市,[],B001C8VF2J,[],"103.772127,30.671354",中国邮政储蓄银行24小时自助银行(永盛营业所),[],[],四川省,[],[],2,[],金融保险服务;自动提款机;中国邮政储蓄银行ATM,160336
黄金路244号-246号,金牛区,[],[],3,成都市,[],B001C8MV43,[],"103.991638,30.709137",中国邮政储蓄银行24小时自助银行(黄金路支行),B001C8MV42,[],四川省,[],[],2,[],金融保险服务;自动提款机;中国邮政储蓄银行ATM,160336
盛华南路138号附近,武侯区,[],[],[],成都市,[],B0FFH8OYAF,[],"104.053591,30.548542",中国邮政储蓄银行24小时自助银行(盛华南路),[],[],四川省,[],[],2,[],金融保险服务;自动提款机;中国邮政储蓄银行ATM,160336
市西街30-34号,崇州市,[],[],3,成都市,[],B001C0A22I,[],"103.671692,30.629178",中国邮政储蓄银行24小时自助银行(崇州市支行),B001C8MIWH,[],四川省,[],[],2,[],金融保险服务;自动提款机;中国邮政储蓄银行ATM,160336
幸福路与重庆路交叉口东北50米,崇州市,[],[],[],成都市,[],B0FFIZ4U8Y,[],"103.609542,30.614482",中国邮政储蓄银行(王场镇营业所),[],[],四川省,[],[],2,028-82232111;95580,金融保险服务;银行;中国邮政储蓄银行,160139
广场路13附2-4,郫都区,[],[],3,成都市,[],B001C8O4DA,[],"103.942808,30.773699",中国邮政储蓄银行24小时自助银行(西华大学营业所),B001C8MG33,[],四川省,[],[],2,[],金融保险服务;自动提款机;中国邮政储蓄银行ATM,160336
簇马路三段16号附1号,武侯区,[],[],[],成都市,[],B0FFF2OYE9,[],"103.972247,30.587298",中国邮政储蓄银行24小时自助银行,[],[],四川省,[],[],2,[],金融保险服务;自动提款机;中国邮政储蓄银行ATM,160336
朝阳南路与长江路交叉口西南100米,彭州市,[],[],[],成都市,[],B0FFIIJEMV,[],"103.949786,30.975522",中国邮政储蓄银行24小时自助银行(朝阳南路营业所),[],[],四川省,[],[],2,[],金融保险服务;自动提款机;中国邮政储蓄银行ATM,160336
寿高路与金龙街交叉口东南50米,邛崃市,[],[],[],成都市,[],B0FFHNQ50J,[],"103.421429,30.337574",中国邮政储蓄银行24小时自助银行(卧龙营业所),[],[],四川省,[],[],2,[],金融保险服务;自动提款机;中国邮政储蓄银行ATM,160336
花都大道793-795号,新都区,[],[],3,成都市,[],B001C8O9O9,[],"104.057279,30.760869",中国邮政储蓄银行ATM,B001C8MG9C,[],四川省,[],[],2,[],金融保险服务;自动提款机;中国邮政储蓄银行ATM,160336
驿都西路4111号四川财经职业学院,龙泉驿区,[],[],[],成都市,[],B0FFFF5LO7,[],"104.212198,30.580138",中国邮政储蓄银行ATM(四川财经职业学院卫生服务站西南),[],[],四川省,[],[],2,[],金融保险服务;自动提款机;中国邮政储蓄银行ATM,160336
国槐街1153-1155号,锦江区,[],[],[],成都市,[],B0FFFYMWAB,[],"104.133407,30.613039",中国邮政储蓄银行24小时自助银行(国槐街营业所),[],[],四川省,[],[],2,[],金融保险服务;自动提款机;中国邮政储蓄银行ATM,160336
西华大学院内,金牛区,[],[],[],成都市,[],B0FFFZSYAB,[],"103.949379,30.775630",中国邮政储蓄银行24小时自助银行,[],[],四川省,[],[],2,[],金融保险服务;自动提款机;中国邮政储蓄银行ATM,160336
一环路西三段125号,金牛区,[],[],3,成都市,[],B001C7WR49,[],"104.041884,30.677451",中国邮政储蓄银行24小时自助银行(抚琴小区支行),B001C7WR48,[],四川省,[],[],2,[],金融保险服务;自动提款机;中国邮政储蓄银行ATM,160336
石家碾西路75号2幢-附5附近,青白江区,[],[],[],成都市,[],B0FFGER2EL,[],"104.256421,30.887688",中国邮政储蓄银行24小时自助银行(青白江区支行),[],[],四川省,[],[],2,[],金融保险服务;自动提款机;中国邮政储蓄银行ATM,160336
武都路4号附6号,青羊区,[],[],[],成都市,[],B001C92KIG,[],"104.070656,30.677859",中国邮政储蓄银行24小时自助银行(武都路营业所),[],[],四川省,[],[],2,[],金融保险服务;自动提款机;中国邮政储蓄银行ATM,160336
蜀龙大道中段1088号万千城1层,新都区,[],[],[],成都市,[],B0FFIITMXE,[],"104.178793,30.819857",中国邮政储蓄银行24小时自助银行(石油学院储蓄所),[],[],四川省,[],[],2,[],金融保险服务;自动提款机;中国邮政储蓄银行ATM,160336
忠北路南100米,龙泉驿区,[],[],[],成都市,[],B0FFFGUFYF,[],"104.308788,30.614326",中国邮政储蓄银行ATM(足球村东南),[],[],四川省,[],[],2,[],金融保险服务;自动提款机;中国邮政储蓄银行ATM,160336
三峨街14-34号,龙泉驿区,[],[],3,成都市,[],B0FFGIIJUP,[],"104.320609,30.640256",中国邮政储蓄银行24小时自助银行(洛带镇营业所),B0FFGIIJR0,[],四川省,[],[],2,[],金融保险服务;自动提款机;中国邮政储蓄银行ATM,160336
蜀州北路178号,崇州市,[],[],3,成都市,[],B001C09RMP,[],"103.669963,30.636970",中国邮政储蓄银行24小时自助银行(蜀州北路支行),B001C8R8SV,[],四川省,[],[],2,[],金融保险服务;自动提款机;中国邮政储蓄银行ATM,160336
科创路184号,锦江区,[],[],3,成都市,[],B001C8O4AN,[],"104.090579,30.603400",中国邮政储蓄银行ATM(科创路营业所),B001C8O1V1,[],四川省,[],[],2,[],金融保险服务;自动提款机;中国邮政储蓄银行ATM,160336
商贸横一街25,邛崃市,[],[],[],成都市,[],B0FFHXK533,[],"103.537724,30.402472",中国邮政储蓄银行24小时自助银行(前进镇支行),[],[],四川省,[],[],2,[],金融保险服务;自动提款机;中国邮政储蓄银行ATM,160336
成双大道北段119号附近,武侯区,[],[],[],成都市,[],B0FFGHQT87,[],"104.009454,30.611742",聚龙路邮政储蓄24小时自助银行,[],[],四川省,[],[],2,[],金融保险服务;自动提款机;中国邮政储蓄银行ATM,160336
伴月街与江华路交叉口东北50米,龙泉驿区,[],[],[],成都市,[],B0FFGDDB8R,[],"104.185835,30.651692",中国邮政储蓄银行24小时自助银行(成都大学营业所),[],[],四川省,[],[],2,[],金融保险服务;自动提款机;中国邮政储蓄银行ATM,160336
三强南路一段185-189号,双流区,[],[],[],成都市,[],B001C7UVUJ,[],"103.925987,30.566345",中国邮政储蓄银行24小时自助银行(三强南路一段),[],[],四川省,[],[],2,[],金融保险服务;自动提款机;中国邮政储蓄银行ATM,160336
大邑大道97号附4-附7,大邑县,[],[],3,成都市,[],B001C8NOKS,[],"103.525614,30.573794",中国邮政储蓄银行24小时自助银行(大邑支行),B001C8NPQ8,[],四川省,[],[],2,[],金融保险服务;自动提款机;中国邮政储蓄银行ATM,160336
永丰路28-30,武侯区,[],[],3,成都市,[],B001C7WH7R,[],"104.047278,30.627455",中国邮政储蓄银行24小时自助银行(高新区支行),B001C7WH7Q,[],四川省,[],[],2,[],金融保险服务;自动提款机;中国邮政储蓄银行ATM,160336
渔江路东50米,双流区,[],[],3,成都市,[],B001C8MHIO,[],"103.949902,30.640661",中国邮政储蓄银行24小时自助银行(通江支行),B001C8MHIN,[],四川省,[],[],2,[],金融保险服务;自动提款机;中国邮政储蓄银行ATM,160336
