address,adname,biz_ext,biz_type,childtype,cityname,distance,id,importance,location,name,parent,photos,pname,poiweight,shopid,shopinfo,tel,type,typecode
高新孵化园天府大道北段1480号德商国际B座103-104号德商国际1层,武侯区,[],[],202,成都市,[],B001C80F4V,[],"104.060363,30.575066",中国建设银行(益州支行),B0FFF2MB5C,[],四川省,[],[],2,028-85325387;028-85111496,金融保险服务;银行;中国建设银行,160106
天府新谷8号2-1F楼2单元,武侯区,[],[],[],成都市,[],B0FFFO5DB0,[],"104.054828,30.586083",中国光大银行(高新支行),[],[],四川省,[],[],2,028-61682880;95595,金融保险服务;银行;中国光大银行,160113
天府二街139号中国水电大厦1层,武侯区,[],[],202,成都市,[],B0FFF05GQ4,[],"104.065512,30.550601",中国建设银行(南延线支行),B001C802XK,[],四川省,[],[],2,028-65518979,金融保险服务;银行;中国建设银行,160106
天府大道南段龙灯山路379号,双流区,[],[],[],成都市,[],B001C8OB2S,[],"104.071517,30.510721",中国工商银行(龙灯山路支行),[],[],四川省,[],[],2,028-85639795;028-85639315,金融保险服务;银行;中国工商银行,160105
通盈街48号,锦江区,[],[],[],成都市,[],B0FFGXB2MW,[],"104.103847,30.631728",兴业银行24小时自助银行(成都锦天府社区支行),[],[],四川省,[],[],2,[],金融保险服务;自动提款机;兴业银行ATM,160315
天府街中段351-359号,温江区,[],[],[],成都市,[],B0FFKMCOGF,[],"103.796649,30.687627",成都农商银行24小时自助银行(台商分理处),[],[],四川省,[],[],2,[],金融保险服务;自动提款机;农村商业银行ATM,160318
正西街47-49号,双流区,[],[],202,成都市,[],B0FFF6RP3E,[],"104.053473,30.505825",交通银行(成都华阳支行),B001C7XLAU,[],四川省,[],[],2,028-85642767;028-85638852,金融保险服务;银行;交通银行,160108
天府四街158号OCG国际中心一楼,武侯区,[],[],[],成都市,[],B0FFI9TCU3,[],"104.064159,30.543147",遂宁银行(成都分行),[],[],四川省,[],[],2,[],金融保险服务;银行;银行,160100
犀浦街道天府大道1-3号,郫都区,[],[],[],成都市,[],B001C8ORGN,[],"103.973009,30.758109",成都农商银行(西区支行),[],[],四川省,[],[],2,028-87999565,金融保险服务;银行;农村商业银行,160121
天府大道18号高新国际广场C座联通大厦1层,武侯区,[],[],[],成都市,[],B001C8O8PM,[],"104.066431,30.592539",中国建设银行(成都科技支行),[],[],四川省,[],[],2,028-82834996,金融保险服务;银行;中国建设银行,160106
天府大道北段20号高新国际广场b座,武侯区,[],[],[],成都市,[],B0FFGZUALG,[],"104.066794,30.591742",中国农业银行24小时自助银行(成都高新技术产业开发区支行),[],[],四川省,[],[],2,[],金融保险服务;自动提款机;中国农业银行ATM,160304
桂溪街道高新区天府三街新希望国际大厦B座,武侯区,[],[],202,成都市,[],B0FFHA22YX,[],"104.066972,30.546061",中国农业银行(新希望国际支行),B0FFF006BK,[],四川省,[],[],2,028-85125043;028-85156145,金融保险服务;银行;中国农业银行,160107
天府大道中段279号成达大厦,武侯区,[],[],202,成都市,[],B001C80T7V,[],"104.070320,30.551768",中国光大银行(成都世纪城支行),B0FFFZUSTB,[],四川省,[],[],2,028-85330121;95595,金融保险服务;银行;中国光大银行,160113
天府二街1290号,武侯区,[],[],[],成都市,[],B0FFF905AY,[],"104.038915,30.551605",中信银行24小时自助银行(建发・鹭公馆西北),[],[],四川省,[],[],2,[],金融保险服务;自动提款机;中信银行ATM,160308
天府大道北段1729号,武侯区,[],[],202,成都市,[],B0FFGAHA6E,[],"104.061075,30.568214",兴业银行(环球中心支行),B001C8PLZ0,[],四川省,[],[],2,95561,金融保险服务;银行;兴业银行,160118
天府大道北段1480号德商国际B座1层,武侯区,[],[],202,成都市,[],B001C8R972,[],"104.060285,30.574881",招商银行(益州大道支行),B0FFF2MB5C,[],四川省,[],[],2,028-85275089;028-82448732,金融保险服务;银行;招商银行,160109
天和西三街39号大鼎世纪广场F1,武侯区,[],[],[],成都市,[],B0HA3P24I2,[],"104.069193,30.601861",中国农业银行24小时自助银行(成都凯德天府支行),[],[],四川省,[],[],2,[],金融保险服务;自动提款机;中国农业银行ATM,160304
犀浦街道天府大道18、20、22号,郫都区,[],[],[],成都市,[],B001C8MET0,[],"103.973793,30.758186",中银富登村镇银行,[],[],四川省,[],[],2,95566,金融保险服务;银行;中国银行,160104
锦城大道1084号,武侯区,[],[],[],成都市,[],B0FFFZBTT7,[],"104.050838,30.575528",兴业银行(成都高新区支行),[],[],四川省,[],[],2,028-85321972;028-85322765,金融保险服务;银行;兴业银行,160118
益州大道中段1256号(近天府三街),武侯区,[],[],[],成都市,[],B0HBOAKVGG,[],"104.056370,30.544785",中国工商银行,[],[],四川省,[],[],2,95588,金融保险服务;银行;中国工商银行,160105
天府大道1-5,郫都区,[],[],3,成都市,[],B001C8R6ZC,[],"103.972951,30.758133",成都农商银行24小时自助银行(西区支行),B001C8ORGN,[],四川省,[],[],2,[],金融保险服务;自动提款机;农村商业银行ATM,160318
天府新区华阳大道一段333号银泰商务中心1层,双流区,[],[],202,成都市,[],B001C8MOEZ,[],"104.049509,30.512463",交通银行(成都双华支行),B001C8TY2R,[],四川省,[],[],2,028-85646343,金融保险服务;银行;交通银行,160108
湖畔路北段天府菁蓉中心B区10号楼,双流区,[],[],[],成都市,[],B0GRJRNJV3,[],"104.080515,30.403518",中国建设银行(自贸试验区分行),[],[],四川省,[],[],2,028-85858601,金融保险服务;银行;中国建设银行,160106
果堰街12号1栋附2,武侯区,[],[],[],成都市,[],B001C8O4ZQ,[],"103.993123,30.641320",成都银行ATM(竹韵天府东北),[],[],四川省,[],[],2,[],金融保险服务;自动提款机;自动提款机,160300
天府四街2806号临江苑9栋1楼临街商铺,武侯区,[],[],[],成都市,[],B0FFKVZJOU,[],"104.031376,30.542462",中国银行(成都大源支行),[],[],四川省,[],[],2,028-60633188;95566,金融保险服务;银行;中国银行,160104
高新区天府大道北段20号高新国际广场B座1层,武侯区,[],[],[],成都市,[],B001C8P6XZ,[],"104.066731,30.591616",中国农业银行(高新技术产业开发区支行),[],[],四川省,[],[],2,028-85319286,金融保险服务;银行;中国农业银行,160107
天府大道北段8号苏宁广场F1层,武侯区,[],[],201,成都市,[],B0FFLDDQTO,[],"104.066576,30.601931",成都农商银行自动提款机(苏宁广场),B001C8OES6,[],四川省,[],[],2,[],金融保险服务;自动提款机;自动提款机,160300
府城大道西段520附近,武侯区,[],[],[],成都市,[],B0FFG58ZWN,[],"104.052393,30.589843",中国建设银行ATM,[],[],四川省,[],[],2,[],金融保险服务;自动提款机;中国建设银行ATM,160303
[],武侯区,[],[],[],成都市,[],B0G3ZURDW2,[],"104.064310,30.550904",乐山市商业银行24小时自助银行(成都自贸区支行),[],[],四川省,[],[],2,[],金融保险服务;自动提款机;农村商业银行ATM,160318
天府二街333号,武侯区,[],[],[],成都市,[],B0FFG0YU9E,[],"104.059967,30.550685",长城华西银行24小时自助银行(成都分行),[],[],四川省,[],[],2,[],金融保险服务;自动提款机;自动提款机,160300
世纪城路天府软件园A5座,武侯区,[],[],202,成都市,[],B0FFH20NE0,[],"104.070992,30.550950",中国建设银行24小时自助银行(成都高新支行),B001C93C46,[],四川省,[],[],2,[],金融保险服务;自动提款机;中国建设银行ATM,160303
华新中街191-197号,双流区,[],[],[],成都市,[],B001C7UW8U,[],"104.053361,30.510127",中国银行(华新中街支行),[],[],四川省,[],[],2,028-85643632;95566,金融保险服务;银行;中国银行,160104
天府四街2808号,武侯区,[],[],[],成都市,[],B0FFLC8R3M,[],"104.031058,30.542358",中国银行24小时自助银行,[],[],四川省,[],[],2,[],金融保险服务;自动提款机;中国银行ATM,160301
紫荆西路6号附8-附18,武侯区,[],[],[],成都市,[],B001C8VK8G,[],"104.045094,30.617851",中国光大银行(成都神仙树支行),[],[],四川省,[],[],2,028-85316573;95595,金融保险服务;银行;中国光大银行,160113
天府三街102-180号,武侯区,[],[],[],成都市,[],B0FFGFNF25,[],"104.065555,30.547158",大连银行(成都金融城支行),[],[],四川省,[],[],2,028-65789055;028-65789060,金融保险服务;银行;银行,160100
天府大道18号高新国际广场C座联通大厦1层,武侯区,[],[],3,成都市,[],B001C8O8FT,[],"104.066431,30.592539",中国建设银行24小时自助银行(成都科技支行),B001C8O8PM,[],四川省,[],[],2,[],金融保险服务;自动提款机;中国建设银行ATM,160303
天府二街99号附109,武侯区,[],[],202,成都市,[],B0FFFODSLZ,[],"104.066001,30.550987",重庆银行(成都分行),B001C8P781,[],四川省,[],[],2,028-85137094;028-85283385,金融保险服务;银行;银行,160100
天府二街717号1层,武侯区,[],[],[],成都市,[],B0FFFZBJVM,[],"104.052461,30.551068",兴业银行复地社区便民金融服务点,[],[],四川省,[],[],2,028-85124649,金融保险服务;银行相关;银行相关,160200
天府二街999号伊藤洋华堂L1层,武侯区,[],[],201,成都市,[],B0FFFODRP1,[],"104.044524,30.550692",中国工商银行ATM(伊藤洋华堂),B001C8O160,[],四川省,[],[],2,[],金融保险服务;自动提款机;中国工商银行ATM,160302
天府四街158号OCG国际中心,武侯区,[],[],202,成都市,[],B0FFHONTT5,[],"104.064070,30.543093",遂宁银行(成都分行)征信查询点,B0FFFEG9I6,[],四川省,[],[],2,028-86052288,金融保险服务;银行;银行,160100
朝阳南路449-475号,彭州市,[],[],[],成都市,[],B001C09OTV,[],"103.951391,30.977401",成都银行24小时自助银行(彭州支行),[],[],四川省,[],[],2,[],金融保险服务;自动提款机;自动提款机,160300
天府二街1033号建发鹭洲里10-1-3B至,武侯区,[],[],202,成都市,[],B0FFJM49II,[],"104.040481,30.550479",中国银行(成都鹭洲里支行),B0FFH9HOAC,[],四川省,[],[],2,95566,金融保险服务;银行;中国银行,160104
天府大道中段199号(棕榈泉国际中心),武侯区,[],[],[],成都市,[],B0FFH0VEID,[],"104.069704,30.554636",哈尔滨银行24小时自助银行(成都分行),[],[],四川省,[],[],2,[],金融保险服务;自动提款机;自动提款机,160300
天府中路281-285号附近,彭州市,[],[],[],成都市,[],B0FFKXV6I0,[],"103.951488,30.978574",中国银行24小时自助银行,[],[],四川省,[],[],2,[],金融保险服务;自动提款机;中国银行ATM,160301
锦晖西一街8号,武侯区,[],[],[],成都市,[],B0FFL30K85,[],"104.067071,30.586475",中信银行ATM,[],[],四川省,[],[],2,[],金融保险服务;自动提款机;中信银行ATM,160308
白河路4段四川天府银行2楼,双流区,[],[],[],成都市,[],B0G1HCL19Z,[],"103.910098,30.567761",瑞思英语(双流白河校区),[],[],四川省,[],[],0,028-61918370,科教文化服务;培训机构;培训机构,141400
天府科华路728号,温江区,[],[],[],成都市,[],B0FFH2BHEA,[],"103.818576,30.642230",成都农商银行(金马分理处),[],[],四川省,[],[],2,028-82781063,金融保险服务;银行;农村商业银行,160121
下南大街6号天府绿洲大厦1层,青羊区,[],[],202,成都市,[],B0FFFFLGGR,[],"104.061227,30.649247",中国邮政储蓄银行ATM(天府绿洲大厦)(暂停营业),B001C7WOXI,[],四川省,[],[],2,[],金融保险服务;自动提款机;中国邮政储蓄银行ATM,160336
天府路与学园路交叉路口往西约50米,郫都区,[],[],[],成都市,[],B0H6T45TLV,[],"103.973938,30.758319",中银富登村镇银行24小时自助银行,[],[],四川省,[],[],2,[],金融保险服务;自动提款机;自动提款机,160300
天府二街333号,武侯区,[],[],[],成都市,[],B0FFHJEWX9,[],"104.060318,30.550609",长城华西银行(成都分行),[],[],四川省,[],[],2,028-61963399,金融保险服务;银行;银行,160100
