address,adname,biz_ext,biz_type,childtype,cityname,distance,id,importance,location,name,parent,photos,pname,poiweight,shopid,shopinfo,tel,type,typecode
竹篙镇竹富路6号,金堂县,[],[],[],成都市,[],B0HGFD5O1R,[],"104.752666,30.627140",食用菌科研和成果转化示范(金堂)基地,[],[],四川省,[],[],0,[],商务住宅;产业园区;产业园区,120100
崇安路,崇州市,[],[],[],成都市,[],B0HGFA4Z1C,[],"103.718919,30.622569",崇州机器人国际合作示范区,[],[],四川省,[],[],0,[],商务住宅;产业园区;产业园区,120100
[],武侯区,[],[],308,成都市,[],B0HGCCJL21,[],"104.068443,30.537417",天府软件园E区6-1号楼,B001C8RAS8,[],四川省,[],[],0,[],商务住宅;产业园区;产业园区,120100
[],武侯区,[],[],308,成都市,[],B0HGCCJL1Y,[],"104.067949,30.539049",天府软件园E区3号楼,B001C8RAS8,[],四川省,[],[],0,[],商务住宅;产业园区;产业园区,120100
[],武侯区,[],[],308,成都市,[],B0HGCCI44T,[],"104.071161,30.549064",天府软件园A区7座,B0FFL1T15M,[],四川省,[],[],0,[],商务住宅;产业园区;产业园区,120100
[],武侯区,[],[],308,成都市,[],B0HGCCI42Y,[],"104.071235,30.548508",天府软件园A区8座,B0FFFOM6NH,[],四川省,[],[],0,[],商务住宅;产业园区;产业园区,120100
[],武侯区,[],[],308,成都市,[],B0HGCCHX56,[],"104.071198,30.550229",天府软件园A区5座,B0FFFOM6NH,[],四川省,[],[],0,[],商务住宅;产业园区;产业园区,120100
[],武侯区,[],[],308,成都市,[],B0HGCCHX55,[],"104.071047,30.547959",天府软件园A区9座,B0FFFOM6NH,[],四川省,[],[],0,[],商务住宅;产业园区;产业园区,120100
[],武侯区,[],[],308,成都市,[],B0HGCCHOZL,[],"104.068430,30.539463",天府软件园E区2号楼,B001C8RAS8,[],四川省,[],[],0,[],商务住宅;产业园区;产业园区,120100
[],武侯区,[],[],308,成都市,[],B0HGC7JE1S,[],"104.068436,30.538841",天府软件园E区3号楼,B001C8RAS8,[],四川省,[],[],0,[],商务住宅;产业园区;产业园区,120100
[],彭州市,[],[],308,成都市,[],B0HG7ZLOTC,[],"103.931412,30.952263",成都国际医药港C区7幢,B0FFGIB306,[],四川省,[],[],0,[],商务住宅;产业园区;产业园区,120100
[],彭州市,[],[],308,成都市,[],B0HG7ZLH4Q,[],"103.932370,30.953363",成都国际医药港C区3幢,B0FFGIB306,[],四川省,[],[],0,[],商务住宅;产业园区;产业园区,120100
[],彭州市,[],[],308,成都市,[],B0HG7MLVD7,[],"103.932406,30.952265",成都国际医药港E区8幢,B0FFGIB306,[],四川省,[],[],0,[],商务住宅;产业园区;产业园区,120100
[],武侯区,[],[],308,成都市,[],B0HG7AKTDP,[],"104.068456,30.537480",天府软件园E区6号楼,B001C8RAS8,[],四川省,[],[],0,[],商务住宅;产业园区;产业园区,120100
G108(沪聂线),邛崃市,[],[],[],成都市,[],B0HG6NBF42,[],"103.440498,30.357099",水井坊邛崃产业链基地,[],[],四川省,[],[],0,[],商务住宅;产业园区;产业园区,120100
邛窑大道南段,邛崃市,[],[],[],成都市,[],B0HG64D3J6,[],"103.442804,30.399084",临邛文博创意产业示范区,[],[],四川省,[],[],0,[],商务住宅;产业园区;产业园区,120100
[],郫都区,[],[],[],成都市,[],B0HG47ST3A,[],"103.950224,30.798446",成都现代工业港产业功能区高品质科创空间,[],[],四川省,[],[],0,[],商务住宅;产业园区;产业园区,120100
崇阳大道白马金岸全友家居工业园,崇州市,[],[],[],成都市,[],B0HG3XH5Y5,[],"103.708948,30.632478",全友家居工业园,[],[],四川省,[],[],0,[],商务住宅;产业园区;产业园区,120100
双林路251号,成华区,[],[],[],成都市,[],B0HG3KA8WT,[],"104.097944,30.659079",成都・中关村信息谷,[],[],四川省,[],[],0,028-62612625,商务住宅;产业园区;产业园区,120100
航利集团九江工业园,武侯区,[],[],[],成都市,[],B0HG3HE9ZX,[],"104.039746,30.625526",九江工业园,[],[],四川省,[],[],0,[],商务住宅;产业园区;产业园区,120100
二环路北一段111号西南交通大学九里校区,金牛区,[],[],[],成都市,[],B0HG2S03V6,[],"104.056633,30.696118",西南交通国家大学科技园,[],[],四川省,[],[],0,[],商务住宅;产业园区;产业园区,120100
光华大道,大邑县,[],[],[],成都市,[],B0HG2CZIXE,[],"103.545521,30.542638",天邑电子信息产业园,[],[],四川省,[],[],0,[],商务住宅;产业园区;产业园区,120100
菁蓉镇红旗大道146号弘吉雅居7栋2单元1楼,郫都区,[],[],[],成都市,[],B0HG292CW4,[],"103.861891,30.780202",科园创工坊,[],[],四川省,[],[],0,028-63948251,商务住宅;产业园区;产业园区,120100
郫都区西芯大道2号,郫都区,[],[],[],成都市,[],B0HG21306J,[],"103.972976,30.730997",高新创业园,[],[],四川省,[],[],0,[],商务住宅;产业园区;产业园区,120100
双林路138号,成华区,[],[],[],成都市,[],B0HG1SRHAX,[],"104.108475,30.653465",侠客岛里科创园区(新华岛),[],[],四川省,[],[],0,[],商务住宅;产业园区;产业园区,120100
X400(石木路),新都区,[],[],[],成都市,[],B0HG0X2HKZ,[],"104.199323,30.739526",新都现代交通产业功能区,[],[],四川省,[],[],0,[],商务住宅;产业园区;产业园区,120100
[],郫都区,[],[],[],成都市,[],B0HG0O45ZZ,[],"103.838249,30.896858",欧洲月季产业园,[],[],四川省,[],[],0,[],商务住宅;产业园区;产业园区,120100
金丰路(剑龙钢材城2区),金牛区,[],[],[],成都市,[],B0HG0C0VXR,[],"104.048013,30.741732",中科院石墨烯铅碳超级电池产业基地,[],[],四川省,[],[],0,[],商务住宅;产业园区;产业园区,120100
二仙桥西路32号,成华区,[],[],[],成都市,[],B0HG0BU4GJ,[],"104.119837,30.686972",5G文创产业基地,[],[],四川省,[],[],0,[],商务住宅;产业园区;产业园区,120100
[],温江区,[],[],[],成都市,[],B0HBYOKEUI,[],"103.819695,30.714059",印象花街家庭园艺孵化中心,[],[],四川省,[],[],0,[],商务住宅;产业园区;产业园区,120100
崇阳街道全友家私崇州工业区第3期,崇州市,[],[],308,成都市,[],B0HBTM2085,[],"103.669333,30.630624",崇州工业区第3期,B0G2AN3DYC,[],四川省,[],[],0,[],商务住宅;产业园区;产业园区,120100
[],新都区,[],[],[],成都市,[],B0HBT536YI,[],"104.014742,30.848222",博诺思生产基地,[],[],四川省,[],[],0,[],商务住宅;产业园区;产业园区,120100
文柏大道与合菱东路交叉路口往西南约150米,龙泉驿区,[],[],[],成都市,[],B0HBRX8742,[],"104.229772,30.506035",汇坤高科技产业园,[],[],四川省,[],[],0,[],商务住宅;产业园区;产业园区,120100
成都市高新区益州大道中段1800号天府软件园G区,武侯区,[],[],308,成都市,[],B0HBRX7T2S,[],"104.055410,30.538731",天府软件园G区-北区,B0FFK4JH65,[],四川省,[],[],0,[],商务住宅;产业园区;产业园区,120100
晨曦大道中段,崇州市,[],[],[],成都市,[],B0HBOZJOMO,[],"103.717658,30.614130",成都智能应用产业功能区,[],[],四川省,[],[],0,[],商务住宅;产业园区;产业园区,120100
求真路与求实路交叉路口往南约50米,双流区,[],[],[],成都市,[],B0HBO5MQH5,[],"104.009841,30.468587",电子科大国家大学科技园(成都)4期B区,[],[],四川省,[],[],0,[],商务住宅;产业园区;产业园区,120100
高朋大道11号高新区科技工业园D座,武侯区,[],[],308,成都市,[],B0HBLUCHYY,[],"104.038848,30.622684",高新区科技工业园D座,B001C7WH41,[],四川省,[],[],0,[],商务住宅;产业园区;产业园区,120100
天府五街与益州大道南段交叉路口往西约100米,武侯区,[],[],308,成都市,[],B0HBL68T3G,[],"104.055364,30.537126",天府软件园G区-南区,B0FFK4JH65,[],四川省,[],[],0,[],商务住宅;产业园区;产业园区,120100
成新蒲快速路与寿高路交叉路口东北侧,蒲江县,[],[],[],成都市,[],B0HBL5BFA0,[],"103.602259,30.288849",国家现代农业产业园,[],[],四川省,[],[],0,[],商务住宅;产业园区;产业园区,120100
西航港街道临港路五段韩国城环城西路vo净水产业园,双流区,[],[],[],成都市,[],B0HBKSPNOJ,[],"104.008108,30.570013",vo净水产业园,[],[],四川省,[],[],0,[],商务住宅;产业园区;产业园区,120100
甲子东道(成都智诚西侧约50米),大邑县,[],[],[],成都市,[],B0HBKKOGXP,[],"103.542191,30.579166",新车查验区,[],[],四川省,[],[],0,[],商务住宅;产业园区;产业园区,120100
工业大道与清江大道交叉路口东北侧,蒲江县,[],[],[],成都市,[],B0HBK6N6DK,[],"103.522519,30.202141",中德(蒲江)中小企业合作区,[],[],四川省,[],[],0,[],商务住宅;产业园区;产业园区,120100
灌温路(古镇馨苑东北侧约50米),温江区,[],[],[],成都市,[],B0HBK6N55Z,[],"103.778717,30.777523",中俄花卉贸易合作产业园,[],[],四川省,[],[],0,[],商务住宅;产业园区;产业园区,120100
成双大道中段731号附近,武侯区,[],[],[],成都市,[],B0HB4C9ZFC,[],"103.971422,30.604712",成都武侯电商产业功能区,[],[],四川省,[],[],0,[],商务住宅;产业园区;产业园区,120100
[],武侯区,[],[],308,成都市,[],B0HAUHQZS7,[],"104.063592,30.540220",菁蓉汇5B-2号楼,B0FFGMLVVA,[],四川省,[],[],0,[],商务住宅;产业园区;产业园区,120100
敬成路与方元路交叉路口往东约100米,新都区,[],[],[],成都市,[],B0HATO05FR,[],"104.065236,30.772082",优生孵化基地,[],[],四川省,[],[],0,[],商务住宅;产业园区;产业园区,120100
[],武侯区,[],[],308,成都市,[],B0HARZ0CH9,[],"104.062726,30.538762",菁蓉汇8A号楼,B0FFGMLVVA,[],四川省,[],[],0,[],商务住宅;产业园区;产业园区,120100
成都市郫都区赛方路与蜀源大道交叉路口往东北约100米,郫都区,[],[],[],成都市,[],B0HAN6KB8W,[],"103.992667,30.775043",三位一体创新农业产业园,[],[],四川省,[],[],0,[],商务住宅;产业园区;产业园区,120100
西华大道593号四川电影电视学院(金牛校区)内,金牛区,[],[],[],成都市,[],B0HALZ344U,[],"104.027684,30.722307",北京电影学院电影产业孵化基地,[],[],四川省,[],[],0,[],商务住宅;产业园区;产业园区,120100
航林路二段与洪江路交叉路口东南侧,双流区,[],[],[],成都市,[],B0HAKMIJ7D,[],"103.919844,30.586903",建设国家级临空经济示范区,[],[],四川省,[],[],0,[],商务住宅;产业园区;产业园区,120100
