address,adname,biz_ext,biz_type,childtype,cityname,distance,id,importance,location,name,parent,photos,pname,poiweight,shopid,shopinfo,tel,type,typecode
郫筒街道南大街金家巷97号,郫都区,[],[],[],成都市,[],B001C8NRQK,[],"103.881212,30.808208",五花八门日用百货,[],[],四川省,[],[],0,18227695885,购物服务;购物相关场所;购物相关场所,060000
天祥街2号,成华区,[],[],[],成都市,[],B001C0A3EF,[],"104.092034,30.657177",祥和日用百货,[],[],四川省,[],[],0,[],购物服务;便民商店/便利店;便民商店/便利店,060200
古寺街100号,都江堰市,[],[],[],成都市,[],B001C8SA99,[],"103.489873,30.921865",老邻居放心超市(泰安店),[],[],四川省,[],[],0,[],购物服务;便民商店/便利店;便民商店/便利店,060200
锦晖西二街263号,武侯区,[],[],[],成都市,[],B0FFFEFBV3,[],"104.054006,30.584955",红旗超市(锦晖西二街店),[],[],四川省,[],[],0,028-85191767,购物服务;超级市场;超市,060400
一环路南一段24号四川大学望江校区学子路附近,武侯区,[],[],[],成都市,[],B001C8ZGQ3,[],"104.085425,30.629861",四川大学-学生便利店,[],[],四川省,[],[],0,18980021651,购物服务;便民商店/便利店;便民商店/便利店,060200
金耀路35号,金牛区,[],[],[],成都市,[],B001C8WBWV,[],"104.013176,30.707094",红旗超市(西岸观邸便利店),[],[],四川省,[],[],0,028-87510673,购物服务;便民商店/便利店;便民商店/便利店,060200
独柏环街386-392号,郫都区,[],[],[],成都市,[],B001C7XPJZ,[],"103.920065,30.802616",红旗超市(滨河春天一分场),[],[],四川省,[],[],0,028-87872344,购物服务;超级市场;超市,060400
经一路52号,青羊区,[],[],[],成都市,[],B0FFHQRMEC,[],"103.964760,30.692278",成飞宾馆生活超市,[],[],四川省,[],[],0,028-87415648,购物服务;便民商店/便利店;便民商店/便利店,060200
天龙北三路58号附1、5号,金牛区,[],[],[],成都市,[],B0FFHZSYVD,[],"104.098065,30.772350",红旗超市(天龙北三路便利店),[],[],四川省,[],[],0,028-83570132,购物服务;超级市场;超市,060400
一环路南一段1号附4-5号1层,武侯区,[],[],[],成都市,[],B0FFHGJPOS,[],"104.086117,30.638706",红旗超市(1139一环路南一段便利店),[],[],四川省,[],[],0,028-85455123,购物服务;超级市场;超市,060400
小南街109号3栋1层4号,青羊区,[],[],[],成都市,[],B0FFGY0HAL,[],"104.052276,30.655728",红旗超市(小南街三便利店),[],[],四川省,[],[],0,028-81817333;028-87300057,购物服务;便民商店/便利店;便民商店/便利店,060200
泰和二街333号中海翠屏湾9幢1层24号,武侯区,[],[],202,成都市,[],B001C8P4Z3,[],"104.051553,30.600259",红旗超市(翠屏湾便利店),B0FFFSPAGO,[],四川省,[],[],0,028-61687924,购物服务;便民商店/便利店;便民商店/便利店,060200
致力西街17-19号,成华区,[],[],[],成都市,[],B001C8NQX5,[],"104.116221,30.701123",红旗超市(西林豫府便利店),[],[],四川省,[],[],0,028-87877353;028-61280672,购物服务;便民商店/便利店;便民商店/便利店,060200
滨河北路15号,龙泉驿区,[],[],[],成都市,[],B001C80SZA,[],"104.277407,30.558817",红旗超市龙泉滨河北路分场,[],[],四川省,[],[],0,028-84847076;028-84859942;028-88455718,购物服务;超级市场;超市,060400
凤凰街69号-79号,温江区,[],[],[],成都市,[],B001C7U5VE,[],"103.870694,30.670765",红旗超市(温江店),[],[],四川省,[],[],0,028-82601612;028-82601080,购物服务;超级市场;超市,060400
文家场盐井村4-5组,青羊区,[],[],[],成都市,[],B001C06DLB,[],"103.925664,30.695513",红旗超市(文家场店),[],[],四川省,[],[],0,028-87075191;028-87075092,购物服务;超级市场;超市,060400
希望路1段70号(阳光花苑底商),龙泉驿区,[],[],[],成都市,[],B0FFFGMWDK,[],"104.305680,30.597238",盛乐惠超市,[],[],四川省,[],[],0,13881774054,购物服务;便民商店/便利店;便民商店/便利店,060200
学院路东段963-967号,新都区,[],[],[],成都市,[],B001C8MEYQ,[],"104.182080,30.803365",红旗超市(新都川音嘉苑店),[],[],四川省,[],[],0,028-89397014,购物服务;便民商店/便利店;便民商店/便利店,060200
槐树店和悦路193号,成华区,[],[],[],成都市,[],B0FFH0HVZC,[],"104.147996,30.656003",粞粞超市,[],[],四川省,[],[],0,15882226116,购物服务;超级市场;超市,060400
春晓路22、24、26号,青羊区,[],[],[],成都市,[],B0FFI736QR,[],"103.994020,30.667465",福乐家超市,[],[],四川省,[],[],0,18682731588,购物服务;便民商店/便利店;便民商店/便利店|购物服务;超级市场;超市,060200|060400
钟鼓楼路262,彭州市,[],[],[],成都市,[],B001C8MDPD,[],"103.777665,31.103305",万家福超市(蒲新路店),[],[],四川省,[],[],1,028-86226040;13541306029,购物服务;便民商店/便利店;便民商店/便利店,060200
隆丰镇兴府街89-93号,彭州市,[],[],[],成都市,[],B001C7YJXM,[],"103.870427,31.046624",红旗超市(彭州隆丰分场),[],[],四川省,[],[],0,028-83812388,购物服务;超级市场;超市,060400
华阳镇滨河路二段99号,双流区,[],[],[],成都市,[],B001C8MOE1,[],"104.050456,30.516475",乐购(蓝岸店),[],[],四川省,[],[],0,028-62582818;028-66453028,购物服务;超级市场;超市|购物服务;便民商店/便利店;便民商店/便利店,060400|060200
天目路172号,郫都区,[],[],[],成都市,[],B0FFGJ5TDH,[],"103.976614,30.731045",红旗超市(犀浦天目路便利店),[],[],四川省,[],[],0,028-87986260,购物服务;超级市场;超市,060400
童子街17号附1号、19号,青羊区,[],[],[],成都市,[],B0FFGSE23B,[],"104.077176,30.666218",红旗超市(童子街分场),[],[],四川省,[],[],0,028-86510765,购物服务;超级市场;超市,060400
文家大道200号附63号,青羊区,[],[],[],成都市,[],B001C90SSA,[],"103.942700,30.698675",友好多连锁超市,[],[],四川省,[],[],0,[],购物服务;便民商店/便利店;便民商店/便利店,060200
临邛镇南环路108-112号,邛崃市,[],[],[],成都市,[],B0FFF006PF,[],"103.461965,30.404646",红旗超市(邛崃南环路便利店),[],[],四川省,[],[],0,028-88791917,购物服务;便民商店/便利店;便民商店/便利店,060200
天府路中段235号,温江区,[],[],[],成都市,[],B001C8U4J6,[],"103.798639,30.689271",福万家连锁超市,[],[],四川省,[],[],0,15702843056,购物服务;超级市场;超市|购物服务;便民商店/便利店;便民商店/便利店,060400|060200
清江一街98-104,郫都区,[],[],[],成都市,[],B001C8MF5P,[],"103.864661,30.796230",鑫福超市(家家发清江放心店),[],[],四川省,[],[],0,028-87880352,购物服务;超级市场;超市,060400
九里堤南支路56号,金牛区,[],[],[],成都市,[],B001C08PO8,[],"104.058599,30.693071",福乐家超市(九里堤店),[],[],四川省,[],[],0,028-87703396,购物服务;超级市场;超市|购物服务;便民商店/便利店;便民商店/便利店,060400|060200
龙泉街道雅生路126号,龙泉驿区,[],[],[],成都市,[],B001C8NOQC,[],"104.257547,30.565359",华亿超市,[],[],四川省,[],[],0,028-84875620,购物服务;超级市场;超市,060400
广福路103号,武侯区,[],[],[],成都市,[],B0FFGFJS2H,[],"104.028301,30.639959",红旗超市(6133分店),[],[],四川省,[],[],0,028-85249167,购物服务;超级市场;超市,060400
龙泉镇长柏路36-46号,龙泉驿区,[],[],[],成都市,[],B001C08YRH,[],"104.270362,30.555849",红旗超市(龙泉七分场),[],[],四川省,[],[],0,028-84872778,购物服务;超级市场;超市,060400
政通东路新华苑商业街1209-1213号,温江区,[],[],[],成都市,[],B001C7ZYP9,[],"103.855938,30.677958",红旗超市(政通东路分场),[],[],四川省,[],[],0,028-82693025,购物服务;超级市场;超市,060400
郫筒街道宝生街211号,郫都区,[],[],[],成都市,[],B001C7ZXOM,[],"103.878669,30.812882",红旗超市(林涧上馆分场),[],[],四川省,[],[],0,028-61833028,购物服务;超级市场;超市,060400
南三环路五段188号附408-409号,武侯区,[],[],[],成都市,[],B0FFHAGPOA,[],"104.037339,30.599002",红旗超市(火车南站西路店),[],[],四川省,[],[],0,028-87877333;028-61540952,购物服务;便民商店/便利店;便民商店/便利店,060200
成康路1号附18,成华区,[],[],[],成都市,[],B0FFGLDV3T,[],"104.165592,30.696054",红旗超市成康路便利店,[],[],四川省,[],[],0,028-81148693;028-61648162,购物服务;超级市场;超市,060400
黄龙溪镇镇龙街78号,双流区,[],[],302,成都市,[],B001C8U0N9,[],"103.970300,30.318114",中国供销合作社老邻居黄龙溪二店,B001C8MSP5,[],四川省,[],[],0,028-85697769,购物服务;便民商店/便利店;便民商店/便利店,060200
西港光明社区10幢6-7单元,双流区,[],[],[],成都市,[],B001C8O6WA,[],"103.988967,30.552619",红旗超市(双流光明社区分场店),[],[],四川省,[],[],0,028-85712393,购物服务;超级市场;超市,060400
宝耳路8号宜莱顿总部基地2号1层,成华区,[],[],[],成都市,[],B001C8ODFL,[],"104.166274,30.692775",红旗超市(龙潭寺宜莱顿分场店),[],[],四川省,[],[],0,028-62020290,购物服务;超级市场;超市,060400
东大街牛王庙段100号成都商会大厦A座102室,锦江区,[],[],202,成都市,[],B0FFHHZSIJ,[],"104.092614,30.645570",全时便利店(商会大厦店),B001C8WA0P,[],四川省,[],[],0,028-81133951,购物服务;便民商店/便利店;便民商店/便利店,060200
"成成都市成华区长融东三路47,49号",成华区,[],[],[],成都市,[],B0FFF9RU86,[],"104.149826,30.656046",舞东风,[],[],四川省,[],[],0,18384163818,购物服务;便民商店/便利店;便民商店/便利店,060200
中同仁路6号附1号,青羊区,[],[],[],成都市,[],B001C7WCQB,[],"104.052010,30.667654",wowo(中同仁路店),[],[],四川省,[],[],0,13550041391,购物服务;便民商店/便利店;便民商店/便利店,060200
望平街68号,成华区,[],[],[],成都市,[],B001C7VB6T,[],"104.090560,30.654411",中国供销合作社老邻居望平店,[],[],四川省,[],[],1,028-69262490;18980780478;028-84443244,购物服务;便民商店/便利店;便民商店/便利店,060200
浆洗街18号附2号,武侯区,[],[],[],成都市,[],B0FFIR35XM,[],"104.058205,30.644138",红旗超市(浆洗街店),[],[],四川省,[],[],0,028-85561532;028-85582411,购物服务;超级市场;超市|购物服务;便民商店/便利店;便民商店/便利店,060400|060200
文庙西街99号附1号,青羊区,[],[],[],成都市,[],B001C7Y9M7,[],"104.054141,30.653881",红旗超市(文庙便利店),[],[],四川省,[],[],0,028-86155256,购物服务;便民商店/便利店;便民商店/便利店,060200
玉林北路3号附1号,武侯区,[],[],[],成都市,[],B0FFGDQAFK,[],"104.058700,30.632748",信心科联超市,[],[],四川省,[],[],0,17721954205,购物服务;便民商店/便利店;便民商店/便利店,060200
郫筒镇十字路口商贸大厦,郫都区,[],[],202,成都市,[],B001C90JV9,[],"103.886348,30.808677",吉选超市(郫都区店),B001C098Y6,[],四川省,[],[],0,028-87886777;028-87885111,购物服务;便民商店/便利店;便民商店/便利店|购物服务;超级市场;超市,060200|060400
悠方,武侯区,[],[],[],成都市,[],B0FFIB4YHA,[],"104.057779,30.583142",椰壳生活超市(悠方店),[],[],四川省,[],[],0,028-85226688,购物服务;超级市场;超市,060400
蓝岸街35号,金牛区,[],[],[],成都市,[],B0FFGP7IE1,[],"103.979554,30.717826",红旗超市(蓝岸街便利店),[],[],四川省,[],[],0,028-64643867,购物服务;超级市场;超市,060400
