address,adname,biz_ext,biz_type,childtype,cityname,distance,id,importance,location,name,parent,photos,pname,poiweight,shopid,shopinfo,tel,type,typecode
洗面桥街20号,武侯区,[],[],[],成都市,[],B0FFJGP7GJ,[],"104.055675,30.638463",国贸时尚汇,[],[],四川省,[],[],1,028-85033418,购物服务;商场;商场,060100
天府大道中段1388号,武侯区,[],[],[],成都市,[],B0FFIQFWOG,[],"104.065947,30.535510",成都红唐,[],[],四川省,[],[],0,028-60109555;028-62319098,购物服务;商场;普通商场,060102
天府二街999,武侯区,[],[],[],成都市,[],B001C8O160,[],"104.044068,30.550442",伊藤洋华堂,[],[],四川省,[],[],0,028-68611111,购物服务;商场;购物中心,060101
玉林南路15号,武侯区,[],[],[],成都市,[],B001C0ACZL,[],"104.058036,30.620563",玉林生活广场,[],[],四川省,[],[],0,[],购物服务;商场;普通商场,060102
光华大道三段1599号,温江区,[],[],202,成都市,[],B0FFF09XEV,[],"103.859751,30.683161",新光天地,B0FFM9Y4QR,[],四川省,[],[],1,18108183669,购物服务;商场;商场,060100
海峡两岸科技园新华大道199号,温江区,[],[],[],成都市,[],B0FFHMGE3M,[],"103.812694,30.649698",温江・奥特莱斯,[],[],四川省,[],[],0,028-82669885,购物服务;商场;普通商场,060102
西大街1号新城市广场1-5层,青羊区,[],[],[],成都市,[],B001C7RPK8,[],"104.057541,30.673998",百盛(西大街店),[],[],四川省,[],[],0,028-86780126;18200316926,购物服务;商场;购物中心,060101
猛追湾街94号,成华区,[],[],[],成都市,[],B0FFH04WH7,[],"104.094729,30.662087",成都339,[],[],四川省,[],[],0,028-84350339,购物服务;商场;购物中心,060101
光华大道三段1588号合生汇B1,温江区,[],[],202,成都市,[],B0FFHJDDU0,[],"103.86337,30.685464",伊藤洋华堂,B0G2HHPMPI,[],四川省,[],[],0,028-61712111,购物服务;商场;普通商场,060102
一环路西北段188号,郫都区,[],[],[],成都市,[],B0FFGMM5IB,[],"103.887814,30.811162",百伦广场(郫都店),[],[],四川省,[],[],1,028-64142898,购物服务;商场;购物中心,060101
五块石西路1号,金牛区,[],[],[],成都市,[],B0FFF5TSH1,[],"104.065541,30.709961",龙湖成都北城天街,[],[],四川省,[],[],0,028-83116677,购物服务;商场;购物中心,060101
益州大道南端滨河路二段169号(假日酒店旁),双流区,[],[],308,成都市,[],B0FFF3LLL0,[],"104.053717,30.522644",戛纳湾・印像,B0FFJDO2OW,[],四川省,[],[],0,[],购物服务;商场;商场,060100
红星路3段99号,锦江区,[],[],[],成都市,[],B001C8X4RV,[],"104.079683,30.653141",银石广场,[],[],四川省,[],[],0,[],购物服务;商场;购物中心,060101
东大街上东大街段133号,锦江区,[],[],[],成都市,[],B001C7UMZ4,[],"104.073853,30.654982",壹购潮流广场,[],[],四川省,[],[],1,028-86660999,购物服务;商场;购物中心,060101
红星路3段10号附5号,锦江区,[],[],[],成都市,[],B0FFGNM1BX,[],"104.079552,30.655588",第一城,[],[],四川省,[],[],0,[],购物服务;商场;商场,060100
海椒市街4号,锦江区,[],[],308,成都市,[],B001C8QJJS,[],"104.102613,30.640588",东方新城生活广场,B001C8MQEK,[],四川省,[],[],0,[],购物服务;商场;购物中心,060101
东紫路618号,成华区,[],[],[],成都市,[],B0FFGCDYPI,[],"104.110373,30.714181",东林生活广场,[],[],四川省,[],[],0,17681826494,购物服务;商场;购物中心,060101
犀团路1801号,郫都区,[],[],[],成都市,[],B0FFGLC9YQ,[],"103.967636,30.795241",和润生活广场,[],[],四川省,[],[],0,[],购物服务;商场;普通商场,060102
日月大道一段978号万达广场中庭处1-2层,青羊区,[],[],201,成都市,[],B0FFHJ33OI,[],"103.973448,30.675483",苏宁易购(青羊万达广场店),B0FFFZPMAL,[],四川省,[],[],1,18919560911,购物服务;家电电子卖场;苏宁,060304
解放路二段凤凰大厦南侧(近北门大桥),金牛区,[],[],[],成都市,[],B0FFGY9212,[],"104.078398,30.679878",城隍庙电子市场,[],[],四川省,[],[],0,028-83334296,购物服务;家电电子卖场;综合家电商场|购物服务;家电电子卖场;数码电子,060301|060306
东街139号,大邑县,[],[],[],成都市,[],B0FFF0070T,[],"103.52345,30.586642",百伦新宸百货(大邑店),[],[],四川省,[],[],0,028-88287986;13438311532;028-88212380,购物服务;商场;普通商场,060102
五块石东一路与五块石路交汇处南50米,金牛区,[],[],[],成都市,[],B001C7WCY0,[],"104.066988,30.706535",五块石电器市场,[],[],四川省,[],[],0,028-83155517;13550155517,购物服务;家电电子卖场;综合家电商场,060301
龙泉街道建设路61号,龙泉驿区,[],[],[],成都市,[],B001C7UWND,[],"104.272302,30.560689",摩尔华盛购物中心,[],[],四川省,[],[],0,028-84848508,购物服务;商场;普通商场,060102
天泰路338号成都高新豪生大酒店4楼,武侯区,[],diner,202,成都市,[],B0FFFA7OJH,[],"104.069001,30.590493",银座,B001C8O7UW,[],四川省,[],[],0,028-82829999;028-82820289,餐饮服务;餐饮相关场所;餐饮相关,050000
东华一路与十里店路交汇处北100米,成华区,[],[],[],成都市,[],B0FFG9VIV1,[],"104.143093,30.680185",中国铁建广场,[],[],四川省,[],[],0,028-65183333,购物服务;商场;购物中心,060101
斑竹园镇鸦雀口村斑大路213号,新都区,[],[],[],成都市,[],B0FFFADMU2,[],"104.051638,30.794076",银贝生活广场,[],[],四川省,[],[],0,[],购物服务;商场;普通商场,060102
南熏大道三段139号,温江区,[],[],[],成都市,[],B0FFF2L5EW,[],"103.829209,30.680842",商会大厦商业中心,[],[],四川省,[],[],0,[],购物服务;商场;购物中心,060101
丽都路531号1栋附315号,武侯区,[],[],[],成都市,[],B0FFHUGI3P,[],"104.032769,30.622657",中粮香颂丽都悦街,[],[],四川省,[],[],0,[],购物服务;商场;商场,060100
顺城大街289号,青羊区,[],[],2,成都市,[],B0HBNYWHY9,[],"104.069653,30.665551",富力天汇购物广场,B001C91XRP,[],四川省,[],[],0,028-86515255;028-61322266,购物服务;商场;普通商场,060102
方元路55号汇融广场二楼,新都区,[],[],202,成都市,[],B0FFL7CVUW,[],"104.063248,30.765035",三福,B0FFK2F8E2,[],四川省,[],[],0,[],购物服务;购物相关场所;购物相关场所,060000
锦城大道666号奥克斯广场西区B1-4层,武侯区,[],diner,201,成都市,[],B0FFGALCMS,[],"104.060821,30.576199",天虹百货高新店美食广场,B0FFHOJC0S,[],四川省,[],[],0,028-87929051,餐饮服务;中餐厅;中餐厅,050100
青城路,都江堰市,[],[],[],成都市,[],B0FFIN2U5M,[],"103.630144,30.981903",悦熙广场,[],[],四川省,[],[],0,13880228553,购物服务;商场;普通商场,060102
双成一路与双成二路交叉口西南100米,成华区,[],[],[],成都市,[],B0H64RJ7D7,[],"104.115236,30.647733",喜庭海鲜自助星标店,[],[],四川省,[],[],1,028-88900909,购物服务;购物相关场所;购物相关场所,060000
二环路北一段10号,金牛区,[],[],202,成都市,[],B0GKO58GPN,[],"104.04546,30.693001",印象汇,B0FFJL586H,[],四川省,[],[],1,028-87656258,购物服务;商场;普通商场,060102
光华大道三段1588号,温江区,[],[],[],成都市,[],B0G2HHPMPI,[],"103.863369,30.685469",合生汇,[],[],四川省,[],[],0,028-65001818,购物服务;商场;普通商场,060102
玉堂街道宝瓶社区至臻路1号,都江堰市,[],[],[],成都市,[],B0FFM4LCRE,[],"103.62347,30.955839",融创茂,[],[],四川省,[],[],0,028-60116711,购物服务;商场;购物中心,060101
都江堰大道106号,都江堰市,[],[],[],成都市,[],B0FFKXETYF,[],"103.634699,30.989813",成都都江堰大融城,[],[],四川省,[],[],0,028-62179001,购物服务;商场;购物中心,060101
临港路一段32号(西南民大),双流区,[],[],[],成都市,[],B0FFK69FF7,[],"103.975594,30.565652",东航・云锦天地MU PLAZA,[],[],四川省,[],[],0,028-85785515;028-85768005,购物服务;商场;普通商场,060102
方元路55号,新都区,[],[],[],成都市,[],B0FFK2F8E2,[],"104.062743,30.765209",汇融商场,[],[],四川省,[],[],0,028-89366688,购物服务;商场;普通商场,060102
银杏路888号,郫都区,[],[],[],成都市,[],B0FFIPSYR8,[],"103.839348,30.809831",佛罗伦萨小镇名品奥特莱斯,[],[],四川省,[],[],0,028-62470551,购物服务;商场;购物中心|购物服务;商场;普通商场,060101|060102
双庆路8号(近万年场),成华区,[],[],[],成都市,[],B0FFHXKX9F,[],"104.114840,30.648600",万象城南庭,[],[],四川省,[],[],0,028-86306777,购物服务;商场;商场,060100
团结镇靖源下街151号,郫都区,[],[],[],成都市,[],B001C80MUG,[],"103.981518,30.816215",万家鸿购物中心(新犀路),[],[],四川省,[],[],0,[],购物服务;商场;购物中心,060101
[],锦江区,[],[],[],成都市,[],B001C94WGH,[],"104.096492,30.621046",伊藤洋华堂(锦华店),[],[],四川省,[],[],0,028-84192000,购物服务;商场;商场,060100
清洋大街与协和路交叉路口往西约100米,彭州市,[],[],[],成都市,[],B0FFJBQQ5D,[],"103.944232,30.932925",置信逸都城,[],[],四川省,[],[],0,028-83833515,购物服务;商场;普通商场,060102
唐安东路368号,崇州市,[],[],[],成都市,[],B0FFG0P5MX,[],"103.689937,30.631521",圣沅・唐人街购物中心,[],[],四川省,[],[],0,18190843955,购物服务;商场;普通商场,060102
成都市郫都区望丛西路197号,郫都区,[],[],[],成都市,[],B0FFI6TZ87,[],"103.877971,30.814066",享买乐购物中心,[],[],四川省,[],[],0,[],购物服务;超级市场;超市,060400
春熙路九龙广场,锦江区,[],[],[],成都市,[],B001C7SHOF,[],"104.072654,30.657413",成都九龙广场,[],[],四川省,[],[],1,028-68551111,购物服务;商场;购物中心,060101
总府路15号,锦江区,[],[],[],成都市,[],B001C8N4NW,[],"104.079752,30.658515",王府井百货(总府路店),[],[],四川省,[],[],0,028-86621188,购物服务;商场;购物中心,060101
[],武侯区,[],[],[],成都市,[],B001C8O7O2,[],"103.983767,30.596827",武侯皮革城(鞋都南路),[],[],四川省,[],[],0,028-85043111,购物服务;商场;普通商场,060102
淳化街16-24号,双流区,[],[],[],成都市,[],B001C7V69K,[],"103.923878,30.573044",弘民商城,[],[],四川省,[],[],0,[],购物服务;商场;普通商场,060102
