address,adname,biz_ext,biz_type,childtype,cityname,distance,id,importance,location,name,parent,photos,pname,poiweight,shopid,shopinfo,tel,type,typecode
新中路77号,新都区,[],[],[],成都市,[],B0FFFJXACG,[],"104.160914,30.824826",懿润百货(新都店),[],[],四川省,[],[],0,028-83983777,购物服务;商场;普通商场,060102
天府大道北段1700号,武侯区,[],[],[],成都市,[],B001C8PLZ0,[],"104.063402,30.568744",环球中心,[],[],四川省,[],[],0,028-62732888,购物服务;商场;购物中心,060101
唐安西路177号附1,崇州市,[],[],[],成都市,[],B0FFGIQ6LO,[],"103.673197,30.631931",三羊开泰百货(唐安西路),[],[],四川省,[],[],0,028-82311556;13688196366,购物服务;商场;普通商场,060102
北星大道二段877号,新都区,[],[],[],成都市,[],B001C8RHCE,[],"104.082359,30.819626",成都海宁皮革城,[],[],四川省,[],[],0,028-83025566;028-83975588,购物服务;商场;普通商场,060102
万泰街6号,金堂县,[],[],[],成都市,[],B0FFHGMISZ,[],"104.417075,30.852627",金堂万达广场,[],[],四川省,[],[],1,028-62200088;18080033604,购物服务;商场;购物中心,060101
苏坡东路12号,青羊区,[],[],[],成都市,[],B001C7VLY7,[],"104.00041,30.67471",西单商场,[],[],四川省,[],[],0,028-87396655;028-87396701,购物服务;商场;普通商场,060102
长荣路66号,武侯区,[],[],[],成都市,[],B0FFH5K1X7,[],"104.079332,30.6132",泛悦Mall・科华店,[],[],四川省,[],[],1,028-65586888,购物服务;商场;普通商场,060102
新怡花园B区红星路南延线和观东二街交叉路口,双流区,[],[],[],成都市,[],B0FFIL91GF,[],"104.082189,30.529516",新怡商业广场,[],[],四川省,[],[],0,[],购物服务;商场;普通商场,060102
光华大道三段花土路936号,温江区,[],[],[],成都市,[],B0FFGHSNK4,[],"103.878778,30.671055",中国西部文化城商业广场,[],[],四川省,[],[],0,[],购物服务;购物相关场所;购物相关场所,060000
合作路89号,郫都区,[],[],[],成都市,[],B0FFFEYPEL,[],"103.921598,30.751162",龙湖成都时代天街,[],[],四川省,[],[],0,028-66269500,购物服务;商场;购物中心,060101
永安路,龙泉驿区,[],[],[],成都市,[],B0FFHTXH9T,[],"104.269951,30.566564",龙泉驿万达广场,[],[],四川省,[],[],0,028-64863738,购物服务;商场;购物中心,060101
大面街道蒲草路1796-1798号,龙泉驿区,[],[],[],成都市,[],B0FFIXZ5JD,[],"104.197239,30.586584",明柚购物中心,[],[],四川省,[],[],0,[],购物服务;超级市场;超市,060400
华泰路3号,成华区,[],[],[],成都市,[],B0FFF006YS,[],"104.167063,30.69645",天泽・恒盛广场,[],[],四川省,[],[],0,[],购物服务;商场;购物中心,060101
正因小区同福路56号,新都区,[],[],[],成都市,[],B0FFFGNB7F,[],"104.189953,30.824023",大榕华购物中心,[],[],四川省,[],[],0,[],购物服务;商场;购物中心,060101
东升街道星空路二段399号,双流区,[],[],[],成都市,[],B0FFGHQETT,[],"103.926522,30.596199",双流万达广场,[],[],四川省,[],[],1,028-67672129,购物服务;商场;购物中心,060101
大面街道青台山路,龙泉驿区,[],[],[],成都市,[],B0FFHS21SN,[],"104.199649,30.575163",龙城一号商业广场,[],[],四川省,[],[],0,028-87865555,购物服务;商场;购物中心,060101
红光大道226号,郫都区,[],[],[],成都市,[],B0FFG9M5SH,[],"103.936946,30.777701",百维广场,[],[],四川省,[],[],0,028-87880503;028-86108888,购物服务;商场;购物中心,060101
簇桥街道沈家桥村6-7-10组(成双大道与文盛路交汇处西南角),武侯区,[],[],[],成都市,[],B0FFGAUNSH,[],"104.000965,30.60096",蓝润广场,[],[],四川省,[],[],0,[],购物服务;商场;购物中心,060101
剑南大道南段2736号,双流区,[],[],[],成都市,[],B0FFJ2RDU4,[],"104.033069,30.49269",中海右岸环宇坊,[],[],四川省,[],[],0,028-65790255,购物服务;商场;普通商场,060102
文星正街456号19,双流区,[],[],[],成都市,[],B0FFF08B7Z,[],"103.989507,30.543536",星虹购物广场,[],[],四川省,[],[],0,028-84262458;028-84266428,购物服务;商场;普通商场,060102
枫树街2号,锦江区,[],[],[],成都市,[],B0FFGX1LOR,[],"104.136345,30.595687",卓锦曼购中心,[],[],四川省,[],[],1,028-86613355,购物服务;商场;购物中心,060101
双楠大道白衣上街177号,双流区,[],[],[],成都市,[],B0FFG1OEDK,[],"103.912965,30.596062",优品道广场(城南店),[],[],四川省,[],[],0,028-62150588;028-62150566;4000361117,购物服务;商场;购物中心,060101
犀浦镇恒山大道恒山南街278号,郫都区,[],[],[],成都市,[],B001C807YM,[],"103.961858,30.754305",鑫大百盛购物中心,[],[],四川省,[],[],0,028-87851456;13908069158,购物服务;商场;购物中心,060101
中环路一品天下大街段与茶店子路交叉口北100米,金牛区,[],[],308,成都市,[],B0FFHRV764,[],"104.031927,30.697885",首开・龙湖西宸天街,B0FFK56HJG,[],四川省,[],[],1,028-62229688,购物服务;商场;购物中心,060101
一环路北三段1号,金牛区,[],[],[],成都市,[],B001C80TAL,[],"104.074667,30.686615",成都金牛万达广场,[],[],四川省,[],[],0,028-65038888,购物服务;商场;购物中心,060101
盛和一路99号,武侯区,[],[],308,成都市,[],B0FFHKCDQW,[],"104.062914,30.601678",凯德广场,B0G2CZ89KL,[],四川省,[],[],0,[],购物服务;商场;购物中心,060101
剑南大道中段998号,武侯区,[],[],[],成都市,[],B0FFF9UNIK,[],"104.044924,30.550087",世豪广场,[],[],四川省,[],[],0,028-85118511;028-86033888,购物服务;商场;购物中心,060101
永康路17号,武侯区,[],[],[],成都市,[],B001C8QJIX,[],"103.980611,30.644908",正成广场,[],[],四川省,[],[],0,028-85548522,购物服务;商场;购物中心,060101
都江堰大道211号,都江堰市,[],[],[],成都市,[],B001C8NVGJ,[],"103.636519,30.9913",百伦广场(都江堰店),[],[],四川省,[],[],0,028-87135578,购物服务;商场;购物中心,060101
天府二街1033号(高新伊藤旁),武侯区,[],[],[],成都市,[],B0FFH9HOAC,[],"104.041669,30.549861",建发・鹭洲里,[],[],四川省,[],[],0,028-86055336;028-88828888,购物服务;商场;购物中心,060101
[],金牛区,[],[],[],成都市,[],B0FFGILHPD,[],"103.978985,30.722893",中海国际购物公园,[],[],四川省,[],[],0,028-89993813;028-87657258,购物服务;商场;购物中心,060101
武侯大道顺江段77号,武侯区,[],[],[],成都市,[],B0FFIOT7GT,[],"103.988576,30.626218",吾悦广场(武侯店),[],[],四川省,[],[],0,028-65235888;028-62535888,购物服务;商场;购物中心,060101
群兴路139号,郫都区,[],[],[],成都市,[],B0FFF4811J,[],"103.995036,30.75747",林湾摩尔购物中心,[],[],四川省,[],[],0,028-86101188,购物服务;商场;购物中心,060101
建设北路三段2号,成华区,[],[],[],成都市,[],B001C8R8S8,[],"104.109615,30.674993",龙湖三千集天街,[],[],四川省,[],[],0,028-84428977,购物服务;商场;普通商场,060102
中纱帽街8号,锦江区,[],[],[],成都市,[],B0FFF6X49V,[],"104.083809,30.653358",成都远洋太古里,[],[],四川省,[],[],1,028-65965000;028-65963000,购物服务;商场;购物中心,060101
灵龙路1号月U广场,龙泉驿区,[],[],202,成都市,[],B0FFFYHTFT,[],"104.185215,30.652084",鑫大百盛购物中心,B0FFFCUUXV,[],四川省,[],[],0,028-84847537;18781941667,购物服务;商场;购物中心,060101
唐安西路292,崇州市,[],[],[],成都市,[],B001C0A5WV,[],"103.672761,30.632916",新时代商城(唐安西路),[],[],四川省,[],[],0,[],购物服务;商场;普通商场,060102
大悦路518号,武侯区,[],[],[],成都市,[],B0FFFACY1X,[],"104.011166,30.626041",成都大悦城,[],[],四川省,[],[],0,028-65168886,购物服务;商场;购物中心,060101
草金路南段299号,武侯区,[],[],[],成都市,[],B001C95ALM,[],"103.970988,30.60951",上风港时代广场,[],[],四川省,[],[],0,028-66331288,购物服务;商场;购物中心,060101
成龙路街道水杉街201号,锦江区,[],[],308,成都市,[],B0FFFCRFXV,[],"104.126931,30.604265",蓝谷地里外商业广场,B0FFH5YAD5,[],四川省,[],[],0,[],购物服务;商场;普通商场,060102
光华北三路55号,青羊区,[],[],[],成都市,[],B0FFFOD7KI,[],"103.961909,30.670397",鹏瑞利青羊广场,[],[],四川省,[],[],0,028-86695114;028-81701777;028-86696566,购物服务;商场;购物中心,060101
聚龙路988号,武侯区,[],[],[],成都市,[],B0FFGWUOC3,[],"103.998678,30.620703",武侯万达广场,[],[],四川省,[],[],0,028-61692200,购物服务;商场;购物中心,060101
成华大道龙潭路33号,成华区,[],[],[],成都市,[],B0FFIG50DC,[],"104.165654,30.704231",星悦广场,[],[],四川省,[],[],0,028-67676565,购物服务;商场;购物中心|购物服务;商场;普通商场,060101|060102
马超东路266号,新都区,[],[],[],成都市,[],B001C8R6S5,[],"104.179377,30.810592",新城市购物广场,[],[],四川省,[],[],0,[],购物服务;商场;购物中心,060101
人民中路一段天府广场B1层,青羊区,[],[],[],成都市,[],B001C91XRF,[],"104.065950,30.657408",今站购物中心,[],[],四川省,[],[],0,028-86263201;028-86263101,购物服务;商场;普通商场,060102
东大街699号,郫都区,[],[],[],成都市,[],B001C8TQO5,[],"103.89756,30.800693",恒创太平洋购物中心,[],[],四川省,[],[],0,028-61833138,购物服务;商场;购物中心,060101
凤凰西七路5号,青白江区,[],[],[],成都市,[],B0FFGZ04N0,[],"104.255364,30.891825",IMC美程广场,[],[],四川省,[],[],0,028-83666366,购物服务;商场;购物中心|购物服务;商场;普通商场,060101|060102
成都市高新区交子大道277号,武侯区,[],[],[],成都市,[],B0FFHL377P,[],"104.056966,30.581552",成都中海环宇荟,[],[],四川省,[],[],0,028-85121353,购物服务;商场;普通商场,060102
优品道广场C区1层,青羊区,[],[],308,成都市,[],B001C7WUZ9,[],"104.007196,30.664344",城西优品道广场,B0FFFCK110,[],四川省,[],[],1,028-81701777,购物服务;商场;普通商场,060102
中和街道学苑路260号,双流区,[],[],[],成都市,[],B0FFH4A9DY,[],"104.093146,30.552841",香榭购物中心,[],[],四川省,[],[],0,[],购物服务;商场;购物中心,060101
