address,adname,biz_ext,biz_type,childtype,cityname,distance,id,importance,location,name,parent,photos,pname,poiweight,shopid,shopinfo,tel,type,typecode
创智北环路与创智路交汇处,郫都区,[],[],[],成都市,[],B0FFIPSUBE,[],"103.896358,30.79238",成都海骏达城,[],[],四川省,[],[],0,028-87962666,购物服务;商场;普通商场,060102
科华中路58号王府井购物中心1层,武侯区,[],[],202,成都市,[],B0FFIADMEQ,[],"104.075970,30.618135",超市(王府井购物中心店),B001C80PPV,[],四川省,[],[],0,[],购物服务;购物相关场所;购物相关场所,060000
一环路南二段17号1楼128-129号,武侯区,[],[],[],成都市,[],B0FFI9E5UQ,[],"104.067396,30.633977",成都强盛华高清投影仪专卖店,[],[],四川省,[],[],1,13550142370,购物服务;家电电子卖场;数码电子,060306
锦屏大道7号,大邑县,[],[],[],成都市,[],B0FFI1VFYV,[],"103.545625,30.594689",博美商业广场,[],[],四川省,[],[],0,028-88337199,购物服务;商场;普通商场,060102
新泰东路71号,新都区,[],[],[],成都市,[],B0FFI0PEXX,[],"104.172194,30.821675",7.1国际广场,[],[],四川省,[],[],0,028-82379999,购物服务;商场;购物中心|商务住宅;商务住宅相关;商务住宅相关,060101|120000
人民北路二段198-附7号附近,金牛区,[],[],308,成都市,[],B0FFI01HRA,[],"104.073675,30.691420",太阳广场荷花池第十二交易区,B001C08W7X,[],四川省,[],[],0,[],购物服务;商场;普通商场|生活服务;生活服务场所;生活服务场所,060102|070000
人民北路二段198号附8号,金牛区,[],[],308,成都市,[],B0FFI01HOE,[],"104.073670,30.691497",太阳广场A区,B001C08W7X,[],四川省,[],[],0,[],购物服务;商场;普通商场,060102
北站东一路26-28号,金牛区,[],[],[],成都市,[],B0FFHOEH98,[],"104.077721,30.692147",金牛之心・荷花池广场,[],[],四川省,[],[],0,028-82366666;028-82377777,购物服务;购物相关场所;购物相关场所,060000
成都市郫都区福梓西街与龙梓街交叉路口往西约50米(四季中心),郫都区,[],[],308,成都市,[],B0FFHNCJNT,[],"103.987706,30.749456",四季中心东广场,B0FFF08Q5A,[],四川省,[],[],0,[],购物服务;商场;普通商场,060102
"S101省道,政府北路(路口)东150米",青白江区,[],[],[],成都市,[],B0FFHKXL37,[],"104.254534,30.891107",生态商业广场,[],[],四川省,[],[],0,[],购物服务;商场;普通商场,060102
高新区天府大道北段1700号,武侯区,[],[],308,成都市,[],B0FFH9D60C,[],"104.060930,30.570530",环球中心W1区,B001C8PLZ0,[],四川省,[],[],0,[],商务住宅;楼宇;商务写字楼,120201
文翁路139号附2(中国银行旁),青羊区,[],[],[],成都市,[],B0FFH95O2K,[],"104.060009,30.65365",力迅领筑国际公寓,[],[],四川省,[],[],0,028-61313111;028-86136952,商务住宅;楼宇;商务写字楼|商务住宅;住宅区;住宅小区,120201|120302
北站东二路23号,金牛区,[],[],308,成都市,[],B0FFGZ0WT0,[],"104.079639,30.690864",大成市场2区,B001C7XBCH,[],四川省,[],[],1,[],购物服务;商场;普通商场,060102
新民环路西南段1号附近,郫都区,[],[],[],成都市,[],B0FFGMCCJW,[],"103.862513,30.874784",恒升昌,[],[],四川省,[],[],0,[],购物服务;商场;购物中心,060101
大弯东路与大弯中路交叉口东150米,青白江区,[],[],[],成都市,[],B0FFGM1VY1,[],"104.270616,30.877389",天美广场,[],[],四川省,[],[],0,[],购物服务;商场;普通商场,060102
府城大道中段88号,武侯区,[],[],308,成都市,[],B0FFGIT0C1,[],"104.06523,30.589898",九方购物中心,B0G2US2YED,[],四川省,[],[],0,028-85153710,购物服务;商场;购物中心,060101
竹园大道302-308号附近,新都区,[],[],[],成都市,[],B0FFGIQCB3,[],"104.071887,30.818863",希尼亚大厦,[],[],四川省,[],[],0,[],商务住宅;楼宇;商务写字楼|购物服务;服装鞋帽皮具店;服装鞋帽皮具店,120201|061100
天彭镇团结街161号,彭州市,[],[],[],成都市,[],B0FFGIERBY,[],"103.946426,30.993636",汇众广场,[],[],四川省,[],[],0,[],购物服务;商场;普通商场,060102
回龙环路81号5栋107,新都区,[],[],[],成都市,[],B0FFGI0D1H,[],"104.157845,30.742436",旺玛特购物广场(回龙店),[],[],四川省,[],[],0,[],购物服务;商场;普通商场,060102
解放路一段88号,金牛区,[],[],[],成都市,[],B0FFGB8GDI,[],"104.084968,30.686516",瑞升・城北橡树林,[],[],四川省,[],[],0,028-62563333,商务住宅;楼宇;商住两用楼宇,120203
佳灵路太平园家私广场d区d座号南桥2路,武侯区,[],[],[],成都市,[],B0FFGB4BRD,[],"104.017289,30.618674",富民商场,[],[],四川省,[],[],0,[],购物服务;购物相关场所;购物相关场所,060000
北站东二路荷花池宏正广场,金牛区,[],[],308,成都市,[],B0FFGALQE7,[],"104.078620,30.694084",荷花池宏正广场东2区,B001C8QJJX,[],四川省,[],[],0,[],购物服务;商场;普通商场,060102
双成二路38号,成华区,[],[],308,成都市,[],B0FFGAJCDG,[],"104.115235,30.647713",华润万象城2期,B001C8O6UD,[],四川省,[],[],0,[],购物服务;商场;购物中心,060101
荷花南街附近,简阳市,[],[],[],成都市,[],B0FFG1FNCY,[],"104.501739,30.49575",天运自选商场,[],[],四川省,[],[],0,028-27723750,购物服务;便民商店/便利店;便民商店/便利店,060200
华阳街道华府大道一段益州国际广场一楼艾美家,双流区,[],[],202,成都市,[],B0FFFZC0YQ,[],"104.055218,30.527614",圣沅・益州国际广场,B0FFIWJZF5,[],四川省,[],[],1,[],购物服务;商场;购物中心,060101
金阳美景8栋1单元12楼1号,金堂县,[],[],[],成都市,[],B0FFFYFP5O,[],"104.404268,30.851150",金阳商业广场,[],[],四川省,[],[],0,028-84922222,购物服务;商场;普通商场,060102
郫都区港北二路一段551号附1号东北方向90米,郫都区,[],[],[],成都市,[],B0FFFVR5J0,[],"103.938933,30.808019",古龙生活广场,[],[],四川省,[],[],0,[],购物服务;商场;普通商场,060102
双庆路8号华润万象城商场B馆1层106号,成华区,[],[],202,成都市,[],B0FFFV1SA8,[],"104.115447,30.649376",Juicy Couture成都万象城,B001C8O6UD,[],四川省,[],[],1,028-86157731,购物服务;服装鞋帽皮具店;服装鞋帽皮具店,061100
正西街57号附26,新都区,[],[],[],成都市,[],B0FFFQ20LN,[],"104.017179,30.873054",金山假日广场,[],[],四川省,[],[],0,[],购物服务;商场;普通商场,060102
教育街夏家巷22号附9号,青白江区,[],[],[],成都市,[],B0FFFE8K86,[],"104.24733,30.880598",荣生购物广场,[],[],四川省,[],[],0,[],购物服务;商场;普通商场,060102
棉花街与永丰路交叉口东100米,邛崃市,[],[],[],成都市,[],B0FFFDYYY7,[],"103.46514,30.417223",万裕摩登时代,[],[],四川省,[],[],0,028-88760077,商务住宅;楼宇;商住两用楼宇,120203
聚龙路68号摩尔国际a座,武侯区,[],[],[],成都市,[],B0FFFABNG4,[],"104.004269,30.614927",摩尔车汇广场,[],[],四川省,[],[],0,[],商务住宅;楼宇;商务写字楼,120201
青和里南段33号,锦江区,[],[],[],成都市,[],B0FFFAB71X,[],"104.090373,30.643326",阳光新业中心,[],[],四川省,[],[],0,028-62508871,商务住宅;楼宇;商住两用楼宇,120203
长顺下街139号,青羊区,[],[],[],成都市,[],B0FFFA7RDV,[],"104.056733,30.672004",天越大厦,[],[],四川省,[],[],0,028-82000882,商务住宅;楼宇;商住两用楼宇,120203
成华街18附3号,金牛区,[],[],[],成都市,[],B0FFF9VJ5H,[],"104.077761,30.680275",金粤电器城,[],[],四川省,[],[],0,15928443876,购物服务;家电电子卖场;综合家电商场,060301
香港城121号(政府街与大古井街交汇处),简阳市,[],[],[],成都市,[],B0FFF2ZGXV,[],"104.550169,30.390259",香港城,[],[],四川省,[],[],1,[],商务住宅;楼宇;商住两用楼宇,120203
寿安镇兴隆街84号,温江区,[],[],[],成都市,[],B0FFF2MVA2,[],"103.752609,30.812362",银河商场,[],[],四川省,[],[],0,[],购物服务;商场;普通商场,060102
红高路88号,郫都区,[],[],308,成都市,[],B001C951AK,[],"103.939794,30.773944",龙城国际商业广场,B001C950O9,[],四川省,[],[],0,028-87865555,购物服务;商场;普通商场,060102
琉璃东街258号,锦江区,[],[],308,成都市,[],B001C92D7J,[],"104.096557,30.618565",央湖名邸2期,B0FFGCG985,[],四川省,[],[],0,[],购物服务;商场;购物中心,060101
东风路26号,成华区,[],[],[],成都市,[],B001C90PQH,[],"104.095496,30.650741",未来中心,[],[],四川省,[],[],0,028-83298888,购物服务;商场;购物中心,060101
广场路北四段10号,郫都区,[],[],[],成都市,[],B001C90M3L,[],"103.961476,30.793426",中铁银杏广场,[],[],四川省,[],[],0,[],商务住宅;楼宇;商住两用楼宇,120203
[],成华区,[],[],[],成都市,[],B001C8YPQ0,[],"104.094152,30.712612",荆竹生活广场,[],[],四川省,[],[],0,[],购物服务;商场;普通商场,060102
南环路110号,邛崃市,[],[],[],成都市,[],B001C8WBK4,[],"103.460533,30.410150",蜀涛商业广场,[],[],四川省,[],[],0,028-88777168,购物服务;购物相关场所;购物相关场所,060000
二环路东五段239号华润广场,锦江区,[],[],308,成都市,[],B001C8WA9A,[],"104.090089,30.620206",华润广场A座,B0FFFEY448,[],四川省,[],[],0,[],商务住宅;楼宇;商务写字楼,120201
八角井街263西北方向60米,龙泉驿区,[],[],[],成都市,[],B001C8URTO,[],"104.327074,30.639833",八角井商业广场,[],[],四川省,[],[],0,[],购物服务;商场;普通商场,060102
青江北路3号附近,青白江区,[],[],[],成都市,[],B001C8UABB,[],"104.257660,30.878485",玫瑰广场,[],[],四川省,[],[],0,[],购物服务;商场;普通商场,060102
龙泉街道龙泉镇中街36号,龙泉驿区,[],[],[],成都市,[],B001C8T3JM,[],"104.273331,30.560098",光业商城,[],[],四川省,[],[],0,[],购物服务;商场;普通商场,060102
蜀西路46号,金牛区,[],[],[],成都市,[],B001C8R83D,[],"103.990908,30.716299",盛大国际,[],[],四川省,[],[],0,028-87667777,商务住宅;楼宇;商务写字楼,120201
花都大道西段9号,温江区,[],[],[],成都市,[],B001C8R72C,[],"103.872987,30.691523",融信智慧广场,[],[],四川省,[],[],0,15198099752,商务住宅;楼宇;商住两用楼宇,120203
天府大道中段530号,武侯区,[],[],[],成都市,[],B001C8OROI,[],"104.067854,30.552968",D5东方希望天祥广场,[],[],四川省,[],[],1,028-82890000,商务住宅;楼宇;商务写字楼,120201
